{
"type": "FeatureCollection",
"name": "y_nodes_50_60_with_vector",
"crs": { "type": "name", "properties": { "name": "urn:ogc:def:crs:EPSG::6674" } },
"features": [
{ "type": "Feature", "properties": { "osmid": 1833419268, "y": 3832921.3422608329, "x": 547467.43939158146, "highway": null, "street_count": 3, "ref": null, "railway": null, "angle_range": "50-60", "min_angle": 55.3, "residual_angle": 335.13, "res_vec_x": 0.9072, "res_vec_y": -0.4206 }, "geometry": { "type": "Point", "coordinates": [ -44198.939172729515121, -151088.720243901916547 ] } },
{ "type": "Feature", "properties": { "osmid": 669012714, "y": 3832810.9021160696, "x": 547157.62694005866, "highway": null, "street_count": 4, "ref": null, "railway": null, "angle_range": "50-60", "min_angle": 54.0, "residual_angle": 59.63, "res_vec_x": 0.5056, "res_vec_y": 0.8628 }, "geometry": { "type": "Point", "coordinates": [ -44509.924199682798644, -151196.113497563055716 ] } },
{ "type": "Feature", "properties": { "osmid": 1833684571, "y": 3831172.4090503608, "x": 547285.2466941647, "highway": null, "street_count": 3, "ref": null, "railway": null, "angle_range": "50-60", "min_angle": 53.1, "residual_angle": 230.16, "res_vec_x": -0.6407, "res_vec_y": -0.7678 }, "geometry": { "type": "Point", "coordinates": [ -44398.528149470570497, -152836.278648289357079 ] } },
{ "type": "Feature", "properties": { "osmid": 11581385493, "y": 3833285.582335887, "x": 548129.14419002901, "highway": null, "street_count": 3, "ref": null, "railway": null, "angle_range": "50-60", "min_angle": 57.4, "residual_angle": 162.41, "res_vec_x": -0.9532, "res_vec_y": 0.3022 }, "geometry": { "type": "Point", "coordinates": [ -43533.456808094437292, -150730.956764019501861 ] } },
{ "type": "Feature", "properties": { "osmid": 1830143993, "y": 3832487.5598354591, "x": 547754.0638833436, "highway": null, "street_count": 4, "ref": null, "railway": null, "angle_range": "50-60", "min_angle": 51.5, "residual_angle": 281.17, "res_vec_x": 0.1937, "res_vec_y": -0.9811 }, "geometry": { "type": "Point", "coordinates": [ -43916.548126119290828, -151525.453789864375722 ] } },
{ "type": "Feature", "properties": { "osmid": 4380084810, "y": 3832491.9353036545, "x": 547750.97980087926, "highway": null, "street_count": 3, "ref": null, "railway": null, "angle_range": "50-60", "min_angle": 55.4, "residual_angle": 277.48, "res_vec_x": 0.1302, "res_vec_y": -0.9915 }, "geometry": { "type": "Point", "coordinates": [ -43919.589555566446506, -151521.046642558620078 ] } },
{ "type": "Feature", "properties": { "osmid": 3920624654, "y": 3832458.7884396906, "x": 547746.56803821388, "highway": null, "street_count": 4, "ref": null, "railway": null, "angle_range": "50-60", "min_angle": 51.0, "residual_angle": 100.9, "res_vec_x": -0.1891, "res_vec_y": 0.982 }, "geometry": { "type": "Point", "coordinates": [ -43924.331288415611198, -151554.157906129956245 ] } },
{ "type": "Feature", "properties": { "osmid": 2993806954, "y": 3833501.0309031596, "x": 547867.23843486968, "highway": "traffic_signals", "street_count": 4, "ref": null, "railway": null, "angle_range": "50-60", "min_angle": 57.5, "residual_angle": 174.65, "res_vec_x": -0.9956, "res_vec_y": 0.0932 }, "geometry": { "type": "Point", "coordinates": [ -43793.288864901704073, -150512.856037877325434 ] } },
{ "type": "Feature", "properties": { "osmid": 1833099971, "y": 3833715.7920442978, "x": 548211.13702203217, "highway": null, "street_count": 4, "ref": null, "railway": null, "angle_range": "50-60", "min_angle": 50.2, "residual_angle": 120.4, "res_vec_x": -0.506, "res_vec_y": 0.8626 }, "geometry": { "type": "Point", "coordinates": [ -43447.174318656238029, -150301.45512313299696 ] } },
{ "type": "Feature", "properties": { "osmid": 1833099963, "y": 3833892.5991947982, "x": 547901.54722048505, "highway": null, "street_count": 4, "ref": null, "railway": null, "angle_range": "50-60", "min_angle": 59.5, "residual_angle": 241.12, "res_vec_x": -0.4829, "res_vec_y": -0.8757 }, "geometry": { "type": "Point", "coordinates": [ -43755.085421239040443, -150121.531838807597524 ] } },
{ "type": "Feature", "properties": { "osmid": 1833407976, "y": 3833024.5357334781, "x": 547752.74592853803, "highway": null, "street_count": 4, "ref": null, "railway": null, "angle_range": "50-60", "min_angle": 56.9, "residual_angle": 45.05, "res_vec_x": 0.7065, "res_vec_y": 0.7077 }, "geometry": { "type": "Point", "coordinates": [ -43912.538203441850783, -150988.332422980311094 ] } },
{ "type": "Feature", "properties": { "osmid": 3921302377, "y": 3833444.3574043778, "x": 547647.19315667078, "highway": null, "street_count": 3, "ref": null, "railway": null, "angle_range": "50-60", "min_angle": 55.3, "residual_angle": 157.56, "res_vec_x": -0.9243, "res_vec_y": 0.3817 }, "geometry": { "type": "Point", "coordinates": [ -44013.950828934917809, -150567.359727744653355 ] } },
{ "type": "Feature", "properties": { "osmid": 1834011882, "y": 3831404.4644316528, "x": 547561.72347080195, "highway": null, "street_count": 3, "ref": null, "railway": null, "angle_range": "50-60", "min_angle": 58.0, "residual_angle": 165.79, "res_vec_x": -0.9694, "res_vec_y": 0.2454 }, "geometry": { "type": "Point", "coordinates": [ -44119.68116018686851, -152606.908326328266412 ] } },
{ "type": "Feature", "properties": { "osmid": 4582187926, "y": 3832924.0605507991, "x": 547286.05572009599, "highway": null, "street_count": 3, "ref": null, "railway": null, "angle_range": "50-60", "min_angle": 59.1, "residual_angle": 143.52, "res_vec_x": -0.804, "res_vec_y": 0.5946 }, "geometry": { "type": "Point", "coordinates": [ -44380.340744178633031, -151084.201411405781982 ] } },
{ "type": "Feature", "properties": { "osmid": 1833718116, "y": 3832503.0828474863, "x": 547710.7106618355, "highway": null, "street_count": 3, "ref": null, "railway": null, "angle_range": "50-60", "min_angle": 56.3, "residual_angle": 156.84, "res_vec_x": -0.9194, "res_vec_y": 0.3934 }, "geometry": { "type": "Point", "coordinates": [ -43959.758019136024814, -151509.496798180276528 ] } },
{ "type": "Feature", "properties": { "osmid": 4386707180, "y": 3832888.1946866666, "x": 547439.11360156548, "highway": null, "street_count": 3, "ref": null, "railway": null, "angle_range": "50-60", "min_angle": 53.1, "residual_angle": 233.44, "res_vec_x": -0.5957, "res_vec_y": -0.8032 }, "geometry": { "type": "Point", "coordinates": [ -44227.60088746855763, -151121.594937350222608 ] } },
{ "type": "Feature", "properties": { "osmid": 1833721697, "y": 3832742.7618040768, "x": 547519.87796966755, "highway": null, "street_count": 3, "ref": null, "railway": null, "angle_range": "50-60", "min_angle": 57.6, "residual_angle": 157.6, "res_vec_x": -0.9245, "res_vec_y": 0.3811 }, "geometry": { "type": "Point", "coordinates": [ -44148.259651713255153, -151267.86517106910469 ] } },
{ "type": "Feature", "properties": { "osmid": 1837487821, "y": 3831470.3781910744, "x": 546590.28840111312, "highway": "traffic_signals", "street_count": 4, "ref": null, "railway": null, "angle_range": "50-60", "min_angle": 54.8, "residual_angle": 37.87, "res_vec_x": 0.7894, "res_vec_y": 0.6138 }, "geometry": { "type": "Point", "coordinates": [ -45090.703425784180581, -152531.341914731339784 ] } },
{ "type": "Feature", "properties": { "osmid": 2395677559, "y": 3831928.8307045107, "x": 546395.42370596167, "highway": null, "street_count": 4, "ref": null, "railway": null, "angle_range": "50-60", "min_angle": 56.2, "residual_angle": 88.48, "res_vec_x": 0.0265, "res_vec_y": 0.9996 }, "geometry": { "type": "Point", "coordinates": [ -45281.068757140368689, -152070.841938143450534 ] } },
{ "type": "Feature", "properties": { "osmid": 1989773065, "y": 3833163.6056252257, "x": 546416.31706562499, "highway": null, "street_count": 3, "ref": null, "railway": null, "angle_range": "50-60", "min_angle": 59.8, "residual_angle": 28.89, "res_vec_x": 0.8756, "res_vec_y": 0.4831 }, "geometry": { "type": "Point", "coordinates": [ -45247.918522701576876, -150835.966121512203244 ] } },
{ "type": "Feature", "properties": { "osmid": 1890686043, "y": 3833334.7963273446, "x": 546952.45628049888, "highway": null, "street_count": 3, "ref": null, "railway": null, "angle_range": "50-60", "min_angle": 57.7, "residual_angle": 303.74, "res_vec_x": 0.5554, "res_vec_y": -0.8316 }, "geometry": { "type": "Point", "coordinates": [ -44709.946980478787737, -150670.053318585414672 ] } },
{ "type": "Feature", "properties": { "osmid": 4102573286, "y": 3831808.7292093672, "x": 545997.57666842535, "highway": null, "street_count": 3, "ref": null, "railway": null, "angle_range": "50-60", "min_angle": 55.7, "residual_angle": 274.17, "res_vec_x": 0.0726, "res_vec_y": -0.9974 }, "geometry": { "type": "Point", "coordinates": [ -45680.206781502594822, -152187.026566918211756 ] } },
{ "type": "Feature", "properties": { "osmid": 1989772601, "y": 3831938.9963220782, "x": 546390.34021175327, "highway": null, "street_count": 4, "ref": null, "railway": null, "angle_range": "50-60", "min_angle": 56.9, "residual_angle": 268.15, "res_vec_x": -0.0324, "res_vec_y": -0.9995 }, "geometry": { "type": "Point", "coordinates": [ -45286.052669432145194, -152060.623350386042148 ] } },
{ "type": "Feature", "properties": { "osmid": 12517224206, "y": 3832168.8309432347, "x": 546259.06075507333, "highway": null, "street_count": 3, "ref": null, "railway": null, "angle_range": "50-60", "min_angle": 59.4, "residual_angle": 325.49, "res_vec_x": 0.8241, "res_vec_y": -0.5665 }, "geometry": { "type": "Point", "coordinates": [ -45415.084714677839656, -151829.428883112967014 ] } },
{ "type": "Feature", "properties": { "osmid": 5667536223, "y": 3833907.2672129902, "x": 547270.27282304503, "highway": "traffic_signals", "street_count": 4, "ref": null, "railway": null, "angle_range": "50-60", "min_angle": 57.3, "residual_angle": 137.55, "res_vec_x": -0.7379, "res_vec_y": 0.675 }, "geometry": { "type": "Point", "coordinates": [ -44386.370091299788328, -150100.59467377429246 ] } },
{ "type": "Feature", "properties": { "osmid": 4380084809, "y": 3832465.8366308054, "x": 547741.37110285403, "highway": null, "street_count": 3, "ref": null, "railway": null, "angle_range": "50-60", "min_angle": 59.7, "residual_angle": 99.62, "res_vec_x": -0.1672, "res_vec_y": 0.9859 }, "geometry": { "type": "Point", "coordinates": [ -43929.459573466760048, -151547.056413353187963 ] } },
{ "type": "Feature", "properties": { "osmid": 5565644778, "y": 3832059.9593456136, "x": 546773.17612036783, "highway": null, "street_count": 3, "ref": null, "railway": null, "angle_range": "50-60", "min_angle": 59.0, "residual_angle": 293.59, "res_vec_x": 0.4002, "res_vec_y": -0.9164 }, "geometry": { "type": "Point", "coordinates": [ -44901.921282274495752, -151943.428271571261575 ] } }
]
}
