{
"type": "FeatureCollection",
"name": "y_nodes_50_60_with_vector",
"crs": { "type": "name", "properties": { "name": "urn:ogc:def:crs:OGC:1.3:CRS84" } },
"features": [
{ "type": "Feature", "properties": { "osmid": 1832906291, "y": 3834631.9972211802, "x": 547125.4018892094, "highway": "traffic_signals", "street_count": 4, "angle_range": "50-60", "min_angle": 59.1, "residual_angle": 120.15, "res_vec_x": -0.5023, "res_vec_y": 0.8647 }, "geometry": { "type": "Point", "coordinates": [ 135.514266500000019, 34.6525361 ] } },
{ "type": "Feature", "properties": { "osmid": 258765350, "y": 3834285.9427535785, "x": 547935.96266775194, "highway": "traffic_signals", "street_count": 4, "angle_range": "50-60", "min_angle": 52.1, "residual_angle": 109.13, "res_vec_x": -0.3277, "res_vec_y": 0.9448 }, "geometry": { "type": "Point", "coordinates": [ 135.523092, 34.6493779 ] } },
{ "type": "Feature", "properties": { "osmid": 2458050490, "y": 3835007.5272732168, "x": 546867.82173266087, "highway": null, "street_count": 3, "angle_range": "50-60", "min_angle": 58.0, "residual_angle": 157.01, "res_vec_x": -0.9206, "res_vec_y": 0.3906 }, "geometry": { "type": "Point", "coordinates": [ 135.511476499999986, 34.655934299999984 ] } },
{ "type": "Feature", "properties": { "osmid": 582809899, "y": 3835134.9544540453, "x": 547580.76891117834, "highway": null, "street_count": 3, "angle_range": "50-60", "min_angle": 56.4, "residual_angle": 300.1, "res_vec_x": 0.5015, "res_vec_y": -0.8652 }, "geometry": { "type": "Point", "coordinates": [ 135.5192639, 34.6570505 ] } },
{ "type": "Feature", "properties": { "osmid": 532934191, "y": 3835681.353500884, "x": 548219.60420255642, "highway": null, "street_count": 3, "angle_range": "50-60", "min_angle": 53.4, "residual_angle": 215.11, "res_vec_x": -0.818, "res_vec_y": -0.5752 }, "geometry": { "type": "Point", "coordinates": [ 135.526266600000014, 34.6619478 ] } },
{ "type": "Feature", "properties": { "osmid": 582809898, "y": 3835081.0556044537, "x": 547668.10916859354, "highway": null, "street_count": 4, "angle_range": "50-60", "min_angle": 59.0, "residual_angle": 118.82, "res_vec_x": -0.482, "res_vec_y": 0.8762 }, "geometry": { "type": "Point", "coordinates": [ 135.520214, 34.6565604 ] } },
{ "type": "Feature", "properties": { "osmid": 12669434646, "y": 3834069.9626058806, "x": 547892.79165702441, "highway": null, "street_count": 3, "angle_range": "50-60", "min_angle": 54.0, "residual_angle": 76.62, "res_vec_x": 0.2314, "res_vec_y": 0.9729 }, "geometry": { "type": "Point", "coordinates": [ 135.5226087, 34.6474323 ] } },
{ "type": "Feature", "properties": { "osmid": 1855631128, "y": 3834665.2878662092, "x": 547060.2048952973, "highway": "traffic_signals", "street_count": 4, "angle_range": "50-60", "min_angle": 59.6, "residual_angle": 300.42, "res_vec_x": 0.5063, "res_vec_y": -0.8624 }, "geometry": { "type": "Point", "coordinates": [ 135.5135569, 34.6528393 ] } },
{ "type": "Feature", "properties": { "osmid": 1832924026, "y": 3834524.1822478427, "x": 547337.1835002295, "highway": "traffic_signals", "street_count": 4, "angle_range": "50-60", "min_angle": 59.7, "residual_angle": 303.29, "res_vec_x": 0.5489, "res_vec_y": -0.8359 }, "geometry": { "type": "Point", "coordinates": [ 135.5165715, 34.6515541 ] } },
{ "type": "Feature", "properties": { "osmid": 2639641032, "y": 3834756.8957834146, "x": 547492.99426772294, "highway": null, "street_count": 4, "angle_range": "50-60", "min_angle": 55.3, "residual_angle": 296.18, "res_vec_x": 0.4412, "res_vec_y": -0.8974 }, "geometry": { "type": "Point", "coordinates": [ 135.5182848, 34.6536454 ] } },
{ "type": "Feature", "properties": { "osmid": 2639641018, "y": 3834748.5377147682, "x": 547504.42790411226, "highway": null, "street_count": 4, "angle_range": "50-60", "min_angle": 56.0, "residual_angle": 115.82, "res_vec_x": -0.4355, "res_vec_y": 0.9002 }, "geometry": { "type": "Point", "coordinates": [ 135.518409100000014, 34.65356950000001 ] } },
{ "type": "Feature", "properties": { "osmid": 6163875614, "y": 3834503.3829860608, "x": 547484.93253716605, "highway": "crossing", "street_count": 3, "angle_range": "50-60", "min_angle": 52.2, "residual_angle": 242.07, "res_vec_x": -0.4684, "res_vec_y": -0.8835 }, "geometry": { "type": "Point", "coordinates": [ 135.518182599999989, 34.6513597 ] } },
{ "type": "Feature", "properties": { "osmid": 1833023351, "y": 3833984.0070075174, "x": 547826.18918975908, "highway": null, "street_count": 3, "angle_range": "50-60", "min_angle": 57.8, "residual_angle": 62.78, "res_vec_x": 0.4574, "res_vec_y": 0.8893 }, "geometry": { "type": "Point", "coordinates": [ 135.521877100000012, 34.6466603 ] } },
{ "type": "Feature", "properties": { "osmid": 4014695093, "y": 3835853.6979070152, "x": 547419.64848975209, "highway": "traffic_signals", "street_count": 5, "angle_range": "50-60", "min_angle": 51.8, "residual_angle": 174.43, "res_vec_x": -0.9953, "res_vec_y": 0.0971 }, "geometry": { "type": "Point", "coordinates": [ 135.517545899999988, 34.6635393 ] } },
{ "type": "Feature", "properties": { "osmid": 1834724145, "y": 3835569.4468496204, "x": 547858.9546570098, "highway": null, "street_count": 4, "angle_range": "50-60", "min_angle": 55.2, "residual_angle": 58.7, "res_vec_x": 0.5195, "res_vec_y": 0.8545 }, "geometry": { "type": "Point", "coordinates": [ 135.5223243, 34.6609556 ] } },
{ "type": "Feature", "properties": { "osmid": 1834734248, "y": 3835392.8824128197, "x": 548386.89194425568, "highway": null, "street_count": 3, "angle_range": "50-60", "min_angle": 55.4, "residual_angle": 203.57, "res_vec_x": -0.9166, "res_vec_y": -0.3999 }, "geometry": { "type": "Point", "coordinates": [ 135.528075800000011, 34.6593386 ] } },
{ "type": "Feature", "properties": { "osmid": 1834761073, "y": 3836737.8215160896, "x": 548248.42324224813, "highway": "traffic_signals", "street_count": 4, "angle_range": "50-60", "min_angle": 58.9, "residual_angle": 24.35, "res_vec_x": 0.911, "res_vec_y": 0.4123 }, "geometry": { "type": "Point", "coordinates": [ 135.526641399999988, 34.6714732 ] } },
{ "type": "Feature", "properties": { "osmid": 2660520531, "y": 3836365.085960513, "x": 548185.56763670803, "highway": null, "street_count": 3, "angle_range": "50-60", "min_angle": 57.3, "residual_angle": 148.05, "res_vec_x": -0.8485, "res_vec_y": 0.5292 }, "geometry": { "type": "Point", "coordinates": [ 135.5259341, 34.668115 ] } },
{ "type": "Feature", "properties": { "osmid": 1834843732, "y": 3836984.6016688072, "x": 548302.49652757065, "highway": null, "street_count": 4, "angle_range": "50-60", "min_angle": 59.7, "residual_angle": 214.97, "res_vec_x": -0.8194, "res_vec_y": -0.5732 }, "geometry": { "type": "Point", "coordinates": [ 135.5272457, 34.673696 ] } },
{ "type": "Feature", "properties": { "osmid": 2639663935, "y": 3834726.4611812546, "x": 548049.27805466263, "highway": null, "street_count": 3, "angle_range": "50-60", "min_angle": 54.3, "residual_angle": 74.24, "res_vec_x": 0.2715, "res_vec_y": 0.9624 }, "geometry": { "type": "Point", "coordinates": [ 135.524353499999989, 34.653345 ] } }
]
}
