{
"type": "FeatureCollection",
"name": "y_nodes_40_50_with_vector",
"crs": { "type": "name", "properties": { "name": "urn:ogc:def:crs:OGC:1.3:CRS84" } },
"features": [
{ "type": "Feature", "properties": { "osmid": 258765312, "y": 3834758.3638303746, "x": 546951.75329851895, "highway": null, "street_count": 3, "angle_range": "40-50", "min_angle": 42.5, "residual_angle": 205.83, "res_vec_x": -0.9001, "res_vec_y": -0.4357 }, "geometry": { "type": "Point", "coordinates": [ 135.5123786, 34.6536836 ] } },
{ "type": "Feature", "properties": { "osmid": 438757181, "y": 3835357.5095460387, "x": 547934.62389896635, "highway": null, "street_count": 3, "angle_range": "40-50", "min_angle": 49.5, "residual_angle": 84.68, "res_vec_x": 0.0928, "res_vec_y": 0.9957 }, "geometry": { "type": "Point", "coordinates": [ 135.523138100000011, 34.6590409 ] } },
{ "type": "Feature", "properties": { "osmid": 582809889, "y": 3835049.5719887498, "x": 547845.91611522657, "highway": null, "street_count": 4, "angle_range": "40-50", "min_angle": 42.7, "residual_angle": 22.16, "res_vec_x": 0.9262, "res_vec_y": 0.3771 }, "geometry": { "type": "Point", "coordinates": [ 135.5221526, 34.6562682 ] } },
{ "type": "Feature", "properties": { "osmid": 4446398769, "y": 3834750.6098077465, "x": 547099.32109208801, "highway": null, "street_count": 3, "angle_range": "40-50", "min_angle": 49.8, "residual_angle": 355.91, "res_vec_x": 0.9975, "res_vec_y": -0.0713 }, "geometry": { "type": "Point", "coordinates": [ 135.513988500000011, 34.6536069 ] } },
{ "type": "Feature", "properties": { "osmid": 2916813792, "y": 3835702.3542132801, "x": 548261.51556542504, "highway": null, "street_count": 3, "angle_range": "40-50", "min_angle": 48.0, "residual_angle": 327.59, "res_vec_x": 0.8442, "res_vec_y": -0.536 }, "geometry": { "type": "Point", "coordinates": [ 135.526725199999987, 34.6621352 ] } },
{ "type": "Feature", "properties": { "osmid": 1832924016, "y": 3834572.9153638617, "x": 547405.38879043958, "highway": "traffic_signals", "street_count": 4, "angle_range": "40-50", "min_angle": 42.2, "residual_angle": 332.0, "res_vec_x": 0.883, "res_vec_y": -0.4694 }, "geometry": { "type": "Point", "coordinates": [ 135.517318499999988, 34.6519904 ] } },
{ "type": "Feature", "properties": { "osmid": 11587041192, "y": 3835277.1090992084, "x": 548062.23741816625, "highway": null, "street_count": 3, "angle_range": "40-50", "min_angle": 42.2, "residual_angle": 50.82, "res_vec_x": 0.6318, "res_vec_y": 0.7751 }, "geometry": { "type": "Point", "coordinates": [ 135.5245262, 34.6583099 ] } },
{ "type": "Feature", "properties": { "osmid": 1832993778, "y": 3834175.247657646, "x": 547342.58298873203, "highway": "traffic_signals", "street_count": 4, "angle_range": "40-50", "min_angle": 47.5, "residual_angle": 214.65, "res_vec_x": -0.8226, "res_vec_y": -0.5686 }, "geometry": { "type": "Point", "coordinates": [ 135.516610900000018, 34.6484073 ] } },
{ "type": "Feature", "properties": { "osmid": 1830308686, "y": 3834493.3007580256, "x": 547928.87463103957, "highway": "traffic_signals", "street_count": 5, "angle_range": "40-50", "min_angle": 47.9, "residual_angle": 66.44, "res_vec_x": 0.3998, "res_vec_y": 0.9166 }, "geometry": { "type": "Point", "coordinates": [ 135.5230264, 34.6512481 ] } },
{ "type": "Feature", "properties": { "osmid": 1823253442, "y": 3834396.3329946292, "x": 547828.03114317032, "highway": "traffic_signals", "street_count": 5, "angle_range": "40-50", "min_angle": 45.0, "residual_angle": 336.02, "res_vec_x": 0.9137, "res_vec_y": -0.4064 }, "geometry": { "type": "Point", "coordinates": [ 135.5219205, 34.6503784 ] } },
{ "type": "Feature", "properties": { "osmid": 2637672845, "y": 3835201.6399004175, "x": 547092.88756341988, "highway": null, "street_count": 3, "angle_range": "40-50", "min_angle": 43.7, "residual_angle": 241.15, "res_vec_x": -0.4825, "res_vec_y": -0.8759 }, "geometry": { "type": "Point", "coordinates": [ 135.513943400000016, 34.6576744 ] } },
{ "type": "Feature", "properties": { "osmid": 1832567555, "y": 3834456.2503380794, "x": 547512.46567010414, "highway": "crossing", "street_count": 3, "angle_range": "40-50", "min_angle": 48.6, "residual_angle": 160.82, "res_vec_x": -0.9445, "res_vec_y": 0.3285 }, "geometry": { "type": "Point", "coordinates": [ 135.518480399999987, 34.6509334 ] } },
{ "type": "Feature", "properties": { "osmid": 1832941425, "y": 3834474.3539531264, "x": 547494.16344363976, "highway": "traffic_signals", "street_count": 4, "angle_range": "40-50", "min_angle": 43.5, "residual_angle": 290.02, "res_vec_x": 0.3423, "res_vec_y": -0.9396 }, "geometry": { "type": "Point", "coordinates": [ 135.518281699999989, 34.6510975 ] } },
{ "type": "Feature", "properties": { "osmid": 1832924002, "y": 3834581.8387053297, "x": 547225.05053956353, "highway": null, "street_count": 3, "angle_range": "40-50", "min_angle": 47.7, "residual_angle": 355.76, "res_vec_x": 0.9973, "res_vec_y": -0.0739 }, "geometry": { "type": "Point", "coordinates": [ 135.5153511, 34.65207920000001 ] } },
{ "type": "Feature", "properties": { "osmid": 1834728302, "y": 3835319.7486721426, "x": 548136.84276323731, "highway": null, "street_count": 4, "angle_range": "40-50", "min_angle": 45.5, "residual_angle": 232.49, "res_vec_x": -0.6089, "res_vec_y": -0.7932 }, "geometry": { "type": "Point", "coordinates": [ 135.5253428, 34.6586909 ] } }
]
}
