{
"type": "FeatureCollection",
"name": "y_nodes_10_20_with_vector",
"crs": { "type": "name", "properties": { "name": "urn:ogc:def:crs:OGC:1.3:CRS84" } },
"features": [
{ "type": "Feature", "properties": { "osmid": 4405637898, "y": 3834175.6384216999, "x": 547369.04776979412, "highway": null, "street_count": 3, "angle_range": "10-20", "min_angle": 15.5, "residual_angle": 188.57, "res_vec_x": -0.9888, "res_vec_y": -0.149 }, "geometry": { "type": "Point", "coordinates": [ 135.51689970000001, 34.6484096 ] } },
{ "type": "Feature", "properties": { "osmid": 1834728300, "y": 3835355.0708029852, "x": 548249.84299578134, "highway": "traffic_signals", "street_count": 5, "angle_range": "10-20", "min_angle": 14.0, "residual_angle": 252.78, "res_vec_x": -0.2961, "res_vec_y": -0.9552 }, "geometry": { "type": "Point", "coordinates": [ 135.526578, 34.6590041 ] } }
]
}
