{
"type": "FeatureCollection",
"name": "y_nodes_30_40_with_vector",
"crs": { "type": "name", "properties": { "name": "urn:ogc:def:crs:OGC:1.3:CRS84" } },
"features": [
{ "type": "Feature", "properties": { "osmid": 1832941447, "y": 3834482.1543105808, "x": 547484.25359058264, "highway": "traffic_signals", "street_count": 4, "angle_range": "30-40", "min_angle": 39.5, "residual_angle": 107.96, "res_vec_x": -0.3083, "res_vec_y": 0.9513 }, "geometry": { "type": "Point", "coordinates": [ 135.518174, 34.6511683 ] } },
{ "type": "Feature", "properties": { "osmid": 1829575050, "y": 3835767.1016561203, "x": 547941.55900289374, "highway": "traffic_signals", "street_count": 5, "angle_range": "30-40", "min_angle": 38.2, "residual_angle": 347.03, "res_vec_x": 0.9745, "res_vec_y": -0.2244 }, "geometry": { "type": "Point", "coordinates": [ 135.523237, 34.6627341 ] } },
{ "type": "Feature", "properties": { "osmid": 1830459106, "y": 3834242.7790869372, "x": 547667.4790589948, "highway": "traffic_signals", "street_count": 6, "angle_range": "30-40", "min_angle": 38.6, "residual_angle": 227.68, "res_vec_x": -0.6733, "res_vec_y": -0.7394 }, "geometry": { "type": "Point", "coordinates": [ 135.52015990000001, 34.6490012 ] } },
{ "type": "Feature", "properties": { "osmid": 2639640972, "y": 3834661.9785208325, "x": 547632.39836279687, "highway": null, "street_count": 3, "angle_range": "30-40", "min_angle": 33.0, "residual_angle": 161.4, "res_vec_x": -0.9478, "res_vec_y": 0.319 }, "geometry": { "type": "Point", "coordinates": [ 135.5198007, 34.652783 ] } },
{ "type": "Feature", "properties": { "osmid": 4020083977, "y": 3836129.8179173493, "x": 548453.66245289682, "highway": "traffic_signals", "street_count": 5, "angle_range": "30-40", "min_angle": 39.6, "residual_angle": 179.01, "res_vec_x": -0.9999, "res_vec_y": 0.0173 }, "geometry": { "type": "Point", "coordinates": [ 135.5288467, 34.6659808 ] } }
]
}
