{
"type": "FeatureCollection",
"name": "y_nodes_20_30_with_vector",
"crs": { "type": "name", "properties": { "name": "urn:ogc:def:crs:OGC:1.3:CRS84" } },
"features": [
{ "type": "Feature", "properties": { "osmid": 2672717236, "y": 3835631.1229882706, "x": 548209.90645455162, "highway": null, "street_count": 4, "angle_range": "20-30", "min_angle": 28.3, "residual_angle": 282.26, "res_vec_x": 0.2124, "res_vec_y": -0.9772 }, "geometry": { "type": "Point", "coordinates": [ 135.526157899999987, 34.6614953 ] } },
{ "type": "Feature", "properties": { "osmid": 7987230880, "y": 3834183.0647363993, "x": 547422.3647710256, "highway": null, "street_count": 3, "angle_range": "20-30", "min_angle": 26.6, "residual_angle": 356.23, "res_vec_x": 0.9978, "res_vec_y": -0.0658 }, "geometry": { "type": "Point", "coordinates": [ 135.5174819, 34.6484741 ] } },
{ "type": "Feature", "properties": { "osmid": 1834843693, "y": 3836944.6989113684, "x": 548119.4537321768, "highway": "traffic_signals", "street_count": 3, "angle_range": "20-30", "min_angle": 24.6, "residual_angle": 52.49, "res_vec_x": 0.6089, "res_vec_y": 0.7932 }, "geometry": { "type": "Point", "coordinates": [ 135.525245500000011, 34.6733448 ] } }
]
}
