{
"type": "FeatureCollection",
"name": "y_nodes_60_70_with_vector",
"crs": { "type": "name", "properties": { "name": "urn:ogc:def:crs:OGC:1.3:CRS84" } },
"features": [
{ "type": "Feature", "properties": { "osmid": 473404784, "y": 3834760.8307237434, "x": 547076.88176006649, "highway": "traffic_signals", "street_count": 4, "angle_range": "60-70", "min_angle": 68.0, "residual_angle": 304.11, "res_vec_x": 0.5608, "res_vec_y": -0.8279 }, "geometry": { "type": "Point", "coordinates": [ 135.5137442, 34.6537001 ] } },
{ "type": "Feature", "properties": { "osmid": 1832924009, "y": 3834641.092664673, "x": 547333.94494621851, "highway": "traffic_signals", "street_count": 3, "angle_range": "60-70", "min_angle": 61.3, "residual_angle": 302.53, "res_vec_x": 0.5378, "res_vec_y": -0.8431 }, "geometry": { "type": "Point", "coordinates": [ 135.5165427, 34.6526085 ] } },
{ "type": "Feature", "properties": { "osmid": 675925281, "y": 3834499.596273202, "x": 547384.61450681358, "highway": null, "street_count": 3, "angle_range": "60-70", "min_angle": 65.9, "residual_angle": 300.24, "res_vec_x": 0.5036, "res_vec_y": -0.8639 }, "geometry": { "type": "Point", "coordinates": [ 135.5170877, 34.6513302 ] } },
{ "type": "Feature", "properties": { "osmid": 442978849, "y": 3834979.6367362794, "x": 546826.17734306573, "highway": null, "street_count": 3, "angle_range": "60-70", "min_angle": 68.2, "residual_angle": 207.93, "res_vec_x": -0.8835, "res_vec_y": -0.4684 }, "geometry": { "type": "Point", "coordinates": [ 135.5110205, 34.6556847 ] } },
{ "type": "Feature", "properties": { "osmid": 411669986, "y": 3835210.6933840229, "x": 548331.82190627477, "highway": "traffic_signals", "street_count": 4, "angle_range": "60-70", "min_angle": 60.9, "residual_angle": 325.64, "res_vec_x": 0.8255, "res_vec_y": -0.5644 }, "geometry": { "type": "Point", "coordinates": [ 135.527464400000014, 34.6576983 ] } },
{ "type": "Feature", "properties": { "osmid": 457804894, "y": 3834966.9585786564, "x": 547929.87985434022, "highway": "traffic_signals", "street_count": 4, "angle_range": "60-70", "min_angle": 68.1, "residual_angle": 125.84, "res_vec_x": -0.5855, "res_vec_y": 0.8106 }, "geometry": { "type": "Point", "coordinates": [ 135.5230642, 34.6555193 ] } },
{ "type": "Feature", "properties": { "osmid": 1824880676, "y": 3834655.6921997895, "x": 547076.95962128276, "highway": "traffic_signals", "street_count": 4, "angle_range": "60-70", "min_angle": 62.0, "residual_angle": 119.21, "res_vec_x": -0.488, "res_vec_y": 0.8728 }, "geometry": { "type": "Point", "coordinates": [ 135.5137392, 34.652752 ] } },
{ "type": "Feature", "properties": { "osmid": 1834720203, "y": 3835404.6754860575, "x": 547540.52686574694, "highway": null, "street_count": 4, "angle_range": "60-70", "min_angle": 67.2, "residual_angle": 299.77, "res_vec_x": 0.4966, "res_vec_y": -0.868 }, "geometry": { "type": "Point", "coordinates": [ 135.518839899999989, 34.6594846 ] } },
{ "type": "Feature", "properties": { "osmid": 569884552, "y": 3836763.540717362, "x": 547810.06856417062, "highway": null, "street_count": 4, "angle_range": "60-70", "min_angle": 66.1, "residual_angle": 228.07, "res_vec_x": -0.6682, "res_vec_y": -0.744 }, "geometry": { "type": "Point", "coordinates": [ 135.5218583, 34.6717257 ] } },
{ "type": "Feature", "properties": { "osmid": 2637664335, "y": 3835160.2912497805, "x": 547221.73454579921, "highway": "traffic_signals", "street_count": 4, "angle_range": "60-70", "min_angle": 66.0, "residual_angle": 206.57, "res_vec_x": -0.8944, "res_vec_y": -0.4472 }, "geometry": { "type": "Point", "coordinates": [ 135.5153472, 34.6572956 ] } },
{ "type": "Feature", "properties": { "osmid": 582809887, "y": 3835012.2948338203, "x": 547806.32104216109, "highway": "traffic_signals", "street_count": 4, "angle_range": "60-70", "min_angle": 63.5, "residual_angle": 11.56, "res_vec_x": 0.9797, "res_vec_y": 0.2004 }, "geometry": { "type": "Point", "coordinates": [ 135.5217184, 34.6559339 ] } },
{ "type": "Feature", "properties": { "osmid": 675924682, "y": 3834690.3161529908, "x": 547010.02421262558, "highway": null, "street_count": 4, "angle_range": "60-70", "min_angle": 69.1, "residual_angle": 115.97, "res_vec_x": -0.4378, "res_vec_y": 0.8991 }, "geometry": { "type": "Point", "coordinates": [ 135.5130107, 34.6530673 ] } },
{ "type": "Feature", "properties": { "osmid": 675926167, "y": 3834134.2062244993, "x": 547948.83820852707, "highway": "traffic_signals", "street_count": 4, "angle_range": "60-70", "min_angle": 68.0, "residual_angle": 195.19, "res_vec_x": -0.9651, "res_vec_y": -0.262 }, "geometry": { "type": "Point", "coordinates": [ 135.5232239, 34.648009 ] } },
{ "type": "Feature", "properties": { "osmid": 1834761082, "y": 3836215.1078389506, "x": 548297.24318779272, "highway": null, "street_count": 4, "angle_range": "60-70", "min_angle": 65.3, "residual_angle": 328.24, "res_vec_x": 0.8502, "res_vec_y": -0.5264 }, "geometry": { "type": "Point", "coordinates": [ 135.5271444, 34.6667573 ] } },
{ "type": "Feature", "properties": { "osmid": 1834822194, "y": 3836827.9988276316, "x": 548510.2170475974, "highway": null, "street_count": 4, "angle_range": "60-70", "min_angle": 62.2, "residual_angle": 207.62, "res_vec_x": -0.8861, "res_vec_y": -0.4635 }, "geometry": { "type": "Point", "coordinates": [ 135.529504, 34.672274 ] } },
{ "type": "Feature", "properties": { "osmid": 11963353460, "y": 3837039.7564691049, "x": 548691.95972789242, "highway": null, "street_count": 3, "angle_range": "60-70", "min_angle": 65.2, "residual_angle": 288.16, "res_vec_x": 0.3117, "res_vec_y": -0.9502 }, "geometry": { "type": "Point", "coordinates": [ 135.5314999, 34.674174900000011 ] } },
{ "type": "Feature", "properties": { "osmid": 1639385189, "y": 3836885.5839124122, "x": 548587.68825558084, "highway": null, "street_count": 4, "angle_range": "60-70", "min_angle": 66.5, "residual_angle": 213.32, "res_vec_x": -0.8356, "res_vec_y": -0.5493 }, "geometry": { "type": "Point", "coordinates": [ 135.5303529, 34.6727896 ] } },
{ "type": "Feature", "properties": { "osmid": 1834825262, "y": 3836425.5090999687, "x": 548259.18179908372, "highway": null, "street_count": 4, "angle_range": "60-70", "min_angle": 69.5, "residual_angle": 137.65, "res_vec_x": -0.739, "res_vec_y": 0.6737 }, "geometry": { "type": "Point", "coordinates": [ 135.526741, 34.6686564 ] } },
{ "type": "Feature", "properties": { "osmid": 1823253454, "y": 3834427.3507440011, "x": 547796.01587466826, "highway": null, "street_count": 3, "angle_range": "60-70", "min_angle": 69.1, "residual_angle": 115.55, "res_vec_x": -0.4313, "res_vec_y": 0.9022 }, "geometry": { "type": "Point", "coordinates": [ 135.5215729, 34.6506596 ] } },
{ "type": "Feature", "properties": { "osmid": 1830459058, "y": 3834165.188502721, "x": 547290.4340849669, "highway": null, "street_count": 3, "angle_range": "60-70", "min_angle": 64.7, "residual_angle": 43.27, "res_vec_x": 0.7281, "res_vec_y": 0.6855 }, "geometry": { "type": "Point", "coordinates": [ 135.516041300000012, 34.648319 ] } },
{ "type": "Feature", "properties": { "osmid": 1830731311, "y": 3836326.4879996045, "x": 548503.95701832592, "highway": "traffic_signals", "street_count": 4, "angle_range": "60-70", "min_angle": 67.8, "residual_angle": 289.07, "res_vec_x": 0.3268, "res_vec_y": -0.9451 }, "geometry": { "type": "Point", "coordinates": [ 135.5294069, 34.6677519 ] } },
{ "type": "Feature", "properties": { "osmid": 4326859601, "y": 3834452.7488083015, "x": 547528.08103142784, "highway": null, "street_count": 3, "angle_range": "60-70", "min_angle": 67.8, "residual_angle": 319.42, "res_vec_x": 0.7595, "res_vec_y": -0.6505 }, "geometry": { "type": "Point", "coordinates": [ 135.5186506, 34.650901099999984 ] } },
{ "type": "Feature", "properties": { "osmid": 1832924011, "y": 3834475.7431050465, "x": 547204.94643269619, "highway": null, "street_count": 4, "angle_range": "60-70", "min_angle": 69.4, "residual_angle": 215.27, "res_vec_x": -0.8165, "res_vec_y": -0.5774 }, "geometry": { "type": "Point", "coordinates": [ 135.5151258, 34.6511234 ] } },
{ "type": "Feature", "properties": { "osmid": 1832924021, "y": 3834569.5915049994, "x": 547248.02319030243, "highway": null, "street_count": 3, "angle_range": "60-70", "min_angle": 64.4, "residual_angle": 300.81, "res_vec_x": 0.5121, "res_vec_y": -0.8589 }, "geometry": { "type": "Point", "coordinates": [ 135.5156011, 34.6519677 ] } },
{ "type": "Feature", "properties": { "osmid": 1832924015, "y": 3834368.9042038932, "x": 547267.16768646834, "highway": null, "street_count": 3, "angle_range": "60-70", "min_angle": 67.2, "residual_angle": 114.98, "res_vec_x": -0.4223, "res_vec_y": 0.9065 }, "geometry": { "type": "Point", "coordinates": [ 135.5157988, 34.6501571 ] } },
{ "type": "Feature", "properties": { "osmid": 1832993780, "y": 3834152.0071868622, "x": 547221.86923893704, "highway": "traffic_signals", "street_count": 4, "angle_range": "60-70", "min_angle": 61.2, "residual_angle": 41.5, "res_vec_x": 0.7489, "res_vec_y": 0.6626 }, "geometry": { "type": "Point", "coordinates": [ 135.5152924, 34.6482033 ] } },
{ "type": "Feature", "properties": { "osmid": 1833023301, "y": 3834204.4944911725, "x": 547821.17084742361, "highway": null, "street_count": 4, "angle_range": "60-70", "min_angle": 65.4, "residual_angle": 123.24, "res_vec_x": -0.5482, "res_vec_y": 0.8364 }, "geometry": { "type": "Point", "coordinates": [ 135.5218348, 34.6486488 ] } },
{ "type": "Feature", "properties": { "osmid": 1833023234, "y": 3834171.4968587542, "x": 547822.0473775093, "highway": null, "street_count": 4, "angle_range": "60-70", "min_angle": 64.2, "residual_angle": 123.62, "res_vec_x": -0.5536, "res_vec_y": 0.8328 }, "geometry": { "type": "Point", "coordinates": [ 135.5218425, 34.648351200000015 ] } },
{ "type": "Feature", "properties": { "osmid": 2509222727, "y": 3834218.6975287236, "x": 547709.19124086236, "highway": null, "street_count": 3, "angle_range": "60-70", "min_angle": 67.5, "residual_angle": 280.95, "res_vec_x": 0.19, "res_vec_y": -0.9818 }, "geometry": { "type": "Point", "coordinates": [ 135.520613700000013, 34.6487821 ] } },
{ "type": "Feature", "properties": { "osmid": 2628144997, "y": 3834042.3649698636, "x": 547887.14278155949, "highway": null, "street_count": 3, "angle_range": "60-70", "min_angle": 69.9, "residual_angle": 279.73, "res_vec_x": 0.1689, "res_vec_y": -0.9856 }, "geometry": { "type": "Point", "coordinates": [ 135.5225455, 34.6471837 ] } },
{ "type": "Feature", "properties": { "osmid": 1834704691, "y": 3835559.6323438589, "x": 547758.25797214126, "highway": null, "street_count": 3, "angle_range": "60-70", "min_angle": 60.3, "residual_angle": 106.64, "res_vec_x": -0.2863, "res_vec_y": 0.9581 }, "geometry": { "type": "Point", "coordinates": [ 135.5212248, 34.6608718 ] } },
{ "type": "Feature", "properties": { "osmid": 1834724140, "y": 3835729.8721324867, "x": 547795.73291941301, "highway": null, "street_count": 4, "angle_range": "60-70", "min_angle": 66.9, "residual_angle": 302.77, "res_vec_x": 0.5413, "res_vec_y": -0.8408 }, "geometry": { "type": "Point", "coordinates": [ 135.521643399999988, 34.6624052 ] } },
{ "type": "Feature", "properties": { "osmid": 1834720163, "y": 3835656.5455966252, "x": 548083.40748642955, "highway": null, "street_count": 3, "angle_range": "60-70", "min_angle": 62.7, "residual_angle": 285.92, "res_vec_x": 0.2742, "res_vec_y": -0.9617 }, "geometry": { "type": "Point", "coordinates": [ 135.5247788, 34.6617305 ] } },
{ "type": "Feature", "properties": { "osmid": 1834832216, "y": 3836363.610101271, "x": 548210.86313991155, "highway": null, "street_count": 4, "angle_range": "60-70", "min_angle": 65.5, "residual_angle": 143.93, "res_vec_x": -0.8083, "res_vec_y": 0.5887 }, "geometry": { "type": "Point", "coordinates": [ 135.526210099999986, 34.6681005 ] } },
{ "type": "Feature", "properties": { "osmid": 1834832199, "y": 3836442.0050609051, "x": 548135.03978450003, "highway": null, "street_count": 4, "angle_range": "60-70", "min_angle": 63.8, "residual_angle": 204.32, "res_vec_x": -0.9112, "res_vec_y": -0.4119 }, "geometry": { "type": "Point", "coordinates": [ 135.525387, 34.668811 ] } },
{ "type": "Feature", "properties": { "osmid": 1834832186, "y": 3836407.1700165267, "x": 548193.96036246489, "highway": null, "street_count": 4, "angle_range": "60-70", "min_angle": 60.5, "residual_angle": 321.47, "res_vec_x": 0.7823, "res_vec_y": -0.6229 }, "geometry": { "type": "Point", "coordinates": [ 135.5260281, 34.6684941 ] } },
{ "type": "Feature", "properties": { "osmid": 1834832208, "y": 3836435.6134263612, "x": 548183.12872164638, "highway": null, "street_count": 4, "angle_range": "60-70", "min_angle": 60.7, "residual_angle": 142.07, "res_vec_x": -0.7888, "res_vec_y": 0.6147 }, "geometry": { "type": "Point", "coordinates": [ 135.525911500000035, 34.6687511 ] } },
{ "type": "Feature", "properties": { "osmid": 1834832185, "y": 3836465.5261147646, "x": 548171.21750516829, "highway": null, "street_count": 3, "angle_range": "60-70", "min_angle": 62.5, "residual_angle": 143.05, "res_vec_x": -0.7991, "res_vec_y": 0.6011 }, "geometry": { "type": "Point", "coordinates": [ 135.5257832, 34.6690214 ] } },
{ "type": "Feature", "properties": { "osmid": 2660521050, "y": 3836410.2938944311, "x": 548163.58052208181, "highway": null, "street_count": 3, "angle_range": "60-70", "min_angle": 62.6, "residual_angle": 322.4, "res_vec_x": 0.7923, "res_vec_y": -0.6102 }, "geometry": { "type": "Point", "coordinates": [ 135.5256967, 34.668523699999987 ] } },
{ "type": "Feature", "properties": { "osmid": 1834850331, "y": 3837065.2559280652, "x": 548177.43139362207, "highway": null, "street_count": 3, "angle_range": "60-70", "min_angle": 68.2, "residual_angle": 31.2, "res_vec_x": 0.8554, "res_vec_y": 0.518 }, "geometry": { "type": "Point", "coordinates": [ 135.5258852, 34.6744292 ] } },
{ "type": "Feature", "properties": { "osmid": 1834843696, "y": 3837027.0393672222, "x": 548261.89007128903, "highway": null, "street_count": 3, "angle_range": "60-70", "min_angle": 68.1, "residual_angle": 148.79, "res_vec_x": -0.8553, "res_vec_y": 0.5182 }, "geometry": { "type": "Point", "coordinates": [ 135.5268049, 34.6740806 ] } },
{ "type": "Feature", "properties": { "osmid": 1834850338, "y": 3836884.0937024248, "x": 548023.45258479891, "highway": null, "street_count": 4, "angle_range": "60-70", "min_angle": 65.1, "residual_angle": 239.89, "res_vec_x": -0.5016, "res_vec_y": -0.8651 }, "geometry": { "type": "Point", "coordinates": [ 135.524194200000011, 34.6728028 ] } },
{ "type": "Feature", "properties": { "osmid": 1834850318, "y": 3836212.8994123503, "x": 547747.09896830539, "highway": null, "street_count": 4, "angle_range": "60-70", "min_angle": 60.0, "residual_angle": 302.38, "res_vec_x": 0.5355, "res_vec_y": -0.8446 }, "geometry": { "type": "Point", "coordinates": [ 135.5211399, 34.6667632 ] } },
{ "type": "Feature", "properties": { "osmid": 1834850346, "y": 3836906.0962961186, "x": 547944.75814439892, "highway": "traffic_signals", "street_count": 4, "angle_range": "60-70", "min_angle": 69.3, "residual_angle": 53.13, "res_vec_x": 0.6, "res_vec_y": 0.8 }, "geometry": { "type": "Point", "coordinates": [ 135.5233365, 34.6730049 ] } },
{ "type": "Feature", "properties": { "osmid": 1834850324, "y": 3836843.5642297235, "x": 547945.05559686746, "highway": null, "street_count": 4, "angle_range": "60-70", "min_angle": 60.9, "residual_angle": 57.77, "res_vec_x": 0.5333, "res_vec_y": 0.8459 }, "geometry": { "type": "Point", "coordinates": [ 135.523336199999989, 34.672441 ] } },
{ "type": "Feature", "properties": { "osmid": 2509222722, "y": 3834175.9469139217, "x": 547698.29567263229, "highway": null, "street_count": 3, "angle_range": "60-70", "min_angle": 60.0, "residual_angle": 112.81, "res_vec_x": -0.3876, "res_vec_y": 0.9218 }, "geometry": { "type": "Point", "coordinates": [ 135.5204924, 34.6483971 ] } },
{ "type": "Feature", "properties": { "osmid": 2571539992, "y": 3834164.2297617416, "x": 547628.23923821212, "highway": null, "street_count": 3, "angle_range": "60-70", "min_angle": 62.7, "residual_angle": 211.54, "res_vec_x": -0.8523, "res_vec_y": -0.5231 }, "geometry": { "type": "Point", "coordinates": [ 135.5197273, 34.6482947 ] } },
{ "type": "Feature", "properties": { "osmid": 2640487345, "y": 3834600.6791540342, "x": 547992.78595189226, "highway": null, "street_count": 3, "angle_range": "60-70", "min_angle": 64.3, "residual_angle": 331.06, "res_vec_x": 0.8751, "res_vec_y": -0.4839 }, "geometry": { "type": "Point", "coordinates": [ 135.5237299, 34.6522134 ] } },
{ "type": "Feature", "properties": { "osmid": 2672717225, "y": 3835620.7951314361, "x": 548207.10154494166, "highway": null, "street_count": 3, "angle_range": "60-70", "min_angle": 64.5, "residual_angle": 208.48, "res_vec_x": -0.879, "res_vec_y": -0.4768 }, "geometry": { "type": "Point", "coordinates": [ 135.5261267, 34.6614023 ] } }
]
}
