{
"type": "FeatureCollection",
"name": "y_nodes_20_30_with_vector",
"crs": { "type": "name", "properties": { "name": "urn:ogc:def:crs:OGC:1.3:CRS84" } },
"features": [
{ "type": "Feature", "properties": { "osmid": 1858021458, "y": 3837843.6056792689, "x": 546798.90435595834, "street_count": 3, "highway": null, "ref": null, "junction": null, "angle_range": "20-30", "min_angle": 23.7, "residual_angle": 9.24, "res_vec_x": 0.987, "res_vec_y": 0.1606 }, "geometry": { "type": "Point", "coordinates": [ 135.510881399999988, 34.681512 ] } },
{ "type": "Feature", "properties": { "osmid": 2569737753, "y": 3837841.6148670791, "x": 546906.91969480435, "street_count": 3, "highway": null, "ref": null, "junction": null, "angle_range": "20-30", "min_angle": 20.9, "residual_angle": 170.84, "res_vec_x": -0.9873, "res_vec_y": 0.1592 }, "geometry": { "type": "Point", "coordinates": [ 135.5120604, 34.6814891 ] } },
{ "type": "Feature", "properties": { "osmid": 1857993039, "y": 3836307.8942854167, "x": 546742.49483540945, "street_count": 5, "highway": "traffic_signals", "ref": null, "junction": null, "angle_range": "20-30", "min_angle": 29.6, "residual_angle": 8.81, "res_vec_x": 0.9882, "res_vec_y": 0.1532 }, "geometry": { "type": "Point", "coordinates": [ 135.5101807, 34.6676662 ] } },
{ "type": "Feature", "properties": { "osmid": 2569737746, "y": 3837857.9245009227, "x": 546864.88058996515, "street_count": 3, "highway": null, "ref": null, "junction": null, "angle_range": "20-30", "min_angle": 21.0, "residual_angle": 347.89, "res_vec_x": 0.9777, "res_vec_y": -0.2099 }, "geometry": { "type": "Point", "coordinates": [ 135.511602399999987, 34.6816381 ] } }
]
}
