{
"type": "FeatureCollection",
"name": "y_nodes_50_60_with_vector",
"crs": { "type": "name", "properties": { "name": "urn:ogc:def:crs:OGC:1.3:CRS84" } },
"features": [
{ "type": "Feature", "properties": { "osmid": 521643490, "y": 3838950.1031657453, "x": 548386.4390549633, "street_count": 3, "highway": "traffic_signals", "ref": null, "junction": null, "angle_range": "50-60", "min_angle": 54.9, "residual_angle": 322.8, "res_vec_x": 0.7965, "res_vec_y": -0.6047 }, "geometry": { "type": "Point", "coordinates": [ 135.5282745, 34.691416 ] } },
{ "type": "Feature", "properties": { "osmid": 1906846565, "y": 3835960.0390489758, "x": 546178.27311290987, "street_count": 4, "highway": null, "ref": null, "junction": null, "angle_range": "50-60", "min_angle": 51.4, "residual_angle": 249.5, "res_vec_x": -0.3502, "res_vec_y": -0.9367 }, "geometry": { "type": "Point", "coordinates": [ 135.5040036, 34.664555 ] } },
{ "type": "Feature", "properties": { "osmid": 560259123, "y": 3836779.5039836862, "x": 545647.73651064956, "street_count": 4, "highway": "traffic_signals", "ref": null, "junction": null, "angle_range": "50-60", "min_angle": 59.2, "residual_angle": 115.52, "res_vec_x": -0.4308, "res_vec_y": 0.9024 }, "geometry": { "type": "Point", "coordinates": [ 135.498257599999988, 34.6719684 ] } },
{ "type": "Feature", "properties": { "osmid": 1617251484, "y": 3836680.0519463057, "x": 545535.12514159188, "street_count": 4, "highway": null, "ref": null, "junction": null, "angle_range": "50-60", "min_angle": 58.4, "residual_angle": 55.8, "res_vec_x": 0.5621, "res_vec_y": 0.8271 }, "geometry": { "type": "Point", "coordinates": [ 135.4970231, 34.6710766 ] } },
{ "type": "Feature", "properties": { "osmid": 1868546016, "y": 3837433.3053055867, "x": 548617.1061273833, "street_count": 4, "highway": "traffic_signals", "ref": null, "junction": null, "angle_range": "50-60", "min_angle": 56.2, "residual_angle": 234.88, "res_vec_x": -0.5753, "res_vec_y": -0.8179 }, "geometry": { "type": "Point", "coordinates": [ 135.53070550000001, 34.677727299999987 ] } },
{ "type": "Feature", "properties": { "osmid": 2495985085, "y": 3837674.6910847211, "x": 547448.01562831015, "street_count": 4, "highway": null, "ref": null, "junction": null, "angle_range": "50-60", "min_angle": 52.9, "residual_angle": 204.36, "res_vec_x": -0.9109, "res_vec_y": -0.4125 }, "geometry": { "type": "Point", "coordinates": [ 135.517957700000011, 34.67995890000001 ] } }
]
}
