{
"type": "FeatureCollection",
"name": "y_nodes_60_70_with_vector",
"crs": { "type": "name", "properties": { "name": "urn:ogc:def:crs:OGC:1.3:CRS84" } },
"features": [
{ "type": "Feature", "properties": { "osmid": 260500718, "y": 3839351.9076398839, "x": 543374.56121160707, "highway": null, "street_count": 3, "junction": null, "ref": null, "angle_range": "60-70", "min_angle": 63.9, "residual_angle": 345.15, "res_vec_x": 0.9666, "res_vec_y": -0.2563 }, "geometry": { "type": "Point", "coordinates": [ 135.4735781, 34.6952642 ] } },
{ "type": "Feature", "properties": { "osmid": 411671004, "y": 3838751.6874079071, "x": 542968.60267482349, "highway": "traffic_signals", "street_count": 4, "junction": null, "ref": null, "angle_range": "60-70", "min_angle": 64.6, "residual_angle": 69.72, "res_vec_x": 0.3467, "res_vec_y": 0.938 }, "geometry": { "type": "Point", "coordinates": [ 135.4691153, 34.6898688 ] } },
{ "type": "Feature", "properties": { "osmid": 9843128978, "y": 3838734.3265760769, "x": 542972.10017550306, "highway": "traffic_signals", "street_count": 4, "junction": null, "ref": null, "angle_range": "60-70", "min_angle": 60.1, "residual_angle": 247.25, "res_vec_x": -0.3867, "res_vec_y": -0.9222 }, "geometry": { "type": "Point", "coordinates": [ 135.4691526, 34.6897121 ] } },
{ "type": "Feature", "properties": { "osmid": 1465053482, "y": 3838790.6266815416, "x": 543019.46839749499, "highway": null, "street_count": 3, "junction": null, "ref": null, "angle_range": "60-70", "min_angle": 64.1, "residual_angle": 69.74, "res_vec_x": 0.3463, "res_vec_y": 0.9381 }, "geometry": { "type": "Point", "coordinates": [ 135.4696726, 34.6902178 ] } },
{ "type": "Feature", "properties": { "osmid": 412491911, "y": 3839571.3229611679, "x": 544606.09781034559, "highway": null, "street_count": 3, "junction": null, "ref": null, "angle_range": "60-70", "min_angle": 65.2, "residual_angle": 237.8, "res_vec_x": -0.5329, "res_vec_y": -0.8462 }, "geometry": { "type": "Point", "coordinates": [ 135.487035600000013, 34.6971898 ] } },
{ "type": "Feature", "properties": { "osmid": 1465054810, "y": 3839609.7450767681, "x": 544605.49973747146, "highway": null, "street_count": 3, "junction": null, "ref": null, "angle_range": "60-70", "min_angle": 62.6, "residual_angle": 240.15, "res_vec_x": -0.4977, "res_vec_y": -0.8673 }, "geometry": { "type": "Point", "coordinates": [ 135.4870311, 34.6975363 ] } },
{ "type": "Feature", "properties": { "osmid": 412491914, "y": 3839483.3337867591, "x": 544476.46474576718, "highway": null, "street_count": 4, "junction": null, "ref": null, "angle_range": "60-70", "min_angle": 64.7, "residual_angle": 237.46, "res_vec_x": -0.5379, "res_vec_y": -0.843 }, "geometry": { "type": "Point", "coordinates": [ 135.485615599999988, 34.696402 ] } },
{ "type": "Feature", "properties": { "osmid": 1646422521, "y": 3839500.325544761, "x": 544477.0238999594, "highway": null, "street_count": 3, "junction": null, "ref": null, "angle_range": "60-70", "min_angle": 65.7, "residual_angle": 57.95, "res_vec_x": 0.5307, "res_vec_y": 0.8475 }, "geometry": { "type": "Point", "coordinates": [ 135.4856226, 34.6965552 ] } },
{ "type": "Feature", "properties": { "osmid": 415263701, "y": 3838283.7069041003, "x": 543064.60244724026, "highway": "traffic_signals", "street_count": 3, "junction": null, "ref": null, "angle_range": "60-70", "min_angle": 69.5, "residual_angle": 75.73, "res_vec_x": 0.2464, "res_vec_y": 0.9692 }, "geometry": { "type": "Point", "coordinates": [ 135.470139499999988, 34.6856447 ] } },
{ "type": "Feature", "properties": { "osmid": 1465053036, "y": 3838240.9500610121, "x": 543079.69671690476, "highway": "traffic_signals", "street_count": 4, "junction": null, "ref": null, "angle_range": "60-70", "min_angle": 63.0, "residual_angle": 77.98, "res_vec_x": 0.2083, "res_vec_y": 0.9781 }, "geometry": { "type": "Point", "coordinates": [ 135.4703021, 34.6852585 ] } },
{ "type": "Feature", "properties": { "osmid": 1465053229, "y": 3838494.9978439361, "x": 542767.64627859741, "highway": null, "street_count": 3, "junction": null, "ref": null, "angle_range": "60-70", "min_angle": 64.4, "residual_angle": 48.34, "res_vec_x": 0.6647, "res_vec_y": 0.7471 }, "geometry": { "type": "Point", "coordinates": [ 135.4669084, 34.6875625 ] } },
{ "type": "Feature", "properties": { "osmid": 1833824107, "y": 3839230.4613641156, "x": 543648.24471356149, "highway": "traffic_signals", "street_count": 4, "junction": null, "ref": null, "angle_range": "60-70", "min_angle": 64.7, "residual_angle": 209.83, "res_vec_x": -0.8675, "res_vec_y": -0.4974 }, "geometry": { "type": "Point", "coordinates": [ 135.476559900000012, 34.6941574 ] } },
{ "type": "Feature", "properties": { "osmid": 417347209, "y": 3838641.0873286957, "x": 543953.33887114318, "highway": "traffic_signals", "street_count": 4, "junction": null, "ref": null, "angle_range": "60-70", "min_angle": 67.0, "residual_angle": 95.33, "res_vec_x": -0.0929, "res_vec_y": 0.9957 }, "geometry": { "type": "Point", "coordinates": [ 135.4798602, 34.6888296 ] } },
{ "type": "Feature", "properties": { "osmid": 581054611, "y": 3838660.7992453068, "x": 543963.89785095863, "highway": "traffic_signals", "street_count": 4, "junction": null, "ref": null, "angle_range": "60-70", "min_angle": 66.4, "residual_angle": 275.0, "res_vec_x": 0.0872, "res_vec_y": -0.9962 }, "geometry": { "type": "Point", "coordinates": [ 135.4799765, 34.6890069 ] } },
{ "type": "Feature", "properties": { "osmid": 1465053604, "y": 3838984.4328426667, "x": 543222.57461480587, "highway": null, "street_count": 4, "junction": null, "ref": null, "angle_range": "60-70", "min_angle": 61.7, "residual_angle": 342.16, "res_vec_x": 0.9519, "res_vec_y": -0.3064 }, "geometry": { "type": "Point", "coordinates": [ 135.471899900000011, 34.6919569 ] } },
{ "type": "Feature", "properties": { "osmid": 580988552, "y": 3838356.9610136715, "x": 543677.12144878751, "highway": null, "street_count": 3, "junction": null, "ref": null, "angle_range": "60-70", "min_angle": 62.8, "residual_angle": 47.8, "res_vec_x": 0.6718, "res_vec_y": 0.7408 }, "geometry": { "type": "Point", "coordinates": [ 135.47683, 34.6862793 ] } },
{ "type": "Feature", "properties": { "osmid": 1465053100, "y": 3838351.4564253679, "x": 543659.83477977815, "highway": null, "street_count": 4, "junction": null, "ref": null, "angle_range": "60-70", "min_angle": 69.5, "residual_angle": 52.44, "res_vec_x": 0.6096, "res_vec_y": 0.7927 }, "geometry": { "type": "Point", "coordinates": [ 135.476641, 34.6862304 ] } },
{ "type": "Feature", "properties": { "osmid": 580988663, "y": 3838526.7049360387, "x": 543669.66733470478, "highway": null, "street_count": 4, "junction": null, "ref": null, "angle_range": "60-70", "min_angle": 62.2, "residual_angle": 296.62, "res_vec_x": 0.448, "res_vec_y": -0.894 }, "geometry": { "type": "Point", "coordinates": [ 135.4767574, 34.6878103 ] } },
{ "type": "Feature", "properties": { "osmid": 1465053169, "y": 3838449.8056892813, "x": 544141.41871353169, "highway": null, "street_count": 3, "junction": null, "ref": null, "angle_range": "60-70", "min_angle": 64.2, "residual_angle": 171.17, "res_vec_x": -0.9882, "res_vec_y": 0.1535 }, "geometry": { "type": "Point", "coordinates": [ 135.481903499999987, 34.6870966 ] } },
{ "type": "Feature", "properties": { "osmid": 1473520621, "y": 3838694.5651716944, "x": 543632.06816558784, "highway": null, "street_count": 3, "junction": null, "ref": null, "angle_range": "60-70", "min_angle": 69.6, "residual_angle": 154.59, "res_vec_x": -0.9033, "res_vec_y": 0.4291 }, "geometry": { "type": "Point", "coordinates": [ 135.4763556, 34.6893256 ] } },
{ "type": "Feature", "properties": { "osmid": 1465053729, "y": 3839119.8312758128, "x": 544338.1066351051, "highway": null, "street_count": 3, "junction": null, "ref": null, "angle_range": "60-70", "min_angle": 62.8, "residual_angle": 59.09, "res_vec_x": 0.5137, "res_vec_y": 0.858 }, "geometry": { "type": "Point", "coordinates": [ 135.4840859, 34.6931301 ] } },
{ "type": "Feature", "properties": { "osmid": 728681560, "y": 3838568.8881111727, "x": 542772.74459877459, "highway": null, "street_count": 3, "junction": null, "ref": null, "angle_range": "60-70", "min_angle": 63.1, "residual_angle": 253.34, "res_vec_x": -0.2867, "res_vec_y": -0.958 }, "geometry": { "type": "Point", "coordinates": [ 135.4669678, 34.688228599999988 ] } },
{ "type": "Feature", "properties": { "osmid": 1476570401, "y": 3838535.0703620086, "x": 542905.1074721436, "highway": null, "street_count": 3, "junction": null, "ref": null, "angle_range": "60-70", "min_angle": 62.1, "residual_angle": 227.78, "res_vec_x": -0.672, "res_vec_y": -0.7405 }, "geometry": { "type": "Point", "coordinates": [ 135.4684111, 34.6879181 ] } },
{ "type": "Feature", "properties": { "osmid": 729671925, "y": 3839386.1850336702, "x": 542711.89186864567, "highway": null, "street_count": 3, "junction": null, "ref": null, "angle_range": "60-70", "min_angle": 63.2, "residual_angle": 175.31, "res_vec_x": -0.9966, "res_vec_y": 0.0818 }, "geometry": { "type": "Point", "coordinates": [ 135.4663448, 34.6956012 ] } },
{ "type": "Feature", "properties": { "osmid": 730749798, "y": 3839726.2205485138, "x": 544180.08555866987, "highway": null, "street_count": 4, "junction": null, "ref": null, "angle_range": "60-70", "min_angle": 66.0, "residual_angle": 276.91, "res_vec_x": 0.1202, "res_vec_y": -0.9927 }, "geometry": { "type": "Point", "coordinates": [ 135.4823924, 34.6986051 ] } },
{ "type": "Feature", "properties": { "osmid": 1465055120, "y": 3839655.0456685671, "x": 544239.63894828735, "highway": null, "street_count": 3, "junction": null, "ref": null, "angle_range": "60-70", "min_angle": 69.1, "residual_angle": 95.34, "res_vec_x": -0.0931, "res_vec_y": 0.9957 }, "geometry": { "type": "Point", "coordinates": [ 135.4830389, 34.6979607 ] } },
{ "type": "Feature", "properties": { "osmid": 1465055519, "y": 3839797.5495325341, "x": 544374.33059292543, "highway": "traffic_signals", "street_count": 4, "junction": null, "ref": null, "angle_range": "60-70", "min_angle": 62.2, "residual_angle": 297.71, "res_vec_x": 0.4651, "res_vec_y": -0.8853 }, "geometry": { "type": "Point", "coordinates": [ 135.484517, 34.6992399 ] } },
{ "type": "Feature", "properties": { "osmid": 1506936089, "y": 3839907.6588591198, "x": 543143.75911286997, "highway": null, "street_count": 3, "junction": null, "ref": null, "angle_range": "60-70", "min_angle": 65.2, "residual_angle": 188.39, "res_vec_x": -0.9893, "res_vec_y": -0.1459 }, "geometry": { "type": "Point", "coordinates": [ 135.4710866, 34.7002855 ] } },
{ "type": "Feature", "properties": { "osmid": 1506272151, "y": 3839406.6639218358, "x": 544352.72821928689, "highway": null, "street_count": 3, "junction": null, "ref": null, "angle_range": "60-70", "min_angle": 65.7, "residual_angle": 234.11, "res_vec_x": -0.5862, "res_vec_y": -0.8101 }, "geometry": { "type": "Point", "coordinates": [ 135.4842606, 34.695716 ] } },
{ "type": "Feature", "properties": { "osmid": 1465053045, "y": 3838262.746171955, "x": 543343.55692692893, "highway": null, "street_count": 4, "junction": null, "ref": null, "angle_range": "60-70", "min_angle": 66.0, "residual_angle": 46.9, "res_vec_x": 0.6833, "res_vec_y": 0.7301 }, "geometry": { "type": "Point", "coordinates": [ 135.4731837, 34.68544390000001 ] } },
{ "type": "Feature", "properties": { "osmid": 1465053116, "y": 3838407.0278967703, "x": 543253.21042537165, "highway": null, "street_count": 3, "junction": null, "ref": null, "angle_range": "60-70", "min_angle": 62.7, "residual_angle": 254.45, "res_vec_x": -0.2681, "res_vec_y": -0.9634 }, "geometry": { "type": "Point", "coordinates": [ 135.472204799999986, 34.6867488 ] } },
{ "type": "Feature", "properties": { "osmid": 1465053113, "y": 3838381.1566490224, "x": 543352.48115793464, "highway": null, "street_count": 4, "junction": null, "ref": null, "angle_range": "60-70", "min_angle": 61.8, "residual_angle": 235.89, "res_vec_x": -0.5608, "res_vec_y": -0.828 }, "geometry": { "type": "Point", "coordinates": [ 135.473287199999987, 34.6865113 ] } },
{ "type": "Feature", "properties": { "osmid": 1465053195, "y": 3838462.9675781582, "x": 543251.83052386739, "highway": null, "street_count": 4, "junction": null, "ref": null, "angle_range": "60-70", "min_angle": 69.6, "residual_angle": 8.89, "res_vec_x": 0.988, "res_vec_y": 0.1546 }, "geometry": { "type": "Point", "coordinates": [ 135.4721926, 34.6872533 ] } },
{ "type": "Feature", "properties": { "osmid": 1465053244, "y": 3838519.8960550972, "x": 543413.67730074876, "highway": "traffic_signals", "street_count": 3, "junction": null, "ref": null, "angle_range": "60-70", "min_angle": 64.9, "residual_angle": 254.46, "res_vec_x": -0.2679, "res_vec_y": -0.9634 }, "geometry": { "type": "Point", "coordinates": [ 135.4739624, 34.6877598 ] } },
{ "type": "Feature", "properties": { "osmid": 1465053267, "y": 3838525.7440973376, "x": 542874.09849277022, "highway": null, "street_count": 4, "junction": null, "ref": null, "angle_range": "60-70", "min_angle": 61.6, "residual_angle": 226.92, "res_vec_x": -0.683, "res_vec_y": -0.7304 }, "geometry": { "type": "Point", "coordinates": [ 135.4680721, 34.6878353 ] } },
{ "type": "Feature", "properties": { "osmid": 1473520587, "y": 3838552.7700549611, "x": 543532.33658271027, "highway": null, "street_count": 4, "junction": null, "ref": null, "angle_range": "60-70", "min_angle": 63.7, "residual_angle": 43.54, "res_vec_x": 0.7249, "res_vec_y": 0.6888 }, "geometry": { "type": "Point", "coordinates": [ 135.4752595, 34.6880512 ] } },
{ "type": "Feature", "properties": { "osmid": 1465053308, "y": 3838583.5057185045, "x": 543683.86190599704, "highway": null, "street_count": 3, "junction": null, "ref": null, "angle_range": "60-70", "min_angle": 64.8, "residual_angle": 217.78, "res_vec_x": -0.7904, "res_vec_y": -0.6126 }, "geometry": { "type": "Point", "coordinates": [ 135.4769153, 34.6883219 ] } },
{ "type": "Feature", "properties": { "osmid": 1465053417, "y": 3838692.056370541, "x": 543287.99990489904, "highway": null, "street_count": 4, "junction": null, "ref": null, "angle_range": "60-70", "min_angle": 67.4, "residual_angle": 59.46, "res_vec_x": 0.5081, "res_vec_y": 0.8613 }, "geometry": { "type": "Point", "coordinates": [ 135.4725992, 34.68931760000001 ] } },
{ "type": "Feature", "properties": { "osmid": 1465053462, "y": 3838754.2409570231, "x": 543284.58449524501, "highway": null, "street_count": 4, "junction": null, "ref": null, "angle_range": "60-70", "min_angle": 65.7, "residual_angle": 32.03, "res_vec_x": 0.8478, "res_vec_y": 0.5303 }, "geometry": { "type": "Point", "coordinates": [ 135.4725651, 34.6898785 ] } },
{ "type": "Feature", "properties": { "osmid": 1465053460, "y": 3838752.6398332114, "x": 543396.92749104835, "highway": null, "street_count": 3, "junction": null, "ref": null, "angle_range": "60-70", "min_angle": 63.4, "residual_angle": 147.49, "res_vec_x": -0.8433, "res_vec_y": 0.5374 }, "geometry": { "type": "Point", "coordinates": [ 135.4737915, 34.6898593 ] } },
{ "type": "Feature", "properties": { "osmid": 1476570436, "y": 3838762.3040076359, "x": 543550.93098377238, "highway": null, "street_count": 3, "junction": null, "ref": null, "angle_range": "60-70", "min_angle": 67.4, "residual_angle": 219.57, "res_vec_x": -0.7708, "res_vec_y": -0.6371 }, "geometry": { "type": "Point", "coordinates": [ 135.4754733, 34.6899399 ] } },
{ "type": "Feature", "properties": { "osmid": 1465053539, "y": 3838861.6207419881, "x": 543489.78823872562, "highway": null, "street_count": 3, "junction": null, "ref": null, "angle_range": "60-70", "min_angle": 68.9, "residual_angle": 150.27, "res_vec_x": -0.8684, "res_vec_y": 0.4958 }, "geometry": { "type": "Point", "coordinates": [ 135.4748109, 34.6908381 ] } },
{ "type": "Feature", "properties": { "osmid": 1476570552, "y": 3838954.6186707523, "x": 543095.78104622499, "highway": null, "street_count": 3, "junction": null, "ref": null, "angle_range": "60-70", "min_angle": 66.8, "residual_angle": 159.82, "res_vec_x": -0.9386, "res_vec_y": 0.3449 }, "geometry": { "type": "Point", "coordinates": [ 135.4705141, 34.6916934 ] } },
{ "type": "Feature", "properties": { "osmid": 1476570562, "y": 3838963.8058950468, "x": 543134.83111036802, "highway": null, "street_count": 3, "junction": null, "ref": null, "angle_range": "60-70", "min_angle": 61.8, "residual_angle": 162.37, "res_vec_x": -0.9531, "res_vec_y": 0.3028 }, "geometry": { "type": "Point", "coordinates": [ 135.470940899999988, 34.6917746 ] } },
{ "type": "Feature", "properties": { "osmid": 6673660352, "y": 3839023.6702365638, "x": 542902.6783124865, "highway": "traffic_signals", "street_count": 4, "junction": null, "ref": null, "angle_range": "60-70", "min_angle": 66.8, "residual_angle": 61.91, "res_vec_x": 0.4709, "res_vec_y": 0.8822 }, "geometry": { "type": "Point", "coordinates": [ 135.468409400000013, 34.6923242 ] } },
{ "type": "Feature", "properties": { "osmid": 1465053677, "y": 3839082.402496248, "x": 543138.52625279478, "highway": null, "street_count": 4, "junction": null, "ref": null, "angle_range": "60-70", "min_angle": 69.4, "residual_angle": 345.9, "res_vec_x": 0.9699, "res_vec_y": -0.2436 }, "geometry": { "type": "Point", "coordinates": [ 135.4709873, 34.6928439 ] } },
{ "type": "Feature", "properties": { "osmid": 1465053715, "y": 3839105.6703704861, "x": 543200.58237479068, "highway": null, "street_count": 4, "junction": null, "ref": null, "angle_range": "60-70", "min_angle": 64.7, "residual_angle": 168.22, "res_vec_x": -0.9789, "res_vec_y": 0.2042 }, "geometry": { "type": "Point", "coordinates": [ 135.471666, 34.693051099999984 ] } },
{ "type": "Feature", "properties": { "osmid": 1465053702, "y": 3839130.973441177, "x": 544025.13078477292, "highway": null, "street_count": 3, "junction": null, "ref": null, "angle_range": "60-70", "min_angle": 69.7, "residual_angle": 258.13, "res_vec_x": -0.2056, "res_vec_y": -0.9786 }, "geometry": { "type": "Point", "coordinates": [ 135.4806695, 34.6932441 ] } },
{ "type": "Feature", "properties": { "osmid": 1465053830, "y": 3839216.5759658334, "x": 543640.91888154799, "highway": "traffic_signals", "street_count": 4, "junction": null, "ref": null, "angle_range": "60-70", "min_angle": 60.5, "residual_angle": 31.96, "res_vec_x": 0.8484, "res_vec_y": 0.5293 }, "geometry": { "type": "Point", "coordinates": [ 135.4764792, 34.6940325 ] } },
{ "type": "Feature", "properties": { "osmid": 1476570610, "y": 3839102.5525025255, "x": 542784.03568872774, "highway": null, "street_count": 3, "junction": null, "ref": null, "angle_range": "60-70", "min_angle": 64.9, "residual_angle": 330.73, "res_vec_x": 0.8723, "res_vec_y": -0.489 }, "geometry": { "type": "Point", "coordinates": [ 135.4671181, 34.6930405 ] } },
{ "type": "Feature", "properties": { "osmid": 1465053827, "y": 3839207.8599965703, "x": 544494.75687825063, "highway": null, "street_count": 4, "junction": null, "ref": null, "angle_range": "60-70", "min_angle": 69.3, "residual_angle": 64.23, "res_vec_x": 0.4347, "res_vec_y": 0.9006 }, "geometry": { "type": "Point", "coordinates": [ 135.4858008, 34.6939171 ] } },
{ "type": "Feature", "properties": { "osmid": 1506271906, "y": 3839221.9752386739, "x": 544561.00231711112, "highway": null, "street_count": 3, "junction": null, "ref": null, "angle_range": "60-70", "min_angle": 60.8, "residual_angle": 49.84, "res_vec_x": 0.6449, "res_vec_y": 0.7642 }, "geometry": { "type": "Point", "coordinates": [ 135.486524800000012, 34.6940415 ] } },
{ "type": "Feature", "properties": { "osmid": 1465054039, "y": 3839279.6617653687, "x": 544115.80275759881, "highway": null, "street_count": 3, "junction": null, "ref": null, "angle_range": "60-70", "min_angle": 60.1, "residual_angle": 192.75, "res_vec_x": -0.9753, "res_vec_y": -0.2207 }, "geometry": { "type": "Point", "coordinates": [ 135.4816672, 34.694581 ] } },
{ "type": "Feature", "properties": { "osmid": 1465054135, "y": 3839362.6300862669, "x": 544036.31618613214, "highway": null, "street_count": 3, "junction": null, "ref": null, "angle_range": "60-70", "min_angle": 60.3, "residual_angle": 60.46, "res_vec_x": 0.493, "res_vec_y": 0.87 }, "geometry": { "type": "Point", "coordinates": [ 135.4808037, 34.6953326 ] } },
{ "type": "Feature", "properties": { "osmid": 1465054040, "y": 3839294.6024241489, "x": 543267.0724125501, "highway": null, "street_count": 3, "junction": null, "ref": null, "angle_range": "60-70", "min_angle": 60.7, "residual_angle": 146.01, "res_vec_x": -0.8292, "res_vec_y": 0.559 }, "geometry": { "type": "Point", "coordinates": [ 135.472401600000012, 34.694752 ] } },
{ "type": "Feature", "properties": { "osmid": 1465054169, "y": 3839370.7965654796, "x": 543720.42315656715, "highway": null, "street_count": 3, "junction": null, "ref": null, "angle_range": "60-70", "min_angle": 66.5, "residual_angle": 68.26, "res_vec_x": 0.3704, "res_vec_y": 0.9289 }, "geometry": { "type": "Point", "coordinates": [ 135.4773552, 34.6954198 ] } },
{ "type": "Feature", "properties": { "osmid": 1465054087, "y": 3839326.6154824952, "x": 544478.34742965188, "highway": "traffic_signals", "street_count": 4, "junction": null, "ref": null, "angle_range": "60-70", "min_angle": 69.5, "residual_angle": 241.25, "res_vec_x": -0.481, "res_vec_y": -0.8767 }, "geometry": { "type": "Point", "coordinates": [ 135.485627900000026, 34.6949887 ] } },
{ "type": "Feature", "properties": { "osmid": 1833824112, "y": 3839340.0497209653, "x": 544477.0644392001, "highway": "traffic_signals", "street_count": 4, "junction": null, "ref": null, "angle_range": "60-70", "min_angle": 69.1, "residual_angle": 58.07, "res_vec_x": 0.5289, "res_vec_y": 0.8487 }, "geometry": { "type": "Point", "coordinates": [ 135.4856146, 34.6951099 ] } },
{ "type": "Feature", "properties": { "osmid": 1506876980, "y": 3839374.2208432909, "x": 544159.6623460796, "highway": null, "street_count": 3, "junction": null, "ref": null, "angle_range": "60-70", "min_angle": 62.2, "residual_angle": 101.27, "res_vec_x": -0.1955, "res_vec_y": 0.9807 }, "geometry": { "type": "Point", "coordinates": [ 135.482151, 34.6954318 ] } },
{ "type": "Feature", "properties": { "osmid": 1465054431, "y": 3839456.5571281048, "x": 544775.18061500578, "highway": "traffic_signals", "street_count": 4, "junction": null, "ref": null, "angle_range": "60-70", "min_angle": 66.0, "residual_angle": 238.84, "res_vec_x": -0.5175, "res_vec_y": -0.8557 }, "geometry": { "type": "Point", "coordinates": [ 135.4888756, 34.6961475 ] } },
{ "type": "Feature", "properties": { "osmid": 1833824117, "y": 3839471.4770955178, "x": 544776.13396626874, "highway": "traffic_signals", "street_count": 4, "junction": null, "ref": null, "angle_range": "60-70", "min_angle": 62.9, "residual_angle": 234.85, "res_vec_x": -0.5757, "res_vec_y": -0.8177 }, "geometry": { "type": "Point", "coordinates": [ 135.488886799999989, 34.696282 ] } },
{ "type": "Feature", "properties": { "osmid": 1465054556, "y": 3839494.4955176688, "x": 542945.80621896696, "highway": null, "street_count": 3, "junction": null, "ref": null, "angle_range": "60-70", "min_angle": 61.2, "residual_angle": 54.41, "res_vec_x": 0.582, "res_vec_y": 0.8132 }, "geometry": { "type": "Point", "coordinates": [ 135.4689042, 34.696568099999986 ] } },
{ "type": "Feature", "properties": { "osmid": 1506877071, "y": 3839469.7231949558, "x": 544355.98771478015, "highway": null, "street_count": 3, "junction": null, "ref": null, "angle_range": "60-70", "min_angle": 60.5, "residual_angle": 235.95, "res_vec_x": -0.56, "res_vec_y": -0.8285 }, "geometry": { "type": "Point", "coordinates": [ 135.4842995, 34.6962845 ] } },
{ "type": "Feature", "properties": { "osmid": 1506272171, "y": 3839421.2496631355, "x": 544353.37245768099, "highway": null, "street_count": 3, "junction": null, "ref": null, "angle_range": "60-70", "min_angle": 61.7, "residual_angle": 236.64, "res_vec_x": -0.5499, "res_vec_y": -0.8353 }, "geometry": { "type": "Point", "coordinates": [ 135.4842684, 34.6958475 ] } },
{ "type": "Feature", "properties": { "osmid": 1465054733, "y": 3839550.621636434, "x": 543065.18844759255, "highway": null, "street_count": 3, "junction": null, "ref": null, "angle_range": "60-70", "min_angle": 64.7, "residual_angle": 173.72, "res_vec_x": -0.994, "res_vec_y": 0.1094 }, "geometry": { "type": "Point", "coordinates": [ 135.4702105, 34.697069199999987 ] } },
{ "type": "Feature", "properties": { "osmid": 1465054640, "y": 3839528.7712027342, "x": 543092.75836347404, "highway": "traffic_signals", "street_count": 4, "junction": null, "ref": null, "angle_range": "60-70", "min_angle": 60.1, "residual_angle": 173.39, "res_vec_x": -0.9934, "res_vec_y": 0.1151 }, "geometry": { "type": "Point", "coordinates": [ 135.4705104, 34.696871 ] } },
{ "type": "Feature", "properties": { "osmid": 6673660332, "y": 3839534.7000753465, "x": 543084.78980097384, "highway": "traffic_signals", "street_count": 4, "junction": null, "ref": null, "angle_range": "60-70", "min_angle": 62.0, "residual_angle": 354.3, "res_vec_x": 0.9951, "res_vec_y": -0.0992 }, "geometry": { "type": "Point", "coordinates": [ 135.4704237, 34.6969248 ] } },
{ "type": "Feature", "properties": { "osmid": 1506877242, "y": 3839681.503444084, "x": 543401.83334085823, "highway": null, "street_count": 3, "junction": null, "ref": null, "angle_range": "60-70", "min_angle": 62.9, "residual_angle": 243.14, "res_vec_x": -0.4518, "res_vec_y": -0.8921 }, "geometry": { "type": "Point", "coordinates": [ 135.473892799999987, 34.6982352 ] } },
{ "type": "Feature", "properties": { "osmid": 1465055129, "y": 3839657.5907330313, "x": 543318.49940872053, "highway": null, "street_count": 3, "junction": null, "ref": null, "angle_range": "60-70", "min_angle": 65.9, "residual_angle": 243.82, "res_vec_x": -0.4413, "res_vec_y": -0.8974 }, "geometry": { "type": "Point", "coordinates": [ 135.4729817, 34.6980231 ] } },
{ "type": "Feature", "properties": { "osmid": 1465055216, "y": 3839678.628269719, "x": 543755.39717873128, "highway": "traffic_signals", "street_count": 4, "junction": null, "ref": null, "angle_range": "60-70", "min_angle": 66.0, "residual_angle": 145.0, "res_vec_x": -0.8191, "res_vec_y": 0.5736 }, "geometry": { "type": "Point", "coordinates": [ 135.477753, 34.6981942 ] } },
{ "type": "Feature", "properties": { "osmid": 1465055266, "y": 3839687.3942705593, "x": 543751.84772743378, "highway": "traffic_signals", "street_count": 4, "junction": null, "ref": null, "angle_range": "60-70", "min_angle": 66.3, "residual_angle": 325.17, "res_vec_x": 0.8208, "res_vec_y": -0.5712 }, "geometry": { "type": "Point", "coordinates": [ 135.4777147, 34.6982734 ] } },
{ "type": "Feature", "properties": { "osmid": 1472035484, "y": 3839639.1273798449, "x": 543228.85649863991, "highway": null, "street_count": 4, "junction": null, "ref": null, "angle_range": "60-70", "min_angle": 66.2, "residual_angle": 341.22, "res_vec_x": 0.9468, "res_vec_y": -0.322 }, "geometry": { "type": "Point", "coordinates": [ 135.472002, 34.6978604 ] } },
{ "type": "Feature", "properties": { "osmid": 1465055348, "y": 3839732.4801632259, "x": 544370.47657650406, "highway": "traffic_signals", "street_count": 4, "junction": null, "ref": null, "angle_range": "60-70", "min_angle": 65.2, "residual_angle": 119.06, "res_vec_x": -0.4858, "res_vec_y": 0.8741 }, "geometry": { "type": "Point", "coordinates": [ 135.484471500000012, 34.6986533 ] } },
{ "type": "Feature", "properties": { "osmid": 1465055887, "y": 3840020.6801795461, "x": 543268.63759419462, "highway": null, "street_count": 3, "junction": null, "ref": null, "angle_range": "60-70", "min_angle": 69.7, "residual_angle": 2.15, "res_vec_x": 0.9993, "res_vec_y": 0.0376 }, "geometry": { "type": "Point", "coordinates": [ 135.472455900000028, 34.7012994 ] } },
{ "type": "Feature", "properties": { "osmid": 1465056021, "y": 3840209.8509372487, "x": 543515.05185340159, "highway": null, "street_count": 3, "junction": null, "ref": null, "angle_range": "60-70", "min_angle": 64.8, "residual_angle": 5.0, "res_vec_x": 0.9962, "res_vec_y": 0.0872 }, "geometry": { "type": "Point", "coordinates": [ 135.475156199999986, 34.7029948 ] } },
{ "type": "Feature", "properties": { "osmid": 1506877145, "y": 3839544.9385270658, "x": 543451.61431264295, "highway": null, "street_count": 3, "junction": null, "ref": null, "angle_range": "60-70", "min_angle": 63.6, "residual_angle": 165.1, "res_vec_x": -0.9664, "res_vec_y": 0.2572 }, "geometry": { "type": "Point", "coordinates": [ 135.4744293, 34.6970016 ] } },
{ "type": "Feature", "properties": { "osmid": 1471984305, "y": 3839733.2034425968, "x": 543413.8169158235, "highway": null, "street_count": 3, "junction": null, "ref": null, "angle_range": "60-70", "min_angle": 63.0, "residual_angle": 288.8, "res_vec_x": 0.3223, "res_vec_y": -0.9466 }, "geometry": { "type": "Point", "coordinates": [ 135.4740263, 34.6987009 ] } },
{ "type": "Feature", "properties": { "osmid": 1506877240, "y": 3839688.180981887, "x": 544322.74315380328, "highway": null, "street_count": 4, "junction": null, "ref": null, "angle_range": "60-70", "min_angle": 69.4, "residual_angle": 30.03, "res_vec_x": 0.8658, "res_vec_y": 0.5004 }, "geometry": { "type": "Point", "coordinates": [ 135.483948, 34.6982559 ] } },
{ "type": "Feature", "properties": { "osmid": 1506877162, "y": 3839571.3238457181, "x": 543280.28146284795, "highway": null, "street_count": 3, "junction": null, "ref": null, "angle_range": "60-70", "min_angle": 65.1, "residual_angle": 339.65, "res_vec_x": 0.9376, "res_vec_y": -0.3478 }, "geometry": { "type": "Point", "coordinates": [ 135.47256, 34.6972468 ] } },
{ "type": "Feature", "properties": { "osmid": 1506877212, "y": 3839645.6126692542, "x": 543029.32727736002, "highway": null, "street_count": 3, "junction": null, "ref": null, "angle_range": "60-70", "min_angle": 60.8, "residual_angle": 175.67, "res_vec_x": -0.9971, "res_vec_y": 0.0755 }, "geometry": { "type": "Point", "coordinates": [ 135.4698238, 34.6979273 ] } },
{ "type": "Feature", "properties": { "osmid": 1506935973, "y": 3839357.1921343901, "x": 542655.69734922878, "highway": null, "street_count": 3, "junction": null, "ref": null, "angle_range": "60-70", "min_angle": 62.5, "residual_angle": 58.86, "res_vec_x": 0.5172, "res_vec_y": 0.8559 }, "geometry": { "type": "Point", "coordinates": [ 135.4657298, 34.6953421 ] } },
{ "type": "Feature", "properties": { "osmid": 6673660355, "y": 3838744.6013043704, "x": 542959.091209376, "highway": "traffic_signals", "street_count": 4, "junction": null, "ref": null, "angle_range": "60-70", "min_angle": 63.2, "residual_angle": 68.31, "res_vec_x": 0.3696, "res_vec_y": 0.9292 }, "geometry": { "type": "Point", "coordinates": [ 135.469011099999989, 34.6898053 ] } },
{ "type": "Feature", "properties": { "osmid": 6673660372, "y": 3838727.129748119, "x": 542962.625849579, "highway": "traffic_signals", "street_count": 4, "junction": null, "ref": null, "angle_range": "60-70", "min_angle": 63.3, "residual_angle": 247.95, "res_vec_x": -0.3754, "res_vec_y": -0.9269 }, "geometry": { "type": "Point", "coordinates": [ 135.4690488, 34.6896476 ] } }
]
}
