{
"type": "FeatureCollection",
"name": "y_nodes_30_40_with_vector",
"crs": { "type": "name", "properties": { "name": "urn:ogc:def:crs:OGC:1.3:CRS84" } },
"features": [
{ "type": "Feature", "properties": { "osmid": 1465053589, "y": 3839007.3985739825, "x": 543893.80525745463, "highway": null, "street_count": 3, "junction": null, "ref": null, "angle_range": "30-40", "min_angle": 31.6, "residual_angle": 239.19, "res_vec_x": -0.5122, "res_vec_y": -0.8589 }, "geometry": { "type": "Point", "coordinates": [ 135.479229299999986, 34.6921354 ] } },
{ "type": "Feature", "properties": { "osmid": 1465054818, "y": 3839587.6630591601, "x": 544568.21967495, "highway": null, "street_count": 3, "junction": null, "ref": null, "angle_range": "30-40", "min_angle": 39.2, "residual_angle": 192.1, "res_vec_x": -0.9778, "res_vec_y": -0.2096 }, "geometry": { "type": "Point", "coordinates": [ 135.486622899999986, 34.6973388 ] } },
{ "type": "Feature", "properties": { "osmid": 6673660360, "y": 3838234.0419119927, "x": 543072.69388736435, "highway": "traffic_signals", "street_count": 5, "junction": null, "ref": null, "angle_range": "30-40", "min_angle": 35.1, "residual_angle": 213.36, "res_vec_x": -0.8353, "res_vec_y": -0.5498 }, "geometry": { "type": "Point", "coordinates": [ 135.47022530000001, 34.6851965 ] } },
{ "type": "Feature", "properties": { "osmid": 1468236044, "y": 3838419.4840392163, "x": 543663.24088129576, "highway": null, "street_count": 4, "junction": null, "ref": null, "angle_range": "30-40", "min_angle": 33.2, "residual_angle": 104.87, "res_vec_x": -0.2565, "res_vec_y": 0.9665 }, "geometry": { "type": "Point", "coordinates": [ 135.4766817, 34.6868437 ] } },
{ "type": "Feature", "properties": { "osmid": 580989226, "y": 3838430.4318297002, "x": 543506.56966250052, "highway": null, "street_count": 3, "junction": null, "ref": null, "angle_range": "30-40", "min_angle": 36.1, "residual_angle": 240.71, "res_vec_x": -0.4893, "res_vec_y": -0.8721 }, "geometry": { "type": "Point", "coordinates": [ 135.474971900000014, 34.6869491 ] } },
{ "type": "Feature", "properties": { "osmid": 1465053213, "y": 3838469.0926299407, "x": 543877.02174970228, "highway": null, "street_count": 3, "junction": null, "ref": null, "angle_range": "30-40", "min_angle": 32.6, "residual_angle": 162.09, "res_vec_x": -0.9515, "res_vec_y": 0.3075 }, "geometry": { "type": "Point", "coordinates": [ 135.4790181, 34.6872819 ] } },
{ "type": "Feature", "properties": { "osmid": 1465054060, "y": 3839320.680864424, "x": 544707.2470255947, "highway": null, "street_count": 4, "junction": null, "ref": null, "angle_range": "30-40", "min_angle": 35.1, "residual_angle": 186.14, "res_vec_x": -0.9943, "res_vec_y": -0.1069 }, "geometry": { "type": "Point", "coordinates": [ 135.4881267, 34.6949252 ] } },
{ "type": "Feature", "properties": { "osmid": 1465053170, "y": 3838453.4928461518, "x": 543321.77546428796, "highway": "traffic_signals", "street_count": 3, "junction": null, "ref": null, "angle_range": "30-40", "min_angle": 31.0, "residual_angle": 12.89, "res_vec_x": 0.9748, "res_vec_y": 0.223 }, "geometry": { "type": "Point", "coordinates": [ 135.4729557, 34.6871649 ] } },
{ "type": "Feature", "properties": { "osmid": 1473520580, "y": 3838536.1990577816, "x": 543669.99793393177, "highway": null, "street_count": 3, "junction": null, "ref": null, "angle_range": "30-40", "min_angle": 37.0, "residual_angle": 104.19, "res_vec_x": -0.2451, "res_vec_y": 0.9695 }, "geometry": { "type": "Point", "coordinates": [ 135.4767615, 34.6878959 ] } },
{ "type": "Feature", "properties": { "osmid": 1465053613, "y": 3838999.4922969346, "x": 543662.692792068, "highway": null, "street_count": 3, "junction": null, "ref": null, "angle_range": "30-40", "min_angle": 35.9, "residual_angle": 218.76, "res_vec_x": -0.7798, "res_vec_y": -0.626 }, "geometry": { "type": "Point", "coordinates": [ 135.4767057, 34.692074 ] } },
{ "type": "Feature", "properties": { "osmid": 1465053621, "y": 3838998.6820104728, "x": 543844.80657333485, "highway": null, "street_count": 3, "junction": null, "ref": null, "angle_range": "30-40", "min_angle": 39.4, "residual_angle": 62.68, "res_vec_x": 0.4589, "res_vec_y": 0.8885 }, "geometry": { "type": "Point", "coordinates": [ 135.4786939, 34.6920589 ] } },
{ "type": "Feature", "properties": { "osmid": 1465054410, "y": 3839441.1495627747, "x": 544019.02425155812, "highway": null, "street_count": 3, "junction": null, "ref": null, "angle_range": "30-40", "min_angle": 36.6, "residual_angle": 88.19, "res_vec_x": 0.0317, "res_vec_y": 0.9995 }, "geometry": { "type": "Point", "coordinates": [ 135.480619, 34.6960414 ] } },
{ "type": "Feature", "properties": { "osmid": 4945145415, "y": 3839300.2537454213, "x": 544661.42157022387, "highway": null, "street_count": 3, "junction": null, "ref": null, "angle_range": "30-40", "min_angle": 31.3, "residual_angle": 40.68, "res_vec_x": 0.7583, "res_vec_y": 0.6519 }, "geometry": { "type": "Point", "coordinates": [ 135.4876253, 34.694743 ] } },
{ "type": "Feature", "properties": { "osmid": 7027789083, "y": 3839138.5138805355, "x": 543497.03706505592, "highway": null, "street_count": 3, "junction": null, "ref": null, "angle_range": "30-40", "min_angle": 31.1, "residual_angle": 234.51, "res_vec_x": -0.5806, "res_vec_y": -0.8142 }, "geometry": { "type": "Point", "coordinates": [ 135.4749043, 34.6933347 ] } }
]
}
