{
"type": "FeatureCollection",
"name": "y_nodes_50_60_with_vector",
"crs": { "type": "name", "properties": { "name": "urn:ogc:def:crs:OGC:1.3:CRS84" } },
"features": [
{ "type": "Feature", "properties": { "osmid": 417347217, "y": 3839092.362943287, "x": 543603.38524682017, "highway": "traffic_signals", "street_count": 3, "junction": null, "ref": null, "angle_range": "50-60", "min_angle": 59.6, "residual_angle": 337.88, "res_vec_x": 0.9264, "res_vec_y": -0.3766 }, "geometry": { "type": "Point", "coordinates": [ 135.476063, 34.692914 ] } },
{ "type": "Feature", "properties": { "osmid": 1465053680, "y": 3839094.9600439514, "x": 543622.59862909396, "highway": "traffic_signals", "street_count": 4, "junction": null, "ref": null, "angle_range": "50-60", "min_angle": 59.2, "residual_angle": 158.09, "res_vec_x": -0.9278, "res_vec_y": 0.3732 }, "geometry": { "type": "Point", "coordinates": [ 135.4762729, 34.6929366 ] } },
{ "type": "Feature", "properties": { "osmid": 1465053121, "y": 3838387.6168092671, "x": 543997.69132545195, "highway": "traffic_signals", "street_count": 4, "junction": null, "ref": null, "angle_range": "50-60", "min_angle": 56.5, "residual_angle": 354.76, "res_vec_x": 0.9958, "res_vec_y": -0.0914 }, "geometry": { "type": "Point", "coordinates": [ 135.4803312, 34.686542 ] } },
{ "type": "Feature", "properties": { "osmid": 1833824110, "y": 3839278.3842371586, "x": 544346.47592423833, "highway": "traffic_signals", "street_count": 4, "junction": null, "ref": null, "angle_range": "50-60", "min_angle": 57.5, "residual_angle": 231.53, "res_vec_x": -0.6221, "res_vec_y": -0.783 }, "geometry": { "type": "Point", "coordinates": [ 135.484185599999989, 34.6945595 ] } },
{ "type": "Feature", "properties": { "osmid": 1465053139, "y": 3838405.0073037371, "x": 543832.82675438817, "highway": null, "street_count": 4, "junction": null, "ref": null, "angle_range": "50-60", "min_angle": 50.7, "residual_angle": 42.37, "res_vec_x": 0.7388, "res_vec_y": 0.6739 }, "geometry": { "type": "Point", "coordinates": [ 135.478532300000012, 34.6867059 ] } },
{ "type": "Feature", "properties": { "osmid": 1465053284, "y": 3838557.3431912474, "x": 543554.38136842335, "highway": null, "street_count": 4, "junction": null, "ref": null, "angle_range": "50-60", "min_angle": 57.9, "residual_angle": 220.67, "res_vec_x": -0.7585, "res_vec_y": -0.6517 }, "geometry": { "type": "Point", "coordinates": [ 135.475500399999987, 34.6880915 ] } },
{ "type": "Feature", "properties": { "osmid": 581054616, "y": 3838804.6453664787, "x": 543853.15781203751, "highway": "traffic_signals", "street_count": 4, "junction": null, "ref": null, "angle_range": "50-60", "min_angle": 55.5, "residual_angle": 280.04, "res_vec_x": 0.1743, "res_vec_y": -0.9847 }, "geometry": { "type": "Point", "coordinates": [ 135.478775, 34.6903088 ] } },
{ "type": "Feature", "properties": { "osmid": 1465053476, "y": 3838779.0120489667, "x": 543844.98098157963, "highway": "traffic_signals", "street_count": 4, "junction": null, "ref": null, "angle_range": "50-60", "min_angle": 54.4, "residual_angle": 99.5, "res_vec_x": -0.165, "res_vec_y": 0.9863 }, "geometry": { "type": "Point", "coordinates": [ 135.4786844, 34.690078 ] } },
{ "type": "Feature", "properties": { "osmid": 1465054443, "y": 3839458.9955103104, "x": 542868.98049941752, "highway": null, "street_count": 4, "junction": null, "ref": null, "angle_range": "50-60", "min_angle": 51.8, "residual_angle": 358.89, "res_vec_x": 0.9998, "res_vec_y": -0.0194 }, "geometry": { "type": "Point", "coordinates": [ 135.468063600000022, 34.6962512 ] } },
{ "type": "Feature", "properties": { "osmid": 1465054321, "y": 3839422.3713379903, "x": 542791.12443783844, "highway": null, "street_count": 3, "junction": null, "ref": null, "angle_range": "50-60", "min_angle": 50.5, "residual_angle": 0.04, "res_vec_x": 1.0, "res_vec_y": 0.0008 }, "geometry": { "type": "Point", "coordinates": [ 135.4672117, 34.6959242 ] } },
{ "type": "Feature", "properties": { "osmid": 1471984275, "y": 3839477.8764334819, "x": 542834.63786903827, "highway": null, "street_count": 3, "junction": null, "ref": null, "angle_range": "50-60", "min_angle": 51.9, "residual_angle": 305.23, "res_vec_x": 0.5769, "res_vec_y": -0.8168 }, "geometry": { "type": "Point", "coordinates": [ 135.4676896, 34.6964229 ] } },
{ "type": "Feature", "properties": { "osmid": 1465054256, "y": 3839406.9927568748, "x": 542758.19553283439, "highway": null, "street_count": 4, "junction": null, "ref": null, "angle_range": "50-60", "min_angle": 50.9, "residual_angle": 359.59, "res_vec_x": 1.0, "res_vec_y": -0.0072 }, "geometry": { "type": "Point", "coordinates": [ 135.4668514, 34.6957869 ] } },
{ "type": "Feature", "properties": { "osmid": 1506877041, "y": 3839435.0093352888, "x": 544080.06240786216, "highway": null, "street_count": 3, "junction": null, "ref": null, "angle_range": "50-60", "min_angle": 50.3, "residual_angle": 220.56, "res_vec_x": -0.7598, "res_vec_y": -0.6502 }, "geometry": { "type": "Point", "coordinates": [ 135.4812851, 34.6959834 ] } },
{ "type": "Feature", "properties": { "osmid": 1646422505, "y": 3839471.4487717426, "x": 544655.98519219842, "highway": null, "street_count": 3, "junction": null, "ref": null, "angle_range": "50-60", "min_angle": 56.8, "residual_angle": 330.2, "res_vec_x": 0.8677, "res_vec_y": -0.497 }, "geometry": { "type": "Point", "coordinates": [ 135.487575, 34.696287 ] } },
{ "type": "Feature", "properties": { "osmid": 1021842354, "y": 3839436.9298083778, "x": 544775.3950136475, "highway": null, "street_count": 3, "junction": null, "ref": null, "angle_range": "50-60", "min_angle": 56.5, "residual_angle": 241.38, "res_vec_x": -0.4789, "res_vec_y": -0.8778 }, "geometry": { "type": "Point", "coordinates": [ 135.4888769, 34.6959705 ] } },
{ "type": "Feature", "properties": { "osmid": 1744993606, "y": 3839576.2772694612, "x": 544617.00050196354, "highway": null, "street_count": 3, "junction": null, "ref": null, "angle_range": "50-60", "min_angle": 58.8, "residual_angle": 61.01, "res_vec_x": 0.4846, "res_vec_y": 0.8747 }, "geometry": { "type": "Point", "coordinates": [ 135.4871549, 34.697234 ] } },
{ "type": "Feature", "properties": { "osmid": 1465055785, "y": 3839942.5629951856, "x": 543154.43950384657, "highway": null, "street_count": 3, "junction": null, "ref": null, "angle_range": "50-60", "min_angle": 53.5, "residual_angle": 8.85, "res_vec_x": 0.9881, "res_vec_y": 0.1538 }, "geometry": { "type": "Point", "coordinates": [ 135.471205, 34.7005998 ] } },
{ "type": "Feature", "properties": { "osmid": 1465053010, "y": 3838186.6166029158, "x": 543350.4918429309, "highway": null, "street_count": 4, "junction": null, "ref": null, "angle_range": "50-60", "min_angle": 52.3, "residual_angle": 69.06, "res_vec_x": 0.3574, "res_vec_y": 0.9339 }, "geometry": { "type": "Point", "coordinates": [ 135.4732555, 34.684757099999985 ] } },
{ "type": "Feature", "properties": { "osmid": 1473024100, "y": 3838243.5427471483, "x": 543169.33623149712, "highway": null, "street_count": 3, "junction": null, "ref": null, "angle_range": "50-60", "min_angle": 59.8, "residual_angle": 346.4, "res_vec_x": 0.9719, "res_vec_y": -0.2352 }, "geometry": { "type": "Point", "coordinates": [ 135.471280799999988, 34.6852781 ] } },
{ "type": "Feature", "properties": { "osmid": 1465053164, "y": 3838432.5974829737, "x": 543930.63543811557, "highway": null, "street_count": 3, "junction": null, "ref": null, "angle_range": "50-60", "min_angle": 50.6, "residual_angle": 170.0, "res_vec_x": -0.9848, "res_vec_y": 0.1736 }, "geometry": { "type": "Point", "coordinates": [ 135.4796015, 34.6869505 ] } },
{ "type": "Feature", "properties": { "osmid": 1465053247, "y": 3838514.5315966173, "x": 543140.17549090949, "highway": null, "street_count": 5, "junction": null, "ref": null, "angle_range": "50-60", "min_angle": 55.6, "residual_angle": 251.54, "res_vec_x": -0.3166, "res_vec_y": -0.9486 }, "geometry": { "type": "Point", "coordinates": [ 135.4709763, 34.687723 ] } },
{ "type": "Feature", "properties": { "osmid": 1465053234, "y": 3838492.3842615196, "x": 543199.02237340575, "highway": null, "street_count": 3, "junction": null, "ref": null, "angle_range": "50-60", "min_angle": 54.2, "residual_angle": 123.67, "res_vec_x": -0.5544, "res_vec_y": 0.8323 }, "geometry": { "type": "Point", "coordinates": [ 135.4716176, 34.6875208 ] } },
{ "type": "Feature", "properties": { "osmid": 1465053444, "y": 3838719.3720672778, "x": 543540.53585311165, "highway": null, "street_count": 3, "junction": null, "ref": null, "angle_range": "50-60", "min_angle": 57.7, "residual_angle": 66.75, "res_vec_x": 0.3947, "res_vec_y": 0.9188 }, "geometry": { "type": "Point", "coordinates": [ 135.4753576, 34.6895532 ] } },
{ "type": "Feature", "properties": { "osmid": 1506876896, "y": 3838839.7492568661, "x": 543679.15813676396, "highway": null, "street_count": 4, "junction": null, "ref": null, "angle_range": "50-60", "min_angle": 53.9, "residual_angle": 70.96, "res_vec_x": 0.3262, "res_vec_y": 0.9453 }, "geometry": { "type": "Point", "coordinates": [ 135.4768772, 34.6906328 ] } },
{ "type": "Feature", "properties": { "osmid": 7027794085, "y": 3839107.8311562571, "x": 543490.35805003555, "highway": null, "street_count": 3, "junction": null, "ref": null, "angle_range": "50-60", "min_angle": 52.6, "residual_angle": 107.97, "res_vec_x": -0.3086, "res_vec_y": 0.9512 }, "geometry": { "type": "Point", "coordinates": [ 135.4748298, 34.6930583 ] } },
{ "type": "Feature", "properties": { "osmid": 1506271843, "y": 3839156.0618966296, "x": 544402.90914104693, "highway": null, "street_count": 3, "junction": null, "ref": null, "angle_range": "50-60", "min_angle": 59.4, "residual_angle": 59.11, "res_vec_x": 0.5134, "res_vec_y": 0.8582 }, "geometry": { "type": "Point", "coordinates": [ 135.4847953, 34.693454 ] } },
{ "type": "Feature", "properties": { "osmid": 1833824096, "y": 3839209.5079376297, "x": 544129.30042185949, "highway": "traffic_signals", "street_count": 3, "junction": null, "ref": null, "angle_range": "50-60", "min_angle": 51.5, "residual_angle": 203.64, "res_vec_x": -0.9161, "res_vec_y": -0.401 }, "geometry": { "type": "Point", "coordinates": [ 135.4818109, 34.6939478 ] } },
{ "type": "Feature", "properties": { "osmid": 1465053882, "y": 3839247.9572877809, "x": 544565.47470689623, "highway": null, "street_count": 4, "junction": null, "ref": null, "angle_range": "50-60", "min_angle": 50.7, "residual_angle": 234.89, "res_vec_x": -0.5751, "res_vec_y": -0.8181 }, "geometry": { "type": "Point", "coordinates": [ 135.486575, 34.6942756 ] } },
{ "type": "Feature", "properties": { "osmid": 1465053976, "y": 3839271.070858513, "x": 544458.17189207848, "highway": null, "street_count": 3, "junction": null, "ref": null, "angle_range": "50-60", "min_angle": 57.5, "residual_angle": 55.65, "res_vec_x": 0.5643, "res_vec_y": 0.8256 }, "geometry": { "type": "Point", "coordinates": [ 135.4854047, 34.6944887 ] } },
{ "type": "Feature", "properties": { "osmid": 1506271888, "y": 3839215.2301083989, "x": 544404.14462584816, "highway": null, "street_count": 3, "junction": null, "ref": null, "angle_range": "50-60", "min_angle": 57.8, "residual_angle": 239.96, "res_vec_x": -0.5006, "res_vec_y": -0.8657 }, "geometry": { "type": "Point", "coordinates": [ 135.484811900000011, 34.6939875 ] } },
{ "type": "Feature", "properties": { "osmid": 1465054447, "y": 3839457.9091367661, "x": 544355.20192221296, "highway": null, "street_count": 3, "junction": null, "ref": null, "angle_range": "50-60", "min_angle": 55.9, "residual_angle": 239.19, "res_vec_x": -0.5121, "res_vec_y": -0.8589 }, "geometry": { "type": "Point", "coordinates": [ 135.4842903, 34.696178 ] } },
{ "type": "Feature", "properties": { "osmid": 1465054510, "y": 3839484.008031758, "x": 543346.89300874248, "highway": null, "street_count": 4, "junction": null, "ref": null, "angle_range": "50-60", "min_angle": 58.4, "residual_angle": 334.79, "res_vec_x": 0.9047, "res_vec_y": -0.4259 }, "geometry": { "type": "Point", "coordinates": [ 135.4732828, 34.6964566 ] } },
{ "type": "Feature", "properties": { "osmid": 1465055533, "y": 3839827.1819521948, "x": 544113.54894435091, "highway": null, "street_count": 3, "junction": null, "ref": null, "angle_range": "50-60", "min_angle": 59.8, "residual_angle": 279.58, "res_vec_x": 0.1664, "res_vec_y": -0.9861 }, "geometry": { "type": "Point", "coordinates": [ 135.4816712, 34.6995184 ] } },
{ "type": "Feature", "properties": { "osmid": 1465055737, "y": 3839918.2717646407, "x": 543120.12600778881, "highway": null, "street_count": 3, "junction": null, "ref": null, "angle_range": "50-60", "min_angle": 59.5, "residual_angle": 5.56, "res_vec_x": 0.9953, "res_vec_y": 0.0968 }, "geometry": { "type": "Point", "coordinates": [ 135.4708291, 34.7003822 ] } },
{ "type": "Feature", "properties": { "osmid": 1471984326, "y": 3839860.3927652631, "x": 543487.67791354749, "highway": null, "street_count": 3, "junction": null, "ref": null, "angle_range": "50-60", "min_angle": 56.4, "residual_angle": 62.83, "res_vec_x": 0.4566, "res_vec_y": 0.8897 }, "geometry": { "type": "Point", "coordinates": [ 135.474839300000014, 34.6998447 ] } },
{ "type": "Feature", "properties": { "osmid": 1465055656, "y": 3839889.3207064369, "x": 543947.3424467966, "highway": null, "street_count": 4, "junction": null, "ref": null, "angle_range": "50-60", "min_angle": 53.1, "residual_angle": 305.62, "res_vec_x": 0.5823, "res_vec_y": -0.8129 }, "geometry": { "type": "Point", "coordinates": [ 135.4798597, 34.7000859 ] } },
{ "type": "Feature", "properties": { "osmid": 1465055870, "y": 3840003.3598673376, "x": 543245.30969916261, "highway": null, "street_count": 3, "junction": null, "ref": null, "angle_range": "50-60", "min_angle": 50.2, "residual_angle": 220.83, "res_vec_x": -0.7567, "res_vec_y": -0.6538 }, "geometry": { "type": "Point", "coordinates": [ 135.4722003, 34.7011442 ] } },
{ "type": "Feature", "properties": { "osmid": 7380194277, "y": 3838829.8473519529, "x": 544362.26303917053, "highway": null, "street_count": 3, "junction": null, "ref": null, "angle_range": "50-60", "min_angle": 53.0, "residual_angle": 214.12, "res_vec_x": -0.8278, "res_vec_y": -0.561 }, "geometry": { "type": "Point", "coordinates": [ 135.4843344, 34.6905141 ] } },
{ "type": "Feature", "properties": { "osmid": 5592700347, "y": 3839119.2835297468, "x": 543473.25835956598, "highway": null, "street_count": 3, "junction": null, "ref": null, "angle_range": "50-60", "min_angle": 54.1, "residual_angle": 11.94, "res_vec_x": 0.9784, "res_vec_y": 0.2069 }, "geometry": { "type": "Point", "coordinates": [ 135.4746437, 34.6931623 ] } }
]
}
