{
"type": "FeatureCollection",
"name": "y_nodes_40_50_with_vector",
"crs": { "type": "name", "properties": { "name": "urn:ogc:def:crs:OGC:1.3:CRS84" } },
"features": [
{ "type": "Feature", "properties": { "osmid": 581042629, "y": 3838433.8926341506, "x": 544104.39645189897, "highway": null, "street_count": 3, "junction": null, "ref": null, "angle_range": "40-50", "min_angle": 48.8, "residual_angle": 47.67, "res_vec_x": 0.6734, "res_vec_y": 0.7393 }, "geometry": { "type": "Point", "coordinates": [ 135.481498499999987, 34.6869547 ] } },
{ "type": "Feature", "properties": { "osmid": 1465055069, "y": 3839641.1036487785, "x": 542963.69743169739, "highway": null, "street_count": 4, "junction": null, "ref": null, "angle_range": "40-50", "min_angle": 46.3, "residual_angle": 6.35, "res_vec_x": 0.9939, "res_vec_y": 0.1107 }, "geometry": { "type": "Point", "coordinates": [ 135.469107, 34.6978894 ] } },
{ "type": "Feature", "properties": { "osmid": 1033628765, "y": 3839391.4896599371, "x": 544351.92194490531, "highway": null, "street_count": 3, "junction": null, "ref": null, "angle_range": "40-50", "min_angle": 46.3, "residual_angle": 63.83, "res_vec_x": 0.4411, "res_vec_y": 0.8975 }, "geometry": { "type": "Point", "coordinates": [ 135.484251, 34.6955792 ] } },
{ "type": "Feature", "properties": { "osmid": 1465053255, "y": 3838505.5048369975, "x": 543296.35022748273, "highway": null, "street_count": 3, "junction": null, "ref": null, "angle_range": "40-50", "min_angle": 47.0, "residual_angle": 67.1, "res_vec_x": 0.3892, "res_vec_y": 0.9212 }, "geometry": { "type": "Point", "coordinates": [ 135.4726808, 34.687635 ] } },
{ "type": "Feature", "properties": { "osmid": 6673660358, "y": 3838564.516928297, "x": 543020.24849326082, "highway": null, "street_count": 3, "junction": null, "ref": null, "angle_range": "40-50", "min_angle": 48.5, "residual_angle": 340.02, "res_vec_x": 0.9398, "res_vec_y": -0.3416 }, "geometry": { "type": "Point", "coordinates": [ 135.4696696, 34.6881788 ] } },
{ "type": "Feature", "properties": { "osmid": 1465053363, "y": 3838613.7772947946, "x": 543420.3434105597, "highway": null, "street_count": 3, "junction": null, "ref": null, "angle_range": "40-50", "min_angle": 41.9, "residual_angle": 202.54, "res_vec_x": -0.9236, "res_vec_y": -0.3834 }, "geometry": { "type": "Point", "coordinates": [ 135.47404, 34.6886061 ] } },
{ "type": "Feature", "properties": { "osmid": 1505209910, "y": 3838942.837183957, "x": 543786.80794955348, "highway": null, "street_count": 3, "junction": null, "ref": null, "angle_range": "40-50", "min_angle": 43.3, "residual_angle": 65.54, "res_vec_x": 0.4141, "res_vec_y": 0.9102 }, "geometry": { "type": "Point", "coordinates": [ 135.478057799999988, 34.6915578 ] } },
{ "type": "Feature", "properties": { "osmid": 1465054302, "y": 3839417.6739848084, "x": 544290.08173156437, "highway": null, "street_count": 3, "junction": null, "ref": null, "angle_range": "40-50", "min_angle": 48.3, "residual_angle": 190.76, "res_vec_x": -0.9824, "res_vec_y": -0.1868 }, "geometry": { "type": "Point", "coordinates": [ 135.483577200000013, 34.695818 ] } },
{ "type": "Feature", "properties": { "osmid": 1506877030, "y": 3839422.1618568525, "x": 544296.30669580295, "highway": null, "street_count": 3, "junction": null, "ref": null, "angle_range": "40-50", "min_angle": 47.4, "residual_angle": 54.98, "res_vec_x": 0.5739, "res_vec_y": 0.8189 }, "geometry": { "type": "Point", "coordinates": [ 135.4836454, 34.6958582 ] } },
{ "type": "Feature", "properties": { "osmid": 1465055634, "y": 3839881.4831403871, "x": 543487.30364923051, "highway": null, "street_count": 3, "junction": null, "ref": null, "angle_range": "40-50", "min_angle": 47.1, "residual_angle": 247.44, "res_vec_x": -0.3837, "res_vec_y": -0.9235 }, "geometry": { "type": "Point", "coordinates": [ 135.4748363, 34.7000349 ] } },
{ "type": "Feature", "properties": { "osmid": 1506877353, "y": 3839957.7018389497, "x": 543936.44739674032, "highway": null, "street_count": 3, "junction": null, "ref": null, "angle_range": "40-50", "min_angle": 45.4, "residual_angle": 301.77, "res_vec_x": 0.5265, "res_vec_y": -0.8502 }, "geometry": { "type": "Point", "coordinates": [ 135.4797443, 34.700703 ] } },
{ "type": "Feature", "properties": { "osmid": 1473024013, "y": 3838096.7994084717, "x": 543380.30983154452, "highway": "traffic_signals", "street_count": 3, "junction": null, "ref": null, "angle_range": "40-50", "min_angle": 49.0, "residual_angle": 41.04, "res_vec_x": 0.7542, "res_vec_y": 0.6566 }, "geometry": { "type": "Point", "coordinates": [ 135.473576400000013, 34.6839459 ] } },
{ "type": "Feature", "properties": { "osmid": 1997011363, "y": 3839240.1757167359, "x": 543467.51331279171, "highway": null, "street_count": 3, "junction": null, "ref": null, "angle_range": "40-50", "min_angle": 49.7, "residual_angle": 160.58, "res_vec_x": -0.9431, "res_vec_y": 0.3325 }, "geometry": { "type": "Point", "coordinates": [ 135.4745872, 34.6942527 ] } },
{ "type": "Feature", "properties": { "osmid": 1997011364, "y": 3839262.0933906082, "x": 543445.0338751385, "highway": "traffic_signals", "street_count": 3, "junction": null, "ref": null, "angle_range": "40-50", "min_angle": 40.8, "residual_angle": 155.58, "res_vec_x": -0.9106, "res_vec_y": 0.4134 }, "geometry": { "type": "Point", "coordinates": [ 135.474342900000011, 34.6944513 ] } },
{ "type": "Feature", "properties": { "osmid": 7380194272, "y": 3838837.7307789735, "x": 544343.57594070781, "highway": null, "street_count": 3, "junction": null, "ref": null, "angle_range": "40-50", "min_angle": 42.8, "residual_angle": 290.18, "res_vec_x": 0.345, "res_vec_y": -0.9386 }, "geometry": { "type": "Point", "coordinates": [ 135.4841308, 34.690586 ] } }
]
}
