{
"type": "FeatureCollection",
"name": "y_nodes_10_20_with_vector",
"crs": { "type": "name", "properties": { "name": "urn:ogc:def:crs:OGC:1.3:CRS84" } },
"features": [
{ "type": "Feature", "properties": { "osmid": 1465053204, "y": 3838472.0563757904, "x": 543514.87381875771, "highway": null, "street_count": 5, "junction": null, "ref": null, "angle_range": "10-20", "min_angle": 19.6, "residual_angle": 68.0, "res_vec_x": 0.3746, "res_vec_y": 0.9272 }, "geometry": { "type": "Point", "coordinates": [ 135.4750647, 34.6873241 ] } },
{ "type": "Feature", "properties": { "osmid": 9320666933, "y": 3838802.7177414922, "x": 544342.81919059961, "highway": null, "street_count": 3, "junction": null, "ref": null, "angle_range": "10-20", "min_angle": 12.0, "residual_angle": 262.8, "res_vec_x": -0.1253, "res_vec_y": -0.9921 }, "geometry": { "type": "Point", "coordinates": [ 135.4841207, 34.6902703 ] } }
]
}
