{
"type": "FeatureCollection",
"name": "y_nodes_30_40_with_vector",
"crs": { "type": "name", "properties": { "name": "urn:ogc:def:crs:OGC:1.3:CRS84" } },
"features": [
{ "type": "Feature", "properties": { "osmid": 1833419239, "y": 3832350.404618741, "x": 547856.68271796824, "highway": null, "street_count": 4, "ref": null, "railway": null, "angle_range": "30-40", "min_angle": 31.7, "residual_angle": 333.73, "res_vec_x": 0.8968, "res_vec_y": -0.4425 }, "geometry": { "type": "Point", "coordinates": [ 135.5221175, 34.6319277 ] } },
{ "type": "Feature", "properties": { "osmid": 1837320306, "y": 3833428.8818739071, "x": 547946.12099825568, "highway": null, "street_count": 3, "ref": null, "railway": null, "angle_range": "30-40", "min_angle": 33.1, "residual_angle": 309.23, "res_vec_x": 0.6324, "res_vec_y": -0.7747 }, "geometry": { "type": "Point", "coordinates": [ 135.523154299999987, 34.6416488 ] } },
{ "type": "Feature", "properties": { "osmid": 1833708257, "y": 3833017.4770829836, "x": 547244.74508891732, "highway": "traffic_signals", "street_count": 3, "ref": null, "railway": null, "angle_range": "30-40", "min_angle": 39.3, "residual_angle": 272.22, "res_vec_x": 0.0388, "res_vec_y": -0.9992 }, "geometry": { "type": "Point", "coordinates": [ 135.515478699999989, 34.6379715 ] } },
{ "type": "Feature", "properties": { "osmid": 2614744561, "y": 3833666.7935722074, "x": 547040.11733931908, "highway": null, "street_count": 4, "ref": null, "railway": null, "angle_range": "30-40", "min_angle": 34.3, "residual_angle": 337.81, "res_vec_x": 0.9259, "res_vec_y": -0.3777 }, "geometry": { "type": "Point", "coordinates": [ 135.5132822, 34.6438362 ] } },
{ "type": "Feature", "properties": { "osmid": 3189716264, "y": 3833458.4483985379, "x": 547931.56912613381, "highway": null, "street_count": 3, "ref": null, "railway": null, "angle_range": "30-40", "min_angle": 39.3, "residual_angle": 126.59, "res_vec_x": -0.596, "res_vec_y": 0.803 }, "geometry": { "type": "Point", "coordinates": [ 135.52299720000002, 34.64191610000001 ] } },
{ "type": "Feature", "properties": { "osmid": 8383032858, "y": 3833964.365579247, "x": 547068.13016614132, "highway": null, "street_count": 3, "ref": null, "railway": null, "angle_range": "30-40", "min_angle": 39.7, "residual_angle": 324.16, "res_vec_x": 0.8106, "res_vec_y": -0.5855 }, "geometry": { "type": "Point", "coordinates": [ 135.5136044, 34.6465183 ] } }
]
}
