{
"type": "FeatureCollection",
"name": "y_nodes_50_60_with_vector",
"crs": { "type": "name", "properties": { "name": "urn:ogc:def:crs:OGC:1.3:CRS84" } },
"features": [
{ "type": "Feature", "properties": { "osmid": 1833419268, "y": 3832921.3422608329, "x": 547467.43939158146, "highway": null, "street_count": 3, "ref": null, "railway": null, "angle_range": "50-60", "min_angle": 55.3, "residual_angle": 335.13, "res_vec_x": 0.9072, "res_vec_y": -0.4206 }, "geometry": { "type": "Point", "coordinates": [ 135.517903, 34.6370943 ] } },
{ "type": "Feature", "properties": { "osmid": 669012714, "y": 3832810.9021160696, "x": 547157.62694005866, "highway": null, "street_count": 4, "ref": null, "railway": null, "angle_range": "50-60", "min_angle": 54.0, "residual_angle": 59.63, "res_vec_x": 0.5056, "res_vec_y": 0.8628 }, "geometry": { "type": "Point", "coordinates": [ 135.5145167, 34.6361127 ] } },
{ "type": "Feature", "properties": { "osmid": 1833684571, "y": 3831172.4090503608, "x": 547285.2466941647, "highway": null, "street_count": 3, "ref": null, "railway": null, "angle_range": "50-60", "min_angle": 53.1, "residual_angle": 230.16, "res_vec_x": -0.6407, "res_vec_y": -0.7678 }, "geometry": { "type": "Point", "coordinates": [ 135.5158176, 34.6213315 ] } },
{ "type": "Feature", "properties": { "osmid": 11581385493, "y": 3833285.582335887, "x": 548129.14419002901, "highway": null, "street_count": 3, "ref": null, "railway": null, "angle_range": "50-60", "min_angle": 57.4, "residual_angle": 162.41, "res_vec_x": -0.9532, "res_vec_y": 0.3022 }, "geometry": { "type": "Point", "coordinates": [ 135.5251431, 34.640348 ] } },
{ "type": "Feature", "properties": { "osmid": 1830143993, "y": 3832487.5598354591, "x": 547754.0638833436, "highway": null, "street_count": 4, "ref": null, "railway": null, "angle_range": "50-60", "min_angle": 51.5, "residual_angle": 281.17, "res_vec_x": 0.1937, "res_vec_y": -0.9811 }, "geometry": { "type": "Point", "coordinates": [ 135.521005699999989, 34.6331693 ] } },
{ "type": "Feature", "properties": { "osmid": 4380084810, "y": 3832491.9353036545, "x": 547750.97980087926, "highway": null, "street_count": 3, "ref": null, "railway": null, "angle_range": "50-60", "min_angle": 55.4, "residual_angle": 277.48, "res_vec_x": 0.1302, "res_vec_y": -0.9915 }, "geometry": { "type": "Point", "coordinates": [ 135.520972300000011, 34.6332089 ] } },
{ "type": "Feature", "properties": { "osmid": 3920624654, "y": 3832458.7884396906, "x": 547746.56803821388, "highway": null, "street_count": 4, "ref": null, "railway": null, "angle_range": "50-60", "min_angle": 51.0, "residual_angle": 100.9, "res_vec_x": -0.1891, "res_vec_y": 0.982 }, "geometry": { "type": "Point", "coordinates": [ 135.5209223, 34.6329102 ] } },
{ "type": "Feature", "properties": { "osmid": 2993806954, "y": 3833501.0309031596, "x": 547867.23843486968, "highway": "traffic_signals", "street_count": 4, "ref": null, "railway": null, "angle_range": "50-60", "min_angle": 57.5, "residual_angle": 174.65, "res_vec_x": -0.9956, "res_vec_y": 0.0932 }, "geometry": { "type": "Point", "coordinates": [ 135.5222977, 34.6423031 ] } },
{ "type": "Feature", "properties": { "osmid": 1833099971, "y": 3833715.7920442978, "x": 548211.13702203217, "highway": null, "street_count": 4, "ref": null, "railway": null, "angle_range": "50-60", "min_angle": 50.2, "residual_angle": 120.4, "res_vec_x": -0.506, "res_vec_y": 0.8626 }, "geometry": { "type": "Point", "coordinates": [ 135.526062200000013, 34.6442236 ] } },
{ "type": "Feature", "properties": { "osmid": 1833099963, "y": 3833892.5991947982, "x": 547901.54722048505, "highway": null, "street_count": 4, "ref": null, "railway": null, "angle_range": "50-60", "min_angle": 59.5, "residual_angle": 241.12, "res_vec_x": -0.4829, "res_vec_y": -0.8757 }, "geometry": { "type": "Point", "coordinates": [ 135.522694200000018, 34.6458325 ] } },
{ "type": "Feature", "properties": { "osmid": 1833407976, "y": 3833024.5357334781, "x": 547752.74592853803, "highway": null, "street_count": 4, "ref": null, "railway": null, "angle_range": "50-60", "min_angle": 56.9, "residual_angle": 45.05, "res_vec_x": 0.7065, "res_vec_y": 0.7077 }, "geometry": { "type": "Point", "coordinates": [ 135.521021600000012, 34.6380116 ] } },
{ "type": "Feature", "properties": { "osmid": 3921302377, "y": 3833444.3574043778, "x": 547647.19315667078, "highway": null, "street_count": 3, "ref": null, "railway": null, "angle_range": "50-60", "min_angle": 55.3, "residual_angle": 157.56, "res_vec_x": -0.9243, "res_vec_y": 0.3817 }, "geometry": { "type": "Point", "coordinates": [ 135.519893599999989, 34.6418023 ] } },
{ "type": "Feature", "properties": { "osmid": 1834011882, "y": 3831404.4644316528, "x": 547561.72347080195, "highway": null, "street_count": 3, "ref": null, "railway": null, "angle_range": "50-60", "min_angle": 58.0, "residual_angle": 165.79, "res_vec_x": -0.9694, "res_vec_y": 0.2454 }, "geometry": { "type": "Point", "coordinates": [ 135.5188465, 34.6234113 ] } },
{ "type": "Feature", "properties": { "osmid": 4582187926, "y": 3832924.0605507991, "x": 547286.05572009599, "highway": null, "street_count": 3, "ref": null, "railway": null, "angle_range": "50-60", "min_angle": 59.1, "residual_angle": 143.52, "res_vec_x": -0.804, "res_vec_y": 0.5946 }, "geometry": { "type": "Point", "coordinates": [ 135.5159242, 34.6371272 ] } },
{ "type": "Feature", "properties": { "osmid": 1833718116, "y": 3832503.0828474863, "x": 547710.7106618355, "highway": null, "street_count": 3, "ref": null, "railway": null, "angle_range": "50-60", "min_angle": 56.3, "residual_angle": 156.84, "res_vec_x": -0.9194, "res_vec_y": 0.3934 }, "geometry": { "type": "Point", "coordinates": [ 135.5205336, 34.6333113 ] } },
{ "type": "Feature", "properties": { "osmid": 4386707180, "y": 3832888.1946866666, "x": 547439.11360156548, "highway": null, "street_count": 3, "ref": null, "railway": null, "angle_range": "50-60", "min_angle": 53.1, "residual_angle": 233.44, "res_vec_x": -0.5957, "res_vec_y": -0.8032 }, "geometry": { "type": "Point", "coordinates": [ 135.5175921, 34.6367967 ] } },
{ "type": "Feature", "properties": { "osmid": 1833721697, "y": 3832742.7618040768, "x": 547519.87796966755, "highway": null, "street_count": 3, "ref": null, "railway": null, "angle_range": "50-60", "min_angle": 57.6, "residual_angle": 157.6, "res_vec_x": -0.9245, "res_vec_y": 0.3811 }, "geometry": { "type": "Point", "coordinates": [ 135.518465099999986, 34.6354815 ] } },
{ "type": "Feature", "properties": { "osmid": 1837487821, "y": 3831470.3781910744, "x": 546590.28840111312, "highway": "traffic_signals", "street_count": 4, "ref": null, "railway": null, "angle_range": "50-60", "min_angle": 54.8, "residual_angle": 37.87, "res_vec_x": 0.7894, "res_vec_y": 0.6138 }, "geometry": { "type": "Point", "coordinates": [ 135.508253200000041, 34.6240503 ] } },
{ "type": "Feature", "properties": { "osmid": 2395677559, "y": 3831928.8307045107, "x": 546395.42370596167, "highway": null, "street_count": 4, "ref": null, "railway": null, "angle_range": "50-60", "min_angle": 56.2, "residual_angle": 88.48, "res_vec_x": 0.0265, "res_vec_y": 0.9996 }, "geometry": { "type": "Point", "coordinates": [ 135.5061526, 34.6281933 ] } },
{ "type": "Feature", "properties": { "osmid": 1989773065, "y": 3833163.6056252257, "x": 546416.31706562499, "highway": null, "street_count": 3, "ref": null, "railway": null, "angle_range": "50-60", "min_angle": 59.8, "residual_angle": 28.89, "res_vec_x": 0.8756, "res_vec_y": 0.4831 }, "geometry": { "type": "Point", "coordinates": [ 135.5064482, 34.639327099999988 ] } },
{ "type": "Feature", "properties": { "osmid": 1890686043, "y": 3833334.7963273446, "x": 546952.45628049888, "highway": null, "street_count": 3, "ref": null, "railway": null, "angle_range": "50-60", "min_angle": 57.7, "residual_angle": 303.74, "res_vec_x": 0.5554, "res_vec_y": -0.8316 }, "geometry": { "type": "Point", "coordinates": [ 135.5123073, 34.6408464 ] } },
{ "type": "Feature", "properties": { "osmid": 4102573286, "y": 3831808.7292093672, "x": 545997.57666842535, "highway": null, "street_count": 3, "ref": null, "railway": null, "angle_range": "50-60", "min_angle": 55.7, "residual_angle": 274.17, "res_vec_x": 0.0726, "res_vec_y": -0.9974 }, "geometry": { "type": "Point", "coordinates": [ 135.5018059, 34.6271282 ] } },
{ "type": "Feature", "properties": { "osmid": 1989772601, "y": 3831938.9963220782, "x": 546390.34021175327, "highway": null, "street_count": 4, "ref": null, "railway": null, "angle_range": "50-60", "min_angle": 56.9, "residual_angle": 268.15, "res_vec_x": -0.0324, "res_vec_y": -0.9995 }, "geometry": { "type": "Point", "coordinates": [ 135.5060977, 34.6282852 ] } },
{ "type": "Feature", "properties": { "osmid": 12517224206, "y": 3832168.8309432347, "x": 546259.06075507333, "highway": null, "street_count": 3, "ref": null, "railway": null, "angle_range": "50-60", "min_angle": 59.4, "residual_angle": 325.49, "res_vec_x": 0.8241, "res_vec_y": -0.5665 }, "geometry": { "type": "Point", "coordinates": [ 135.5046781, 34.6303637 ] } },
{ "type": "Feature", "properties": { "osmid": 5667536223, "y": 3833907.2672129902, "x": 547270.27282304503, "highway": "traffic_signals", "street_count": 4, "ref": null, "railway": null, "angle_range": "50-60", "min_angle": 57.3, "residual_angle": 137.55, "res_vec_x": -0.7379, "res_vec_y": 0.675 }, "geometry": { "type": "Point", "coordinates": [ 135.5158069, 34.6459941 ] } },
{ "type": "Feature", "properties": { "osmid": 4380084809, "y": 3832465.8366308054, "x": 547741.37110285403, "highway": null, "street_count": 3, "ref": null, "railway": null, "angle_range": "50-60", "min_angle": 59.7, "residual_angle": 99.62, "res_vec_x": -0.1672, "res_vec_y": 0.9859 }, "geometry": { "type": "Point", "coordinates": [ 135.520866, 34.632974 ] } },
{ "type": "Feature", "properties": { "osmid": 5565644778, "y": 3832059.9593456136, "x": 546773.17612036783, "highway": null, "street_count": 3, "ref": null, "railway": null, "angle_range": "50-60", "min_angle": 59.0, "residual_angle": 293.59, "res_vec_x": 0.4002, "res_vec_y": -0.9164 }, "geometry": { "type": "Point", "coordinates": [ 135.5102808, 34.6293586 ] } }
]
}
