{
"type": "FeatureCollection",
"name": "y_nodes_40_50_with_vector",
"crs": { "type": "name", "properties": { "name": "urn:ogc:def:crs:OGC:1.3:CRS84" } },
"features": [
{ "type": "Feature", "properties": { "osmid": 2395677566, "y": 3832597.7272531153, "x": 546625.98967925133, "highway": null, "street_count": 3, "ref": null, "railway": null, "angle_range": "40-50", "min_angle": 44.9, "residual_angle": 202.05, "res_vec_x": -0.9268, "res_vec_y": -0.3755 }, "geometry": { "type": "Point", "coordinates": [ 135.50870470000001, 34.6342147 ] } },
{ "type": "Feature", "properties": { "osmid": 333533789, "y": 3833809.2789179659, "x": 547606.67210605519, "highway": "traffic_signals", "street_count": 3, "ref": null, "railway": null, "angle_range": "40-50", "min_angle": 41.3, "residual_angle": 313.75, "res_vec_x": 0.6915, "res_vec_y": -0.7224 }, "geometry": { "type": "Point", "coordinates": [ 135.519472, 34.645094899999989 ] } },
{ "type": "Feature", "properties": { "osmid": 7511124022, "y": 3833800.1507952171, "x": 547625.73606795561, "highway": null, "street_count": 3, "ref": null, "railway": null, "angle_range": "40-50", "min_angle": 42.0, "residual_angle": 175.42, "res_vec_x": -0.9968, "res_vec_y": 0.0799 }, "geometry": { "type": "Point", "coordinates": [ 135.519679500000024, 34.6450117 ] } },
{ "type": "Feature", "properties": { "osmid": 3920624598, "y": 3832357.5688288719, "x": 547818.2116857263, "highway": "traffic_signals", "street_count": 3, "ref": null, "railway": null, "angle_range": "40-50", "min_angle": 47.3, "residual_angle": 145.75, "res_vec_x": -0.8266, "res_vec_y": 0.5628 }, "geometry": { "type": "Point", "coordinates": [ 135.5216982, 34.6319941 ] } },
{ "type": "Feature", "properties": { "osmid": 9960205411, "y": 3833448.8562046979, "x": 547946.55806496425, "highway": null, "street_count": 3, "ref": null, "railway": null, "angle_range": "40-50", "min_angle": 44.5, "residual_angle": 125.16, "res_vec_x": -0.5759, "res_vec_y": 0.8175 }, "geometry": { "type": "Point", "coordinates": [ 135.5231602, 34.6418289 ] } },
{ "type": "Feature", "properties": { "osmid": 3761318690, "y": 3833809.3333802014, "x": 547728.95733755373, "highway": null, "street_count": 3, "ref": null, "railway": null, "angle_range": "40-50", "min_angle": 41.1, "residual_angle": 326.04, "res_vec_x": 0.8295, "res_vec_y": -0.5586 }, "geometry": { "type": "Point", "coordinates": [ 135.5208063, 34.6450897 ] } },
{ "type": "Feature", "properties": { "osmid": 4419913834, "y": 3833385.252952191, "x": 546895.6598622544, "highway": "traffic_signals", "street_count": 5, "ref": null, "railway": null, "angle_range": "40-50", "min_angle": 40.4, "residual_angle": 165.21, "res_vec_x": -0.9669, "res_vec_y": 0.2553 }, "geometry": { "type": "Point", "coordinates": [ 135.5116904, 34.641304 ] } },
{ "type": "Feature", "properties": { "osmid": 1833407983, "y": 3832425.4786802968, "x": 547800.7379085588, "highway": null, "street_count": 3, "ref": null, "railway": null, "angle_range": "40-50", "min_angle": 45.1, "residual_angle": 329.26, "res_vec_x": 0.8595, "res_vec_y": -0.5111 }, "geometry": { "type": "Point", "coordinates": [ 135.5215114, 34.632607299999989 ] } },
{ "type": "Feature", "properties": { "osmid": 3920626003, "y": 3832839.4157930752, "x": 547441.93963123171, "highway": "traffic_signals", "street_count": 4, "ref": null, "railway": null, "angle_range": "40-50", "min_angle": 44.3, "residual_angle": 282.61, "res_vec_x": 0.2183, "res_vec_y": -0.9759 }, "geometry": { "type": "Point", "coordinates": [ 135.51762020000001, 34.6363567 ] } },
{ "type": "Feature", "properties": { "osmid": 1832985815, "y": 3833290.6506249942, "x": 547094.3024132417, "highway": "traffic_signals", "street_count": 3, "ref": null, "railway": null, "angle_range": "40-50", "min_angle": 40.7, "residual_angle": 326.22, "res_vec_x": 0.8312, "res_vec_y": -0.556 }, "geometry": { "type": "Point", "coordinates": [ 135.513852500000013, 34.6404418 ] } },
{ "type": "Feature", "properties": { "osmid": 1833099956, "y": 3834031.5209142277, "x": 548051.81274412072, "highway": null, "street_count": 4, "ref": null, "railway": null, "angle_range": "40-50", "min_angle": 43.5, "residual_angle": 159.12, "res_vec_x": -0.9343, "res_vec_y": 0.3565 }, "geometry": { "type": "Point", "coordinates": [ 135.5243417, 34.6470782 ] } },
{ "type": "Feature", "properties": { "osmid": 1833099946, "y": 3833738.4393331185, "x": 548105.30227014667, "highway": null, "street_count": 3, "ref": null, "railway": null, "angle_range": "40-50", "min_angle": 47.7, "residual_angle": 18.85, "res_vec_x": 0.9464, "res_vec_y": 0.323 }, "geometry": { "type": "Point", "coordinates": [ 135.5249087, 34.6444328 ] } },
{ "type": "Feature", "properties": { "osmid": 1833419234, "y": 3832510.729877654, "x": 547737.72021552001, "highway": null, "street_count": 3, "ref": null, "railway": null, "angle_range": "40-50", "min_angle": 40.5, "residual_angle": 108.14, "res_vec_x": -0.3113, "res_vec_y": 0.9503 }, "geometry": { "type": "Point", "coordinates": [ 135.52082870000001, 34.633379 ] } },
{ "type": "Feature", "properties": { "osmid": 4578528944, "y": 3832784.3061836641, "x": 547574.42068979726, "highway": null, "street_count": 3, "ref": null, "railway": null, "angle_range": "40-50", "min_angle": 46.0, "residual_angle": 105.8, "res_vec_x": -0.2723, "res_vec_y": 0.9622 }, "geometry": { "type": "Point", "coordinates": [ 135.5190625, 34.6358536 ] } },
{ "type": "Feature", "properties": { "osmid": 4386707182, "y": 3833071.0075519597, "x": 547255.95570422534, "highway": "traffic_signals", "street_count": 4, "ref": null, "railway": null, "angle_range": "40-50", "min_angle": 50.0, "residual_angle": 104.2, "res_vec_x": -0.2452, "res_vec_y": 0.9695 }, "geometry": { "type": "Point", "coordinates": [ 135.515604, 34.6384537 ] } },
{ "type": "Feature", "properties": { "osmid": 1833718145, "y": 3832955.6934327302, "x": 547371.62892191915, "highway": null, "street_count": 4, "ref": null, "railway": null, "angle_range": "40-50", "min_angle": 49.2, "residual_angle": 104.46, "res_vec_x": -0.2497, "res_vec_y": 0.9683 }, "geometry": { "type": "Point", "coordinates": [ 135.5168596, 34.6374085 ] } },
{ "type": "Feature", "properties": { "osmid": 1833721718, "y": 3832693.6702123834, "x": 547558.9112612498, "highway": null, "street_count": 3, "ref": null, "railway": null, "angle_range": "40-50", "min_angle": 43.1, "residual_angle": 150.06, "res_vec_x": -0.8666, "res_vec_y": 0.499 }, "geometry": { "type": "Point", "coordinates": [ 135.5188882, 34.635037 ] } },
{ "type": "Feature", "properties": { "osmid": 1834083261, "y": 3833162.6032389724, "x": 547181.63237315684, "highway": null, "street_count": 3, "ref": null, "railway": null, "angle_range": "40-50", "min_angle": 47.1, "residual_angle": 285.57, "res_vec_x": 0.2684, "res_vec_y": -0.9633 }, "geometry": { "type": "Point", "coordinates": [ 135.5147982, 34.6392831 ] } },
{ "type": "Feature", "properties": { "osmid": 2938278793, "y": 3832859.4254637971, "x": 546943.46103877074, "highway": null, "street_count": 3, "ref": null, "railway": null, "angle_range": "40-50", "min_angle": 46.8, "residual_angle": 101.31, "res_vec_x": -0.196, "res_vec_y": 0.9806 }, "geometry": { "type": "Point", "coordinates": [ 135.5121828, 34.6365601 ] } },
{ "type": "Feature", "properties": { "osmid": 4378664066, "y": 3832344.9842050397, "x": 547835.71096757974, "highway": null, "street_count": 3, "ref": null, "railway": null, "angle_range": "40-50", "min_angle": 42.8, "residual_angle": 329.99, "res_vec_x": 0.8659, "res_vec_y": -0.5002 }, "geometry": { "type": "Point", "coordinates": [ 135.5218884, 34.6318798 ] } },
{ "type": "Feature", "properties": { "osmid": 8412498096, "y": 3833094.2291986714, "x": 547260.37382976152, "highway": "traffic_signals", "street_count": 4, "ref": null, "railway": null, "angle_range": "40-50", "min_angle": 46.1, "residual_angle": 105.92, "res_vec_x": -0.2743, "res_vec_y": 0.9616 }, "geometry": { "type": "Point", "coordinates": [ 135.515653500000013, 34.6386629 ] } }
]
}
