{
"type": "FeatureCollection",
"name": "y_nodes_60_70_with_vector",
"crs": { "type": "name", "properties": { "name": "urn:ogc:def:crs:OGC:1.3:CRS84" } },
"features": [
{ "type": "Feature", "properties": { "osmid": 1833559010, "y": 3831843.8379097562, "x": 547652.27564297966, "highway": null, "street_count": 4, "ref": null, "railway": null, "angle_range": "60-70", "min_angle": 64.9, "residual_angle": 115.87, "res_vec_x": -0.4363, "res_vec_y": 0.8998 }, "geometry": { "type": "Point", "coordinates": [ 135.519859, 34.6273692 ] } },
{ "type": "Feature", "properties": { "osmid": 669586848, "y": 3831167.6076903208, "x": 547480.03230758291, "highway": "traffic_signals", "street_count": 4, "ref": null, "railway": null, "angle_range": "60-70", "min_angle": 69.8, "residual_angle": 209.29, "res_vec_x": -0.8722, "res_vec_y": -0.4892 }, "geometry": { "type": "Point", "coordinates": [ 135.5179421, 34.6212792 ] } },
{ "type": "Feature", "properties": { "osmid": 1833445318, "y": 3833556.0592109291, "x": 547560.74075078056, "highway": "traffic_signals", "street_count": 4, "ref": null, "railway": null, "angle_range": "60-70", "min_angle": 66.5, "residual_angle": 290.06, "res_vec_x": 0.343, "res_vec_y": -0.9393 }, "geometry": { "type": "Point", "coordinates": [ 135.5189566, 34.6428136 ] } },
{ "type": "Feature", "properties": { "osmid": 669586878, "y": 3831051.8874578741, "x": 547423.36644925002, "highway": null, "street_count": 3, "ref": null, "railway": null, "angle_range": "60-70", "min_angle": 69.7, "residual_angle": 212.66, "res_vec_x": -0.8419, "res_vec_y": -0.5396 }, "geometry": { "type": "Point", "coordinates": [ 135.5173175, 34.6202383 ] } },
{ "type": "Feature", "properties": { "osmid": 1833684572, "y": 3831121.5401644236, "x": 547304.38262083963, "highway": null, "street_count": 3, "ref": null, "railway": null, "angle_range": "60-70", "min_angle": 67.6, "residual_angle": 30.5, "res_vec_x": 0.8616, "res_vec_y": 0.5076 }, "geometry": { "type": "Point", "coordinates": [ 135.516023499999989, 34.6208719 ] } },
{ "type": "Feature", "properties": { "osmid": 1836231350, "y": 3831435.1725283782, "x": 546095.44264710136, "highway": "traffic_signals", "street_count": 4, "ref": null, "railway": null, "angle_range": "60-70", "min_angle": 68.9, "residual_angle": 15.43, "res_vec_x": 0.9639, "res_vec_y": 0.2661 }, "geometry": { "type": "Point", "coordinates": [ 135.5028532, 34.6237552 ] } },
{ "type": "Feature", "properties": { "osmid": 854469887, "y": 3833625.5565740494, "x": 547987.39642334217, "highway": "traffic_signals", "street_count": 4, "ref": null, "railway": null, "angle_range": "60-70", "min_angle": 68.3, "residual_angle": 187.62, "res_vec_x": -0.9912, "res_vec_y": -0.1326 }, "geometry": { "type": "Point", "coordinates": [ 135.523615799999988, 34.6434204 ] } },
{ "type": "Feature", "properties": { "osmid": 1833099924, "y": 3833867.4667341998, "x": 548026.80345652718, "highway": null, "street_count": 4, "ref": null, "railway": null, "angle_range": "60-70", "min_angle": 67.4, "residual_angle": 123.92, "res_vec_x": -0.5581, "res_vec_y": 0.8298 }, "geometry": { "type": "Point", "coordinates": [ 135.5240595, 34.6456 ] } },
{ "type": "Feature", "properties": { "osmid": 1833099933, "y": 3833883.4416572042, "x": 547827.10403731838, "highway": null, "street_count": 4, "ref": null, "railway": null, "angle_range": "60-70", "min_angle": 63.5, "residual_angle": 334.01, "res_vec_x": 0.8989, "res_vec_y": -0.4381 }, "geometry": { "type": "Point", "coordinates": [ 135.521881400000012, 34.6457534 ] } },
{ "type": "Feature", "properties": { "osmid": 3915245994, "y": 3833541.5323624252, "x": 547897.74059987406, "highway": null, "street_count": 3, "ref": null, "railway": null, "angle_range": "60-70", "min_angle": 65.2, "residual_angle": 268.07, "res_vec_x": -0.0336, "res_vec_y": -0.9994 }, "geometry": { "type": "Point", "coordinates": [ 135.5226328, 34.6426669 ] } },
{ "type": "Feature", "properties": { "osmid": 4516425132, "y": 3833335.066290868, "x": 547959.12766396569, "highway": null, "street_count": 4, "ref": null, "railway": null, "angle_range": "60-70", "min_angle": 65.2, "residual_angle": 327.09, "res_vec_x": 0.8396, "res_vec_y": -0.5432 }, "geometry": { "type": "Point", "coordinates": [ 135.5232909, 34.6408022 ] } },
{ "type": "Feature", "properties": { "osmid": 1721235917, "y": 3833454.7801645063, "x": 547805.76932523982, "highway": null, "street_count": 4, "ref": null, "railway": null, "angle_range": "60-70", "min_angle": 68.0, "residual_angle": 9.08, "res_vec_x": 0.9875, "res_vec_y": 0.1579 }, "geometry": { "type": "Point", "coordinates": [ 135.5216244, 34.6418889 ] } },
{ "type": "Feature", "properties": { "osmid": 1722775815, "y": 3833317.2404289874, "x": 548098.9080106233, "highway": null, "street_count": 4, "ref": null, "railway": null, "angle_range": "60-70", "min_angle": 66.8, "residual_angle": 280.31, "res_vec_x": 0.1789, "res_vec_y": -0.9839 }, "geometry": { "type": "Point", "coordinates": [ 135.524815, 34.6406349 ] } },
{ "type": "Feature", "properties": { "osmid": 1831604584, "y": 3833722.28725038, "x": 548418.28414804291, "highway": null, "street_count": 4, "ref": null, "railway": null, "angle_range": "60-70", "min_angle": 69.3, "residual_angle": 103.85, "res_vec_x": -0.2394, "res_vec_y": 0.9709 }, "geometry": { "type": "Point", "coordinates": [ 135.528322800000012, 34.6442724 ] } },
{ "type": "Feature", "properties": { "osmid": 1831896595, "y": 3831540.3173122769, "x": 545741.83360606944, "highway": "traffic_signals", "street_count": 4, "ref": null, "railway": null, "angle_range": "60-70", "min_angle": 61.5, "residual_angle": 44.15, "res_vec_x": 0.7175, "res_vec_y": 0.6966 }, "geometry": { "type": "Point", "coordinates": [ 135.4990015, 34.6247192 ] } },
{ "type": "Feature", "properties": { "osmid": 2628144268, "y": 3833819.18148193, "x": 547911.14774654177, "highway": null, "street_count": 3, "ref": null, "railway": null, "angle_range": "60-70", "min_angle": 64.8, "residual_angle": 129.71, "res_vec_x": -0.6389, "res_vec_y": 0.7693 }, "geometry": { "type": "Point", "coordinates": [ 135.522794800000014, 34.64517 ] } },
{ "type": "Feature", "properties": { "osmid": 4583587659, "y": 3833964.1523069758, "x": 548090.11396437953, "highway": null, "street_count": 3, "ref": null, "railway": null, "angle_range": "60-70", "min_angle": 67.3, "residual_angle": 304.31, "res_vec_x": 0.5637, "res_vec_y": -0.826 }, "geometry": { "type": "Point", "coordinates": [ 135.5247558, 34.6464689 ] } },
{ "type": "Feature", "properties": { "osmid": 3915246995, "y": 3833733.6095771296, "x": 548099.92016118334, "highway": null, "street_count": 3, "ref": null, "railway": null, "angle_range": "60-70", "min_angle": 60.8, "residual_angle": 192.63, "res_vec_x": -0.9758, "res_vec_y": -0.2186 }, "geometry": { "type": "Point", "coordinates": [ 135.5248497, 34.6443895 ] } },
{ "type": "Feature", "properties": { "osmid": 3920625964, "y": 3832695.679371851, "x": 547647.54407100892, "highway": null, "street_count": 3, "ref": null, "railway": null, "angle_range": "60-70", "min_angle": 64.1, "residual_angle": 150.77, "res_vec_x": -0.8726, "res_vec_y": 0.4884 }, "geometry": { "type": "Point", "coordinates": [ 135.519855299999989, 34.635051 ] } },
{ "type": "Feature", "properties": { "osmid": 1833419205, "y": 3832705.4769163327, "x": 547642.17734552792, "highway": null, "street_count": 3, "ref": null, "railway": null, "angle_range": "60-70", "min_angle": 63.2, "residual_angle": 330.3, "res_vec_x": 0.8687, "res_vec_y": -0.4954 }, "geometry": { "type": "Point", "coordinates": [ 135.5197973, 34.6351396 ] } },
{ "type": "Feature", "properties": { "osmid": 3920625960, "y": 3832648.6558427881, "x": 547595.04586356925, "highway": null, "street_count": 4, "ref": null, "railway": null, "angle_range": "60-70", "min_angle": 69.0, "residual_angle": 163.29, "res_vec_x": -0.9578, "res_vec_y": 0.2876 }, "geometry": { "type": "Point", "coordinates": [ 135.519279899999987, 34.6346294 ] } },
{ "type": "Feature", "properties": { "osmid": 2938283420, "y": 3832951.7580194469, "x": 547462.63615511963, "highway": null, "street_count": 3, "ref": null, "railway": null, "angle_range": "60-70", "min_angle": 65.6, "residual_angle": 46.96, "res_vec_x": 0.6825, "res_vec_y": 0.7309 }, "geometry": { "type": "Point", "coordinates": [ 135.517852299999987, 34.6373688 ] } },
{ "type": "Feature", "properties": { "osmid": 1833419299, "y": 3832875.8715754878, "x": 547537.81804497831, "highway": null, "street_count": 3, "ref": null, "railway": null, "angle_range": "60-70", "min_angle": 67.9, "residual_angle": 316.25, "res_vec_x": 0.7223, "res_vec_y": -0.6915 }, "geometry": { "type": "Point", "coordinates": [ 135.5186683, 34.636681 ] } },
{ "type": "Feature", "properties": { "osmid": 2938283402, "y": 3832869.991750265, "x": 547571.81637680263, "highway": null, "street_count": 3, "ref": null, "railway": null, "angle_range": "60-70", "min_angle": 67.4, "residual_angle": 136.49, "res_vec_x": -0.7253, "res_vec_y": 0.6885 }, "geometry": { "type": "Point", "coordinates": [ 135.5190389, 34.6366264 ] } },
{ "type": "Feature", "properties": { "osmid": 1833437856, "y": 3833046.8056597211, "x": 547479.95647008298, "highway": "traffic_signals", "street_count": 4, "ref": null, "railway": null, "angle_range": "60-70", "min_angle": 60.1, "residual_angle": 228.73, "res_vec_x": -0.6596, "res_vec_y": -0.7516 }, "geometry": { "type": "Point", "coordinates": [ 135.5180466, 34.6382251 ] } },
{ "type": "Feature", "properties": { "osmid": 4161693289, "y": 3833043.2247796142, "x": 547469.36119555449, "highway": "traffic_signals", "street_count": 4, "ref": null, "railway": null, "angle_range": "60-70", "min_angle": 61.5, "residual_angle": 49.43, "res_vec_x": 0.6503, "res_vec_y": 0.7596 }, "geometry": { "type": "Point", "coordinates": [ 135.517930799999988, 34.6381933 ] } },
{ "type": "Feature", "properties": { "osmid": 3916152434, "y": 3833547.1935788076, "x": 547572.65510933683, "highway": "traffic_signals", "street_count": 3, "ref": null, "railway": null, "angle_range": "60-70", "min_angle": 64.4, "residual_angle": 111.1, "res_vec_x": -0.36, "res_vec_y": 0.9329 }, "geometry": { "type": "Point", "coordinates": [ 135.51908610000001, 34.6427331 ] } },
{ "type": "Feature", "properties": { "osmid": 1833445346, "y": 3833509.8067399682, "x": 547569.64905203145, "highway": null, "street_count": 3, "ref": null, "railway": null, "angle_range": "60-70", "min_angle": 66.4, "residual_angle": 293.03, "res_vec_x": 0.3912, "res_vec_y": -0.9203 }, "geometry": { "type": "Point", "coordinates": [ 135.5190512, 34.6423961 ] } },
{ "type": "Feature", "properties": { "osmid": 1833708255, "y": 3832881.4685272579, "x": 547303.85348804563, "highway": "traffic_signals", "street_count": 4, "ref": null, "railway": null, "angle_range": "60-70", "min_angle": 66.2, "residual_angle": 143.25, "res_vec_x": -0.8013, "res_vec_y": 0.5983 }, "geometry": { "type": "Point", "coordinates": [ 135.516116, 34.6367423 ] } },
{ "type": "Feature", "properties": { "osmid": 2938283427, "y": 3832959.1120338226, "x": 547270.46894046583, "highway": null, "street_count": 3, "ref": null, "railway": null, "angle_range": "60-70", "min_angle": 61.9, "residual_angle": 324.94, "res_vec_x": 0.8185, "res_vec_y": -0.5745 }, "geometry": { "type": "Point", "coordinates": [ 135.5157561, 34.637444 ] } },
{ "type": "Feature", "properties": { "osmid": 2938283479, "y": 3833195.3665164942, "x": 547416.55679150834, "highway": null, "street_count": 3, "ref": null, "railway": null, "angle_range": "60-70", "min_angle": 67.2, "residual_angle": 309.5, "res_vec_x": 0.6361, "res_vec_y": -0.7716 }, "geometry": { "type": "Point", "coordinates": [ 135.5173632, 34.6395677 ] } },
{ "type": "Feature", "properties": { "osmid": 1833708620, "y": 3833033.1331976349, "x": 547387.23487039213, "highway": null, "street_count": 4, "ref": null, "railway": null, "angle_range": "60-70", "min_angle": 66.8, "residual_angle": 213.01, "res_vec_x": -0.8385, "res_vec_y": -0.5448 }, "geometry": { "type": "Point", "coordinates": [ 135.517034200000012, 34.6381061 ] } },
{ "type": "Feature", "properties": { "osmid": 1833777935, "y": 3830819.5384954629, "x": 546624.52799137856, "highway": null, "street_count": 4, "ref": null, "railway": null, "angle_range": "60-70", "min_angle": 62.1, "residual_angle": 301.53, "res_vec_x": 0.5229, "res_vec_y": -0.8524 }, "geometry": { "type": "Point", "coordinates": [ 135.5085909, 34.6181797 ] } },
{ "type": "Feature", "properties": { "osmid": 1833718119, "y": 3832894.4131685412, "x": 547159.16214483161, "highway": null, "street_count": 4, "ref": null, "railway": null, "angle_range": "60-70", "min_angle": 65.8, "residual_angle": 328.59, "res_vec_x": 0.8535, "res_vec_y": -0.5211 }, "geometry": { "type": "Point", "coordinates": [ 135.51453810000001, 34.6368657 ] } },
{ "type": "Feature", "properties": { "osmid": 1834328376, "y": 3832288.2068014303, "x": 547694.18419813819, "highway": null, "street_count": 4, "ref": null, "railway": null, "angle_range": "60-70", "min_angle": 64.4, "residual_angle": 201.28, "res_vec_x": -0.9318, "res_vec_y": -0.3629 }, "geometry": { "type": "Point", "coordinates": [ 135.5203412, 34.6313744 ] } },
{ "type": "Feature", "properties": { "osmid": 1834003844, "y": 3831598.7827123259, "x": 546662.96753832931, "highway": null, "street_count": 3, "ref": null, "railway": null, "angle_range": "60-70", "min_angle": 69.8, "residual_angle": 300.61, "res_vec_x": 0.5092, "res_vec_y": -0.8606 }, "geometry": { "type": "Point", "coordinates": [ 135.509053099999988, 34.6252049 ] } },
{ "type": "Feature", "properties": { "osmid": 1834083214, "y": 3832501.4929748867, "x": 547045.94118531479, "highway": "traffic_signals", "street_count": 4, "ref": null, "railway": null, "angle_range": "60-70", "min_angle": 68.2, "residual_angle": 203.77, "res_vec_x": -0.9152, "res_vec_y": -0.403 }, "geometry": { "type": "Point", "coordinates": [ 135.513281, 34.6333277 ] } },
{ "type": "Feature", "properties": { "osmid": 1834083203, "y": 3833018.3257896993, "x": 546908.58535521163, "highway": null, "street_count": 4, "ref": null, "railway": null, "angle_range": "60-70", "min_angle": 64.6, "residual_angle": 228.32, "res_vec_x": -0.6649, "res_vec_y": -0.7469 }, "geometry": { "type": "Point", "coordinates": [ 135.511811099999989, 34.6379946 ] } },
{ "type": "Feature", "properties": { "osmid": 1834083263, "y": 3832492.8043821077, "x": 547040.48578542867, "highway": "traffic_signals", "street_count": 4, "ref": null, "railway": null, "angle_range": "60-70", "min_angle": 68.1, "residual_angle": 23.85, "res_vec_x": 0.9146, "res_vec_y": 0.4043 }, "geometry": { "type": "Point", "coordinates": [ 135.513221, 34.6332496 ] } },
{ "type": "Feature", "properties": { "osmid": 1989773001, "y": 3832827.6216905219, "x": 546188.89891816746, "highway": null, "street_count": 3, "ref": null, "railway": null, "angle_range": "60-70", "min_angle": 68.2, "residual_angle": 328.31, "res_vec_x": 0.8509, "res_vec_y": -0.5254 }, "geometry": { "type": "Point", "coordinates": [ 135.5039486, 34.6363076 ] } },
{ "type": "Feature", "properties": { "osmid": 1989772849, "y": 3832339.1551302443, "x": 546088.66101049003, "highway": null, "street_count": 3, "ref": null, "railway": null, "angle_range": "60-70", "min_angle": 67.9, "residual_angle": 316.79, "res_vec_x": 0.7288, "res_vec_y": -0.6847 }, "geometry": { "type": "Point", "coordinates": [ 135.5028284, 34.6319073 ] } },
{ "type": "Feature", "properties": { "osmid": 1989772843, "y": 3832313.0607041665, "x": 546203.90973630676, "highway": null, "street_count": 3, "ref": null, "railway": null, "angle_range": "60-70", "min_angle": 67.2, "residual_angle": 330.27, "res_vec_x": 0.8684, "res_vec_y": -0.4959 }, "geometry": { "type": "Point", "coordinates": [ 135.504084299999988, 34.6316668 ] } },
{ "type": "Feature", "properties": { "osmid": 1837329808, "y": 3833628.3707199916, "x": 547830.82606611797, "highway": null, "street_count": 4, "ref": null, "railway": null, "angle_range": "60-70", "min_angle": 65.2, "residual_angle": 159.3, "res_vec_x": -0.9354, "res_vec_y": 0.3535 }, "geometry": { "type": "Point", "coordinates": [ 135.5219076, 34.6434531 ] } },
{ "type": "Feature", "properties": { "osmid": 3906148131, "y": 3833530.5145382658, "x": 547890.16324485722, "highway": null, "street_count": 4, "ref": null, "railway": null, "angle_range": "60-70", "min_angle": 66.2, "residual_angle": 88.58, "res_vec_x": 0.0247, "res_vec_y": 0.9997 }, "geometry": { "type": "Point", "coordinates": [ 135.5225495, 34.6425679 ] } },
{ "type": "Feature", "properties": { "osmid": 1837333409, "y": 3833482.7586560682, "x": 547251.85145732271, "highway": null, "street_count": 3, "ref": null, "railway": null, "angle_range": "60-70", "min_angle": 63.1, "residual_angle": 331.15, "res_vec_x": 0.8759, "res_vec_y": -0.4825 }, "geometry": { "type": "Point", "coordinates": [ 135.515582200000011, 34.6421669 ] } },
{ "type": "Feature", "properties": { "osmid": 1989772567, "y": 3831820.2059158077, "x": 545832.23467818683, "highway": null, "street_count": 3, "ref": null, "railway": null, "angle_range": "60-70", "min_angle": 68.1, "residual_angle": 253.26, "res_vec_x": -0.288, "res_vec_y": -0.9576 }, "geometry": { "type": "Point", "coordinates": [ 135.5000028, 34.6272391 ] } },
{ "type": "Feature", "properties": { "osmid": 12517110591, "y": 3832233.1344673983, "x": 546165.16925376083, "highway": null, "street_count": 3, "ref": null, "railway": null, "angle_range": "60-70", "min_angle": 65.0, "residual_angle": 309.48, "res_vec_x": 0.6358, "res_vec_y": -0.7719 }, "geometry": { "type": "Point", "coordinates": [ 135.503657299999986, 34.6309478 ] } },
{ "type": "Feature", "properties": { "osmid": 1989772793, "y": 3832274.5625931658, "x": 545964.59705271968, "highway": null, "street_count": 3, "ref": null, "railway": null, "angle_range": "60-70", "min_angle": 63.4, "residual_angle": 28.41, "res_vec_x": 0.8795, "res_vec_y": 0.4758 }, "geometry": { "type": "Point", "coordinates": [ 135.501471400000014, 34.63133040000001 ] } },
{ "type": "Feature", "properties": { "osmid": 1989772932, "y": 3832627.4534262698, "x": 546354.00607790332, "highway": null, "street_count": 4, "ref": null, "railway": null, "angle_range": "60-70", "min_angle": 66.1, "residual_angle": 305.35, "res_vec_x": 0.5786, "res_vec_y": -0.8156 }, "geometry": { "type": "Point", "coordinates": [ 135.505739, 34.6344951 ] } },
{ "type": "Feature", "properties": { "osmid": 1989801670, "y": 3831622.9810579279, "x": 546208.52404798416, "highway": null, "street_count": 3, "ref": null, "railway": "tram_level_crossing", "angle_range": "60-70", "min_angle": 65.2, "residual_angle": 206.89, "res_vec_x": -0.8919, "res_vec_y": -0.4522 }, "geometry": { "type": "Point", "coordinates": [ 135.504097, 34.6254437 ] } },
{ "type": "Feature", "properties": { "osmid": 4419913835, "y": 3833370.5965873087, "x": 546929.16887514794, "highway": null, "street_count": 3, "ref": null, "railway": null, "angle_range": "60-70", "min_angle": 67.1, "residual_angle": 303.73, "res_vec_x": 0.5553, "res_vec_y": -0.8316 }, "geometry": { "type": "Point", "coordinates": [ 135.5120552, 34.6411703 ] } },
{ "type": "Feature", "properties": { "osmid": 4102573434, "y": 3831453.8878866313, "x": 546285.59361840307, "highway": null, "street_count": 4, "ref": null, "railway": null, "angle_range": "60-70", "min_angle": 63.9, "residual_angle": 212.22, "res_vec_x": -0.846, "res_vec_y": -0.5332 }, "geometry": { "type": "Point", "coordinates": [ 135.5049285, 34.6239154 ] } },
{ "type": "Feature", "properties": { "osmid": 7633181133, "y": 3832057.7322958289, "x": 546115.99653235741, "highway": null, "street_count": 3, "ref": null, "railway": null, "angle_range": "60-70", "min_angle": 60.7, "residual_angle": 289.74, "res_vec_x": 0.3378, "res_vec_y": -0.9412 }, "geometry": { "type": "Point", "coordinates": [ 135.5031113, 34.6293683 ] } },
{ "type": "Feature", "properties": { "osmid": 7633181159, "y": 3832055.9226698745, "x": 546374.86692316376, "highway": null, "street_count": 3, "ref": null, "railway": null, "angle_range": "60-70", "min_angle": 61.5, "residual_angle": 136.26, "res_vec_x": -0.7225, "res_vec_y": 0.6914 }, "geometry": { "type": "Point", "coordinates": [ 135.5059353, 34.6293403 ] } }
]
}
