{
"type": "FeatureCollection",
"name": "y_nodes_10_20_with_vector",
"crs": { "type": "name", "properties": { "name": "urn:ogc:def:crs:OGC:1.3:CRS84" } },
"features": [
{ "type": "Feature", "properties": { "osmid": 1831872202, "y": 3831295.4066278259, "x": 547550.01880956185, "highway": null, "street_count": 3, "ref": null, "railway": null, "angle_range": "10-20", "min_angle": 19.7, "residual_angle": 205.41, "res_vec_x": -0.9033, "res_vec_y": -0.429 }, "geometry": { "type": "Point", "coordinates": [ 135.5187127, 34.6224284 ] } },
{ "type": "Feature", "properties": { "osmid": 4583587106, "y": 3833790.3288353942, "x": 548026.84713964281, "highway": null, "street_count": 3, "ref": null, "railway": null, "angle_range": "10-20", "min_angle": 19.9, "residual_angle": 79.96, "res_vec_x": 0.1744, "res_vec_y": 0.9847 }, "geometry": { "type": "Point", "coordinates": [ 135.5240556, 34.6449044 ] } },
{ "type": "Feature", "properties": { "osmid": 7511124026, "y": 3833722.8593820864, "x": 547589.53018630983, "highway": null, "street_count": 3, "ref": null, "railway": null, "angle_range": "10-20", "min_angle": 12.6, "residual_angle": 82.79, "res_vec_x": 0.1255, "res_vec_y": 0.9921 }, "geometry": { "type": "Point", "coordinates": [ 135.5192801, 34.6443164 ] } },
{ "type": "Feature", "properties": { "osmid": 1989801674, "y": 3831638.4447564953, "x": 546094.06227560504, "highway": null, "street_count": 4, "ref": null, "railway": null, "angle_range": "10-20", "min_angle": 13.8, "residual_angle": 246.28, "res_vec_x": -0.4022, "res_vec_y": -0.9155 }, "geometry": { "type": "Point", "coordinates": [ 135.502849200000014, 34.6255883 ] } }
]
}
