{
"type": "FeatureCollection",
"name": "y_nodes_60_70_with_vector",
"crs": { "type": "name", "properties": { "name": "urn:ogc:def:crs:OGC:1.3:CRS84" } },
"features": [
{ "type": "Feature", "properties": { "osmid": 2296008008, "y": 3836072.3462603302, "x": 545758.37160242128, "street_count": 3, "highway": null, "ref": null, "junction": null, "angle_range": "60-70", "min_angle": 62.7, "residual_angle": 330.65, "res_vec_x": 0.8717, "res_vec_y": -0.4901 }, "geometry": { "type": "Point", "coordinates": [ 135.4994269, 34.6655866 ] } },
{ "type": "Feature", "properties": { "osmid": 8319088327, "y": 3837130.7869257242, "x": 546770.78547602671, "street_count": 4, "highway": null, "ref": null, "junction": null, "angle_range": "60-70", "min_angle": 65.2, "residual_angle": 57.21, "res_vec_x": 0.5416, "res_vec_y": 0.8407 }, "geometry": { "type": "Point", "coordinates": [ 135.510535, 34.6750854 ] } },
{ "type": "Feature", "properties": { "osmid": 402302897, "y": 3838960.606443435, "x": 548437.41246268665, "street_count": 3, "highway": null, "ref": null, "junction": null, "angle_range": "60-70", "min_angle": 61.4, "residual_angle": 247.55, "res_vec_x": -0.3818, "res_vec_y": -0.9242 }, "geometry": { "type": "Point", "coordinates": [ 135.5288316, 34.6915083 ] } },
{ "type": "Feature", "properties": { "osmid": 1735970166, "y": 3838832.3102412224, "x": 547752.5493097119, "street_count": 3, "highway": null, "ref": null, "junction": null, "angle_range": "60-70", "min_angle": 68.1, "residual_angle": 152.44, "res_vec_x": -0.8866, "res_vec_y": 0.4626 }, "geometry": { "type": "Point", "coordinates": [ 135.5213474, 34.6903836 ] } },
{ "type": "Feature", "properties": { "osmid": 457811010, "y": 3835908.5248163012, "x": 546305.89177668048, "street_count": 4, "highway": null, "ref": null, "junction": null, "angle_range": "60-70", "min_angle": 66.9, "residual_angle": 49.05, "res_vec_x": 0.6554, "res_vec_y": 0.7553 }, "geometry": { "type": "Point", "coordinates": [ 135.5053936, 34.6640847 ] } },
{ "type": "Feature", "properties": { "osmid": 3978584429, "y": 3837138.6075803689, "x": 548723.32916154212, "street_count": 3, "highway": null, "ref": null, "junction": null, "angle_range": "60-70", "min_angle": 69.6, "residual_angle": 210.79, "res_vec_x": -0.859, "res_vec_y": -0.512 }, "geometry": { "type": "Point", "coordinates": [ 135.531848, 34.6750648 ] } },
{ "type": "Feature", "properties": { "osmid": 1863747032, "y": 3838158.5805347925, "x": 546667.64942404197, "street_count": 4, "highway": "traffic_signals", "ref": null, "junction": null, "angle_range": "60-70", "min_angle": 60.7, "residual_angle": 241.95, "res_vec_x": -0.4703, "res_vec_y": -0.8825 }, "geometry": { "type": "Point", "coordinates": [ 135.509466, 34.6843583 ] } },
{ "type": "Feature", "properties": { "osmid": 1865215778, "y": 3837151.4252711656, "x": 548504.11905835231, "street_count": 4, "highway": null, "ref": null, "junction": null, "angle_range": "60-70", "min_angle": 69.8, "residual_angle": 135.92, "res_vec_x": -0.7184, "res_vec_y": 0.6957 }, "geometry": { "type": "Point", "coordinates": [ 135.529456, 34.6751908 ] } },
{ "type": "Feature", "properties": { "osmid": 3490060569, "y": 3837346.0761436019, "x": 548533.03472443658, "street_count": 3, "highway": null, "ref": null, "junction": null, "angle_range": "60-70", "min_angle": 63.5, "residual_angle": 261.54, "res_vec_x": -0.1471, "res_vec_y": -0.9891 }, "geometry": { "type": "Point", "coordinates": [ 135.5297828, 34.6769447 ] } },
{ "type": "Feature", "properties": { "osmid": 4093052804, "y": 3836133.667722981, "x": 545724.18492785352, "street_count": 4, "highway": null, "ref": null, "junction": null, "angle_range": "60-70", "min_angle": 66.4, "residual_angle": 332.3, "res_vec_x": 0.8854, "res_vec_y": -0.4648 }, "geometry": { "type": "Point", "coordinates": [ 135.499057099999987, 34.6661411 ] } },
{ "type": "Feature", "properties": { "osmid": 11889381091, "y": 3837848.754576413, "x": 546886.91296515905, "street_count": 4, "highway": null, "ref": null, "junction": null, "angle_range": "60-70", "min_angle": 61.6, "residual_angle": 126.62, "res_vec_x": -0.5966, "res_vec_y": 0.8026 }, "geometry": { "type": "Point", "coordinates": [ 135.5118424, 34.68155440000001 ] } }
]
}
