{
"type": "FeatureCollection",
"name": "y_nodes_10_20_with_vector",
"crs": { "type": "name", "properties": { "name": "urn:ogc:def:crs:OGC:1.3:CRS84" } },
"features": [
{ "type": "Feature", "properties": { "osmid": 1831852821, "y": 3837834.187952986, "x": 548329.51557761536, "street_count": 3, "highway": null, "ref": null, "junction": null, "angle_range": "10-20", "min_angle": 12.6, "residual_angle": 0.24, "res_vec_x": 1.0, "res_vec_y": 0.0042 }, "geometry": { "type": "Point", "coordinates": [ 135.5275892, 34.6813559 ] } },
{ "type": "Feature", "properties": { "osmid": 2569737748, "y": 3837882.9220602275, "x": 546939.3950397853, "street_count": 3, "highway": null, "ref": null, "junction": null, "angle_range": "10-20", "min_angle": 13.4, "residual_angle": 184.31, "res_vec_x": -0.9972, "res_vec_y": -0.0751 }, "geometry": { "type": "Point", "coordinates": [ 135.512417199999987, 34.6818601 ] } }
]
}
