{
"type": "FeatureCollection",
"name": "y_nodes_40_50_with_vector",
"crs": { "type": "name", "properties": { "name": "urn:ogc:def:crs:OGC:1.3:CRS84" } },
"features": [
{ "type": "Feature", "properties": { "osmid": 1617251500, "y": 3836824.0793683464, "x": 545608.77100831945, "street_count": 4, "highway": "traffic_signals", "ref": null, "junction": null, "angle_range": "40-50", "min_angle": 47.1, "residual_angle": 117.95, "res_vec_x": -0.4687, "res_vec_y": 0.8834 }, "geometry": { "type": "Point", "coordinates": [ 135.4978347, 34.6723721 ] } },
{ "type": "Feature", "properties": { "osmid": 2290374197, "y": 3835974.1938683502, "x": 546269.99312539271, "street_count": 4, "highway": null, "ref": null, "junction": null, "angle_range": "40-50", "min_angle": 45.5, "residual_angle": 334.55, "res_vec_x": 0.9029, "res_vec_y": -0.4298 }, "geometry": { "type": "Point", "coordinates": [ 135.505005399999988, 34.6646785 ] } },
{ "type": "Feature", "properties": { "osmid": 8371408950, "y": 3837868.6227182001, "x": 545867.13300236966, "street_count": 3, "highway": null, "ref": null, "junction": null, "angle_range": "40-50", "min_angle": 43.0, "residual_angle": 109.39, "res_vec_x": -0.332, "res_vec_y": 0.9433 }, "geometry": { "type": "Point", "coordinates": [ 135.5007114, 34.681779799999987 ] } },
{ "type": "Feature", "properties": { "osmid": 8371408949, "y": 3837868.1567469216, "x": 545840.3219424173, "street_count": 3, "highway": null, "ref": null, "junction": null, "angle_range": "40-50", "min_angle": 41.9, "residual_angle": 67.36, "res_vec_x": 0.3849, "res_vec_y": 0.9229 }, "geometry": { "type": "Point", "coordinates": [ 135.500418700000012, 34.6817768 ] } },
{ "type": "Feature", "properties": { "osmid": 8371364606, "y": 3837898.135924344, "x": 545841.19894360716, "street_count": 3, "highway": null, "ref": null, "junction": null, "angle_range": "40-50", "min_angle": 43.4, "residual_angle": 290.03, "res_vec_x": 0.3425, "res_vec_y": -0.9395 }, "geometry": { "type": "Point", "coordinates": [ 135.5004299, 34.6820471 ] } }
]
}
