{
"type": "FeatureCollection",
"name": "y_nodes_30_40_with_vector",
"crs": { "type": "name", "properties": { "name": "urn:ogc:def:crs:OGC:1.3:CRS84" } },
"features": [
{ "type": "Feature", "properties": { "osmid": 2290374201, "y": 3835976.3470680215, "x": 546201.73936915887, "street_count": 3, "highway": null, "ref": null, "junction": null, "angle_range": "30-40", "min_angle": 35.7, "residual_angle": 196.96, "res_vec_x": -0.9565, "res_vec_y": -0.2918 }, "geometry": { "type": "Point", "coordinates": [ 135.5042606, 34.664701 ] } },
{ "type": "Feature", "properties": { "osmid": 5622968652, "y": 3837883.1318775602, "x": 545854.58399375202, "street_count": 6, "highway": null, "ref": null, "junction": null, "angle_range": "30-40", "min_angle": 39.4, "residual_angle": 68.4, "res_vec_x": 0.3681, "res_vec_y": 0.9298 }, "geometry": { "type": "Point", "coordinates": [ 135.500575199999986, 34.6819112 ] } },
{ "type": "Feature", "properties": { "osmid": 8371364605, "y": 3837898.6473036115, "x": 545868.22038606775, "street_count": 3, "highway": null, "ref": null, "junction": null, "angle_range": "30-40", "min_angle": 39.2, "residual_angle": 248.31, "res_vec_x": -0.3696, "res_vec_y": -0.9292 }, "geometry": { "type": "Point", "coordinates": [ 135.5007249, 34.6820505 ] } }
]
}
