{
"type": "FeatureCollection",
"name": "y_nodes_0_10_with_vector",
"crs": { "type": "name", "properties": { "name": "urn:ogc:def:crs:OGC:1.3:CRS84" } },
"features": [
{ "type": "Feature", "properties": { "osmid": 1862547808, "y": 3840255.8456097613, "x": 546959.52570124099, "highway": "traffic_signals", "street_count": 5, "ref": null, "junction": null, "angle_range": "0-10", "min_angle": 6.8, "residual_angle": 298.8, "res_vec_x": 0.4818, "res_vec_y": -0.8763 }, "geometry": { "type": "Point", "coordinates": [ 135.5127689, 34.7032571 ] } }
]
}
