{
"type": "FeatureCollection",
"name": "y_nodes_60_70_with_vector",
"crs": { "type": "name", "properties": { "name": "urn:ogc:def:crs:OGC:1.3:CRS84" } },
"features": [
{ "type": "Feature", "properties": { "osmid": 564425284, "y": 3841123.0721177207, "x": 545512.70308883814, "highway": "traffic_signals", "street_count": 4, "ref": null, "junction": null, "angle_range": "60-70", "min_angle": 65.7, "residual_angle": 22.57, "res_vec_x": 0.9234, "res_vec_y": 0.3838 }, "geometry": { "type": "Point", "coordinates": [ 135.4970178, 34.7111428 ] } },
{ "type": "Feature", "properties": { "osmid": 258765070, "y": 3839575.1230892781, "x": 545881.9549244938, "highway": null, "street_count": 3, "ref": null, "junction": null, "angle_range": "60-70", "min_angle": 60.4, "residual_angle": 138.02, "res_vec_x": -0.7434, "res_vec_y": 0.6688 }, "geometry": { "type": "Point", "coordinates": [ 135.500965900000011, 34.697167599999986 ] } },
{ "type": "Feature", "properties": { "osmid": 345570623, "y": 3840765.7467613276, "x": 545595.85365877918, "highway": null, "street_count": 3, "ref": null, "junction": null, "angle_range": "60-70", "min_angle": 65.2, "residual_angle": 335.42, "res_vec_x": 0.9094, "res_vec_y": -0.4159 }, "geometry": { "type": "Point", "coordinates": [ 135.4979065, 34.7079169 ] } },
{ "type": "Feature", "properties": { "osmid": 365926462, "y": 3839827.8759236131, "x": 545643.17373167048, "highway": "traffic_signals", "street_count": 3, "ref": null, "junction": null, "angle_range": "60-70", "min_angle": 64.3, "residual_angle": 146.12, "res_vec_x": -0.8302, "res_vec_y": 0.5575 }, "geometry": { "type": "Point", "coordinates": [ 135.498372499999988, 34.6994575 ] } },
{ "type": "Feature", "properties": { "osmid": 1014935960, "y": 3839702.1789594027, "x": 545686.19259085972, "highway": "traffic_signals", "street_count": 4, "ref": null, "junction": null, "angle_range": "60-70", "min_angle": 68.0, "residual_angle": 140.79, "res_vec_x": -0.7749, "res_vec_y": 0.6321 }, "geometry": { "type": "Point", "coordinates": [ 135.4988354, 34.6983221 ] } },
{ "type": "Feature", "properties": { "osmid": 1893377763, "y": 3839851.6507038283, "x": 546110.8474575287, "highway": "traffic_signals", "street_count": 4, "ref": null, "junction": null, "angle_range": "60-70", "min_angle": 66.7, "residual_angle": 150.71, "res_vec_x": -0.8722, "res_vec_y": 0.4892 }, "geometry": { "type": "Point", "coordinates": [ 135.5034801, 34.6996509 ] } },
{ "type": "Feature", "properties": { "osmid": 365926506, "y": 3839903.7474308126, "x": 546083.88926949434, "highway": null, "street_count": 4, "ref": null, "junction": null, "angle_range": "60-70", "min_angle": 67.3, "residual_angle": 331.02, "res_vec_x": 0.8748, "res_vec_y": -0.4845 }, "geometry": { "type": "Point", "coordinates": [ 135.503188599999987, 34.7001219 ] } },
{ "type": "Feature", "properties": { "osmid": 683899875, "y": 3840131.3354310445, "x": 546052.45517929445, "highway": "traffic_signals", "street_count": 4, "ref": null, "junction": null, "angle_range": "60-70", "min_angle": 68.8, "residual_angle": 221.07, "res_vec_x": -0.7539, "res_vec_y": -0.657 }, "geometry": { "type": "Point", "coordinates": [ 135.502857800000015, 34.7021756 ] } },
{ "type": "Feature", "properties": { "osmid": 372159018, "y": 3840917.7801362695, "x": 544915.47467548773, "highway": null, "street_count": 4, "ref": null, "junction": null, "angle_range": "60-70", "min_angle": 65.6, "residual_angle": 243.31, "res_vec_x": -0.4492, "res_vec_y": -0.8935 }, "geometry": { "type": "Point", "coordinates": [ 135.4904851, 34.709318 ] } },
{ "type": "Feature", "properties": { "osmid": 372159087, "y": 3840495.0373739679, "x": 544981.36707481917, "highway": "traffic_signals", "street_count": 3, "ref": null, "junction": null, "angle_range": "60-70", "min_angle": 64.1, "residual_angle": 63.85, "res_vec_x": 0.4407, "res_vec_y": 0.8977 }, "geometry": { "type": "Point", "coordinates": [ 135.4911821, 34.705503 ] } },
{ "type": "Feature", "properties": { "osmid": 1868090584, "y": 3839924.959909047, "x": 544118.63111591153, "highway": null, "street_count": 3, "ref": null, "junction": null, "angle_range": "60-70", "min_angle": 67.8, "residual_angle": 120.3, "res_vec_x": -0.5045, "res_vec_y": 0.8634 }, "geometry": { "type": "Point", "coordinates": [ 135.4817318, 34.7003999 ] } },
{ "type": "Feature", "properties": { "osmid": 413291855, "y": 3840932.8299203981, "x": 547228.92916926718, "highway": "traffic_signals", "street_count": 4, "ref": null, "junction": null, "angle_range": "60-70", "min_angle": 67.1, "residual_angle": 308.58, "res_vec_x": 0.6236, "res_vec_y": -0.7817 }, "geometry": { "type": "Point", "coordinates": [ 135.5157484, 34.7093494 ] } },
{ "type": "Feature", "properties": { "osmid": 1715704353, "y": 3840937.5174203208, "x": 547215.28766953014, "highway": "traffic_signals", "street_count": 4, "ref": null, "junction": null, "angle_range": "60-70", "min_angle": 65.9, "residual_angle": 128.96, "res_vec_x": -0.6288, "res_vec_y": 0.7775 }, "geometry": { "type": "Point", "coordinates": [ 135.5155997, 34.7093923 ] } },
{ "type": "Feature", "properties": { "osmid": 421566021, "y": 3841368.2455818439, "x": 546754.15572040528, "highway": null, "street_count": 3, "ref": null, "junction": null, "angle_range": "60-70", "min_angle": 66.1, "residual_angle": 124.46, "res_vec_x": -0.5658, "res_vec_y": 0.8245 }, "geometry": { "type": "Point", "coordinates": [ 135.5105881, 34.7132976 ] } },
{ "type": "Feature", "properties": { "osmid": 1851478522, "y": 3841489.1012859442, "x": 546469.6075247979, "highway": null, "street_count": 3, "ref": null, "junction": null, "angle_range": "60-70", "min_angle": 60.4, "residual_angle": 282.37, "res_vec_x": 0.2142, "res_vec_y": -0.9768 }, "geometry": { "type": "Point", "coordinates": [ 135.5074874, 34.7144004 ] } },
{ "type": "Feature", "properties": { "osmid": 1864379956, "y": 3841156.4887113613, "x": 545535.93524981674, "highway": null, "street_count": 3, "ref": null, "junction": null, "angle_range": "60-70", "min_angle": 65.5, "residual_angle": 22.54, "res_vec_x": 0.9236, "res_vec_y": 0.3833 }, "geometry": { "type": "Point", "coordinates": [ 135.497273299999989, 34.7114431 ] } },
{ "type": "Feature", "properties": { "osmid": 571361773, "y": 3840136.0054152589, "x": 544393.83880900033, "highway": "traffic_signals", "street_count": 4, "ref": null, "junction": null, "angle_range": "60-70", "min_angle": 61.9, "residual_angle": 56.57, "res_vec_x": 0.551, "res_vec_y": 0.8345 }, "geometry": { "type": "Point", "coordinates": [ 135.4847478, 34.7022911 ] } },
{ "type": "Feature", "properties": { "osmid": 730754950, "y": 3840181.7239209614, "x": 544485.12909150682, "highway": null, "street_count": 4, "ref": null, "junction": null, "angle_range": "60-70", "min_angle": 61.9, "residual_angle": 237.75, "res_vec_x": -0.5337, "res_vec_y": -0.8457 }, "geometry": { "type": "Point", "coordinates": [ 135.485747, 34.7026994 ] } },
{ "type": "Feature", "properties": { "osmid": 2376653631, "y": 3840586.5942949364, "x": 544561.81434006477, "highway": null, "street_count": 3, "ref": null, "junction": null, "angle_range": "60-70", "min_angle": 69.4, "residual_angle": 32.16, "res_vec_x": 0.8465, "res_vec_y": 0.5323 }, "geometry": { "type": "Point", "coordinates": [ 135.486605700000013, 34.706347 ] } },
{ "type": "Feature", "properties": { "osmid": 1868090638, "y": 3840462.4352884362, "x": 544504.20584817685, "highway": "traffic_signals", "street_count": 3, "ref": null, "junction": null, "angle_range": "60-70", "min_angle": 62.2, "residual_angle": 217.5, "res_vec_x": -0.7933, "res_vec_y": -0.6088 }, "geometry": { "type": "Point", "coordinates": [ 135.4859701, 34.7052299 ] } },
{ "type": "Feature", "properties": { "osmid": 730797497, "y": 3840543.0836833175, "x": 544542.10605082277, "highway": null, "street_count": 3, "ref": null, "junction": null, "angle_range": "60-70", "min_angle": 69.4, "residual_angle": 31.38, "res_vec_x": 0.8537, "res_vec_y": 0.5207 }, "geometry": { "type": "Point", "coordinates": [ 135.486388200000022, 34.7059555 ] } },
{ "type": "Feature", "properties": { "osmid": 2389659814, "y": 3840335.130028564, "x": 543915.1320250869, "highway": null, "street_count": 3, "ref": null, "junction": null, "angle_range": "60-70", "min_angle": 61.9, "residual_angle": 301.96, "res_vec_x": 0.5293, "res_vec_y": -0.8484 }, "geometry": { "type": "Point", "coordinates": [ 135.4795312, 34.7041074 ] } },
{ "type": "Feature", "properties": { "osmid": 2367230116, "y": 3840342.759313568, "x": 543891.79719422688, "highway": "traffic_signals", "street_count": 3, "ref": null, "junction": null, "angle_range": "60-70", "min_angle": 65.1, "residual_angle": 183.44, "res_vec_x": -0.9982, "res_vec_y": -0.06 }, "geometry": { "type": "Point", "coordinates": [ 135.4792768, 34.7041772 ] } },
{ "type": "Feature", "properties": { "osmid": 941389551, "y": 3840671.073123361, "x": 545079.18420575361, "highway": null, "street_count": 3, "ref": null, "junction": null, "angle_range": "60-70", "min_angle": 64.0, "residual_angle": 218.59, "res_vec_x": -0.7816, "res_vec_y": -0.6238 }, "geometry": { "type": "Point", "coordinates": [ 135.492259600000011, 34.7070861 ] } },
{ "type": "Feature", "properties": { "osmid": 2007423405, "y": 3839347.672765078, "x": 547520.63277465617, "highway": null, "street_count": 4, "ref": null, "junction": null, "angle_range": "60-70", "min_angle": 64.3, "residual_angle": 207.35, "res_vec_x": -0.8882, "res_vec_y": -0.4594 }, "geometry": { "type": "Point", "coordinates": [ 135.5188445, 34.6950417 ] } },
{ "type": "Feature", "properties": { "osmid": 1015952617, "y": 3839300.034791097, "x": 546488.00190675922, "highway": "traffic_signals", "street_count": 4, "ref": null, "junction": null, "angle_range": "60-70", "min_angle": 64.1, "residual_angle": 274.11, "res_vec_x": 0.0717, "res_vec_y": -0.9974 }, "geometry": { "type": "Point", "coordinates": [ 135.50756770000001, 34.6946596 ] } },
{ "type": "Feature", "properties": { "osmid": 1017959257, "y": 3839999.0108301006, "x": 546407.48983002722, "highway": null, "street_count": 3, "ref": null, "junction": null, "angle_range": "60-70", "min_angle": 68.6, "residual_angle": 329.32, "res_vec_x": 0.86, "res_vec_y": -0.5103 }, "geometry": { "type": "Point", "coordinates": [ 135.5067271, 34.7009663 ] } },
{ "type": "Feature", "properties": { "osmid": 1703928530, "y": 3840526.6332824486, "x": 545863.70118850202, "highway": "traffic_signals", "street_count": 3, "ref": null, "junction": null, "angle_range": "60-70", "min_angle": 68.4, "residual_angle": 153.41, "res_vec_x": -0.8942, "res_vec_y": 0.4476 }, "geometry": { "type": "Point", "coordinates": [ 135.5008183, 34.7057487 ] } },
{ "type": "Feature", "properties": { "osmid": 1852983913, "y": 3840667.169933896, "x": 545925.90751769138, "highway": null, "street_count": 4, "ref": null, "junction": null, "angle_range": "60-70", "min_angle": 67.5, "residual_angle": 224.85, "res_vec_x": -0.7089, "res_vec_y": -0.7053 }, "geometry": { "type": "Point", "coordinates": [ 135.501505200000025, 34.7070132 ] } },
{ "type": "Feature", "properties": { "osmid": 1851478483, "y": 3841278.225202139, "x": 546595.24751624418, "highway": "traffic_signals", "street_count": 4, "ref": null, "junction": null, "angle_range": "60-70", "min_angle": 60.8, "residual_angle": 159.82, "res_vec_x": -0.9386, "res_vec_y": 0.345 }, "geometry": { "type": "Point", "coordinates": [ 135.508847800000012, 34.7124931 ] } },
{ "type": "Feature", "properties": { "osmid": 1851478467, "y": 3841249.182580553, "x": 546443.87676130398, "highway": null, "street_count": 4, "ref": null, "junction": null, "angle_range": "60-70", "min_angle": 61.1, "residual_angle": 220.99, "res_vec_x": -0.7548, "res_vec_y": -0.656 }, "geometry": { "type": "Point", "coordinates": [ 135.507193199999989, 34.7122381 ] } },
{ "type": "Feature", "properties": { "osmid": 1611736779, "y": 3841340.8389138342, "x": 546807.88316215773, "highway": null, "street_count": 3, "ref": null, "junction": null, "angle_range": "60-70", "min_angle": 65.9, "residual_angle": 123.69, "res_vec_x": -0.5547, "res_vec_y": 0.832 }, "geometry": { "type": "Point", "coordinates": [ 135.5111733, 34.713048 ] } },
{ "type": "Feature", "properties": { "osmid": 1611736781, "y": 3841359.7570519722, "x": 546764.08863196243, "highway": null, "street_count": 3, "ref": null, "junction": null, "angle_range": "60-70", "min_angle": 64.8, "residual_angle": 304.2, "res_vec_x": 0.5621, "res_vec_y": -0.8271 }, "geometry": { "type": "Point", "coordinates": [ 135.5106961, 34.7132206 ] } },
{ "type": "Feature", "properties": { "osmid": 1628452253, "y": 3841227.1071199905, "x": 547154.15243127232, "highway": null, "street_count": 4, "ref": null, "junction": null, "angle_range": "60-70", "min_angle": 67.5, "residual_angle": 27.25, "res_vec_x": 0.889, "res_vec_y": 0.4579 }, "geometry": { "type": "Point", "coordinates": [ 135.514948299999986, 34.712006499999987 ] } },
{ "type": "Feature", "properties": { "osmid": 1851478492, "y": 3841391.8647765173, "x": 546703.57041422138, "highway": null, "street_count": 3, "ref": null, "junction": null, "angle_range": "60-70", "min_angle": 68.9, "residual_angle": 128.33, "res_vec_x": -0.6202, "res_vec_y": 0.7844 }, "geometry": { "type": "Point", "coordinates": [ 135.510037, 34.7135129 ] } },
{ "type": "Feature", "properties": { "osmid": 1646422523, "y": 3839519.9861969571, "x": 545029.61300247523, "highway": "traffic_signals", "street_count": 3, "ref": null, "junction": null, "angle_range": "60-70", "min_angle": 67.5, "residual_angle": 197.93, "res_vec_x": -0.9515, "res_vec_y": -0.3078 }, "geometry": { "type": "Point", "coordinates": [ 135.49165690000001, 34.6967083 ] } },
{ "type": "Feature", "properties": { "osmid": 1646422525, "y": 3839529.6320485747, "x": 545038.28528752748, "highway": "traffic_signals", "street_count": 4, "ref": null, "junction": null, "angle_range": "60-70", "min_angle": 63.8, "residual_angle": 73.01, "res_vec_x": 0.2923, "res_vec_y": 0.9563 }, "geometry": { "type": "Point", "coordinates": [ 135.491752100000014, 34.6967949 ] } },
{ "type": "Feature", "properties": { "osmid": 1666930360, "y": 3839942.2731194361, "x": 545984.12384828238, "highway": null, "street_count": 3, "ref": null, "junction": null, "angle_range": "60-70", "min_angle": 67.3, "residual_angle": 304.15, "res_vec_x": 0.5613, "res_vec_y": -0.8276 }, "geometry": { "type": "Point", "coordinates": [ 135.502101399999987, 34.7004738 ] } },
{ "type": "Feature", "properties": { "osmid": 1671576346, "y": 3839993.6734578004, "x": 545955.32007488224, "highway": "traffic_signals", "street_count": 3, "ref": null, "junction": null, "angle_range": "60-70", "min_angle": 64.8, "residual_angle": 58.21, "res_vec_x": 0.5269, "res_vec_y": 0.8499 }, "geometry": { "type": "Point", "coordinates": [ 135.501789699999989, 34.7009386 ] } },
{ "type": "Feature", "properties": { "osmid": 1893377765, "y": 3839857.0104538421, "x": 546166.93620291131, "highway": "traffic_signals", "street_count": 4, "ref": null, "junction": null, "angle_range": "60-70", "min_angle": 63.5, "residual_angle": 333.23, "res_vec_x": 0.8928, "res_vec_y": -0.4505 }, "geometry": { "type": "Point", "coordinates": [ 135.5040928, 34.6996967 ] } },
{ "type": "Feature", "properties": { "osmid": 1862547845, "y": 3840430.76346529, "x": 546899.09709641326, "highway": null, "street_count": 3, "ref": null, "junction": null, "angle_range": "60-70", "min_angle": 68.2, "residual_angle": 179.5, "res_vec_x": -1.0, "res_vec_y": 0.0088 }, "geometry": { "type": "Point", "coordinates": [ 135.5121188, 34.7048372 ] } },
{ "type": "Feature", "properties": { "osmid": 1893377918, "y": 3840006.1336641777, "x": 545981.12178325176, "highway": "traffic_signals", "street_count": 4, "ref": null, "junction": null, "angle_range": "60-70", "min_angle": 65.3, "residual_angle": 238.44, "res_vec_x": -0.5233, "res_vec_y": -0.8521 }, "geometry": { "type": "Point", "coordinates": [ 135.5020721, 34.7010498 ] } },
{ "type": "Feature", "properties": { "osmid": 1703928527, "y": 3840524.3991179815, "x": 545842.60296961921, "highway": null, "street_count": 4, "ref": null, "junction": null, "angle_range": "60-70", "min_angle": 69.8, "residual_angle": 328.09, "res_vec_x": 0.8489, "res_vec_y": -0.5285 }, "geometry": { "type": "Point", "coordinates": [ 135.5005878, 34.7057295 ] } },
{ "type": "Feature", "properties": { "osmid": 2005577435, "y": 3840294.3223171071, "x": 546936.98335976002, "highway": null, "street_count": 4, "ref": null, "junction": null, "angle_range": "60-70", "min_angle": 66.4, "residual_angle": 154.1, "res_vec_x": -0.8996, "res_vec_y": 0.4368 }, "geometry": { "type": "Point", "coordinates": [ 135.512524899999988, 34.7036051 ] } },
{ "type": "Feature", "properties": { "osmid": 1712327460, "y": 3840553.8892256361, "x": 546107.73713739752, "highway": null, "street_count": 4, "ref": null, "junction": null, "angle_range": "60-70", "min_angle": 67.5, "residual_angle": 248.85, "res_vec_x": -0.3608, "res_vec_y": -0.9327 }, "geometry": { "type": "Point", "coordinates": [ 135.503484500000013, 34.7059835 ] } },
{ "type": "Feature", "properties": { "osmid": 1715694555, "y": 3840942.7076242738, "x": 547228.32907824183, "highway": "traffic_signals", "street_count": 4, "ref": null, "junction": null, "angle_range": "60-70", "min_angle": 65.8, "residual_angle": 306.41, "res_vec_x": 0.5935, "res_vec_y": -0.8048 }, "geometry": { "type": "Point", "coordinates": [ 135.5157424, 34.7094385 ] } },
{ "type": "Feature", "properties": { "osmid": 1715704354, "y": 3840947.8029871192, "x": 547214.20930446067, "highway": "traffic_signals", "street_count": 4, "ref": null, "junction": null, "angle_range": "60-70", "min_angle": 64.2, "residual_angle": 308.07, "res_vec_x": 0.6166, "res_vec_y": -0.7872 }, "geometry": { "type": "Point", "coordinates": [ 135.5155885, 34.7094851 ] } },
{ "type": "Feature", "properties": { "osmid": 1715694561, "y": 3840997.4253100464, "x": 547083.52303798147, "highway": "traffic_signals", "street_count": 3, "ref": null, "junction": null, "angle_range": "60-70", "min_angle": 67.1, "residual_angle": 128.78, "res_vec_x": -0.6263, "res_vec_y": 0.7795 }, "geometry": { "type": "Point", "coordinates": [ 135.51416420000001, 34.7099386 ] } },
{ "type": "Feature", "properties": { "osmid": 1715694570, "y": 3841076.5653259521, "x": 546871.36886027397, "highway": null, "street_count": 3, "ref": null, "junction": null, "angle_range": "60-70", "min_angle": 66.3, "residual_angle": 125.44, "res_vec_x": -0.5799, "res_vec_y": 0.8147 }, "geometry": { "type": "Point", "coordinates": [ 135.511851900000011, 34.710662 ] } },
{ "type": "Feature", "properties": { "osmid": 1737248388, "y": 3841569.8365740813, "x": 546894.83790927555, "highway": null, "street_count": 3, "ref": null, "junction": null, "angle_range": "60-70", "min_angle": 67.5, "residual_angle": 226.36, "res_vec_x": -0.6902, "res_vec_y": -0.7237 }, "geometry": { "type": "Point", "coordinates": [ 135.5121356, 34.715109 ] } },
{ "type": "Feature", "properties": { "osmid": 1918598926, "y": 3841613.4189156587, "x": 547066.70364694193, "highway": null, "street_count": 3, "ref": null, "junction": null, "angle_range": "60-70", "min_angle": 67.5, "residual_angle": 338.72, "res_vec_x": 0.9318, "res_vec_y": -0.363 }, "geometry": { "type": "Point", "coordinates": [ 135.5140149, 34.7154941 ] } },
{ "type": "Feature", "properties": { "osmid": 1715696363, "y": 3841664.7512794058, "x": 547209.50967557239, "highway": "traffic_signals", "street_count": 4, "ref": null, "junction": null, "angle_range": "60-70", "min_angle": 66.0, "residual_angle": 45.8, "res_vec_x": 0.6972, "res_vec_y": 0.7169 }, "geometry": { "type": "Point", "coordinates": [ 135.5155773, 34.7159504 ] } },
{ "type": "Feature", "properties": { "osmid": 1738907581, "y": 3841673.8650882957, "x": 547211.32182922191, "highway": "traffic_signals", "street_count": 4, "ref": null, "junction": null, "angle_range": "60-70", "min_angle": 61.2, "residual_angle": 228.19, "res_vec_x": -0.6667, "res_vec_y": -0.7453 }, "geometry": { "type": "Point", "coordinates": [ 135.5155976, 34.7160325 ] } },
{ "type": "Feature", "properties": { "osmid": 1715704334, "y": 3840046.9414435569, "x": 547459.69535122253, "highway": "traffic_signals", "street_count": 4, "ref": null, "junction": null, "angle_range": "60-70", "min_angle": 61.8, "residual_angle": 149.47, "res_vec_x": -0.8613, "res_vec_y": 0.508 }, "geometry": { "type": "Point", "coordinates": [ 135.518218499999989, 34.7013502 ] } },
{ "type": "Feature", "properties": { "osmid": 1867168860, "y": 3840175.9995113583, "x": 547336.41756724531, "highway": "traffic_signals", "street_count": 4, "ref": null, "junction": null, "angle_range": "60-70", "min_angle": 62.4, "residual_angle": 324.87, "res_vec_x": 0.8178, "res_vec_y": -0.5755 }, "geometry": { "type": "Point", "coordinates": [ 135.5168797, 34.702519700000011 ] } },
{ "type": "Feature", "properties": { "osmid": 11868422959, "y": 3840544.8355375351, "x": 547260.44345853757, "highway": "traffic_signals", "street_count": 3, "ref": null, "junction": null, "angle_range": "60-70", "min_angle": 68.9, "residual_angle": 111.17, "res_vec_x": -0.3611, "res_vec_y": 0.9325 }, "geometry": { "type": "Point", "coordinates": [ 135.5160708, 34.70584920000001 ] } },
{ "type": "Feature", "properties": { "osmid": 1739298514, "y": 3840984.1123677534, "x": 547088.95744047372, "highway": "traffic_signals", "street_count": 3, "ref": null, "junction": null, "angle_range": "60-70", "min_angle": 69.1, "residual_angle": 304.85, "res_vec_x": 0.5715, "res_vec_y": -0.8206 }, "geometry": { "type": "Point", "coordinates": [ 135.5142228, 34.7098183 ] } },
{ "type": "Feature", "properties": { "osmid": 1852586685, "y": 3840810.8039144883, "x": 546444.15424971224, "highway": null, "street_count": 3, "ref": null, "junction": null, "angle_range": "60-70", "min_angle": 63.5, "residual_angle": 11.15, "res_vec_x": 0.9811, "res_vec_y": 0.1934 }, "geometry": { "type": "Point", "coordinates": [ 135.5071721, 34.708285 ] } },
{ "type": "Feature", "properties": { "osmid": 1865061691, "y": 3840573.4558002031, "x": 546276.80622695829, "highway": null, "street_count": 3, "ref": null, "junction": null, "angle_range": "60-70", "min_angle": 67.7, "residual_angle": 41.83, "res_vec_x": 0.7451, "res_vec_y": 0.667 }, "geometry": { "type": "Point", "coordinates": [ 135.5053317, 34.7061523 ] } },
{ "type": "Feature", "properties": { "osmid": 1851478486, "y": 3841305.7238459652, "x": 546891.8326268103, "highway": null, "street_count": 4, "ref": null, "junction": null, "angle_range": "60-70", "min_angle": 61.3, "residual_angle": 287.05, "res_vec_x": 0.2932, "res_vec_y": -0.956 }, "geometry": { "type": "Point", "coordinates": [ 135.5120881, 34.7127275 ] } },
{ "type": "Feature", "properties": { "osmid": 1738907591, "y": 3841521.311923157, "x": 546292.51186285191, "highway": "traffic_signals", "street_count": 4, "ref": null, "junction": null, "angle_range": "60-70", "min_angle": 66.1, "residual_angle": 46.75, "res_vec_x": 0.6852, "res_vec_y": 0.7284 }, "geometry": { "type": "Point", "coordinates": [ 135.5055552, 34.7146989 ] } },
{ "type": "Feature", "properties": { "osmid": 1862636081, "y": 3841511.9348336998, "x": 546291.23120520171, "highway": "traffic_signals", "street_count": 4, "ref": null, "junction": null, "angle_range": "60-70", "min_angle": 68.4, "residual_angle": 228.57, "res_vec_x": -0.6617, "res_vec_y": -0.7497 }, "geometry": { "type": "Point", "coordinates": [ 135.505540700000012, 34.714614400000016 ] } },
{ "type": "Feature", "properties": { "osmid": 1852431491, "y": 3841455.5737732695, "x": 545878.08769574168, "highway": null, "street_count": 4, "ref": null, "junction": null, "angle_range": "60-70", "min_angle": 63.6, "residual_angle": 347.58, "res_vec_x": 0.9766, "res_vec_y": -0.2151 }, "geometry": { "type": "Point", "coordinates": [ 135.5010259, 34.7141248 ] } },
{ "type": "Feature", "properties": { "osmid": 1972321945, "y": 3841618.1842313679, "x": 546841.98483789433, "highway": null, "street_count": 3, "ref": null, "junction": null, "angle_range": "60-70", "min_angle": 66.4, "residual_angle": 27.74, "res_vec_x": 0.8851, "res_vec_y": 0.4655 }, "geometry": { "type": "Point", "coordinates": [ 135.5115611, 34.7155474 ] } },
{ "type": "Feature", "properties": { "osmid": 1918598888, "y": 3841585.6268627932, "x": 546879.34624502331, "highway": null, "street_count": 3, "ref": null, "junction": null, "angle_range": "60-70", "min_angle": 66.6, "residual_angle": 46.3, "res_vec_x": 0.6908, "res_vec_y": 0.723 }, "geometry": { "type": "Point", "coordinates": [ 135.5119673, 34.7152521 ] } },
{ "type": "Feature", "properties": { "osmid": 1740936062, "y": 3841590.0946516371, "x": 546898.69977672771, "highway": null, "street_count": 3, "ref": null, "junction": null, "angle_range": "60-70", "min_angle": 68.0, "residual_angle": 46.79, "res_vec_x": 0.6846, "res_vec_y": 0.7289 }, "geometry": { "type": "Point", "coordinates": [ 135.5121789, 34.7152915 ] } },
{ "type": "Feature", "properties": { "osmid": 1740955747, "y": 3841003.5014733975, "x": 546005.46820695372, "highway": null, "street_count": 4, "ref": null, "junction": null, "angle_range": "60-70", "min_angle": 66.3, "residual_angle": 228.45, "res_vec_x": -0.6632, "res_vec_y": -0.7484 }, "geometry": { "type": "Point", "coordinates": [ 135.5023923, 34.7100425 ] } },
{ "type": "Feature", "properties": { "osmid": 1862796238, "y": 3841014.8063398032, "x": 545294.63758922333, "highway": null, "street_count": 3, "ref": null, "junction": null, "angle_range": "60-70", "min_angle": 63.6, "residual_angle": 90.19, "res_vec_x": -0.0032, "res_vec_y": 1.0 }, "geometry": { "type": "Point", "coordinates": [ 135.494630699999988, 34.7101762 ] } },
{ "type": "Feature", "properties": { "osmid": 1862547848, "y": 3840460.977327161, "x": 546226.47930435475, "highway": null, "street_count": 3, "ref": null, "junction": null, "angle_range": "60-70", "min_angle": 68.5, "residual_angle": 306.26, "res_vec_x": 0.5914, "res_vec_y": -0.8063 }, "geometry": { "type": "Point", "coordinates": [ 135.504776, 34.705140299999989 ] } },
{ "type": "Feature", "properties": { "osmid": 1854481350, "y": 3840505.4669124996, "x": 545694.7483453583, "highway": "traffic_signals", "street_count": 4, "ref": null, "junction": null, "angle_range": "60-70", "min_angle": 63.9, "residual_angle": 138.24, "res_vec_x": -0.7459, "res_vec_y": 0.666 }, "geometry": { "type": "Point", "coordinates": [ 135.4989723, 34.7055654 ] } },
{ "type": "Feature", "properties": { "osmid": 1854423138, "y": 3840570.1055202819, "x": 545810.46906228503, "highway": null, "street_count": 3, "ref": null, "junction": null, "angle_range": "60-70", "min_angle": 61.8, "residual_angle": 120.26, "res_vec_x": -0.5039, "res_vec_y": 0.8638 }, "geometry": { "type": "Point", "coordinates": [ 135.5002394, 34.7061431 ] } },
{ "type": "Feature", "properties": { "osmid": 1843842685, "y": 3839650.2035715817, "x": 545623.71152998973, "highway": null, "street_count": 4, "ref": null, "junction": null, "angle_range": "60-70", "min_angle": 62.4, "residual_angle": 195.75, "res_vec_x": -0.9625, "res_vec_y": -0.2714 }, "geometry": { "type": "Point", "coordinates": [ 135.498150399999986, 34.6978562 ] } },
{ "type": "Feature", "properties": { "osmid": 1843846820, "y": 3839626.4537064307, "x": 545783.28645480203, "highway": null, "street_count": 4, "ref": null, "junction": null, "angle_range": "60-70", "min_angle": 62.1, "residual_angle": 133.11, "res_vec_x": -0.6834, "res_vec_y": 0.73 }, "geometry": { "type": "Point", "coordinates": [ 135.4998914, 34.6976349 ] } },
{ "type": "Feature", "properties": { "osmid": 2330186221, "y": 3841410.7149639963, "x": 545134.6384755196, "highway": null, "street_count": 3, "ref": null, "junction": null, "angle_range": "60-70", "min_angle": 66.9, "residual_angle": 246.97, "res_vec_x": -0.3912, "res_vec_y": -0.9203 }, "geometry": { "type": "Point", "coordinates": [ 135.492904700000025, 34.7137534 ] } },
{ "type": "Feature", "properties": { "osmid": 1851607770, "y": 3841524.5614835736, "x": 545299.89670631452, "highway": null, "street_count": 3, "ref": null, "junction": null, "angle_range": "60-70", "min_angle": 68.2, "residual_angle": 247.31, "res_vec_x": -0.3857, "res_vec_y": -0.9226 }, "geometry": { "type": "Point", "coordinates": [ 135.494715500000041, 34.7147727 ] } },
{ "type": "Feature", "properties": { "osmid": 1852350454, "y": 3841397.3821599265, "x": 546274.00520995155, "highway": null, "street_count": 3, "ref": null, "junction": null, "angle_range": "60-70", "min_angle": 65.4, "residual_angle": 114.47, "res_vec_x": -0.4143, "res_vec_y": 0.9101 }, "geometry": { "type": "Point", "coordinates": [ 135.505346300000014, 34.7135822 ] } },
{ "type": "Feature", "properties": { "osmid": 1852350423, "y": 3841233.3265216355, "x": 545897.69232601975, "highway": null, "street_count": 4, "ref": null, "junction": null, "angle_range": "60-70", "min_angle": 63.5, "residual_angle": 53.75, "res_vec_x": 0.5914, "res_vec_y": 0.8064 }, "geometry": { "type": "Point", "coordinates": [ 135.5012279, 34.7121198 ] } },
{ "type": "Feature", "properties": { "osmid": 1972321918, "y": 3841578.7766727023, "x": 545819.81240554771, "highway": null, "street_count": 3, "ref": null, "junction": null, "angle_range": "60-70", "min_angle": 62.8, "residual_angle": 67.08, "res_vec_x": 0.3894, "res_vec_y": 0.9211 }, "geometry": { "type": "Point", "coordinates": [ 135.500396200000012, 34.7152384 ] } },
{ "type": "Feature", "properties": { "osmid": 2450177895, "y": 3841420.5854655695, "x": 545784.29102521646, "highway": null, "street_count": 4, "ref": null, "junction": null, "angle_range": "60-70", "min_angle": 65.4, "residual_angle": 57.78, "res_vec_x": 0.5331, "res_vec_y": 0.846 }, "geometry": { "type": "Point", "coordinates": [ 135.499999699999989, 34.7138135 ] } },
{ "type": "Feature", "properties": { "osmid": 1864381032, "y": 3841383.3614156768, "x": 545630.76313040161, "highway": null, "street_count": 3, "ref": null, "junction": null, "angle_range": "60-70", "min_angle": 64.4, "residual_angle": 45.42, "res_vec_x": 0.702, "res_vec_y": 0.7122 }, "geometry": { "type": "Point", "coordinates": [ 135.4983211, 34.7134847 ] } },
{ "type": "Feature", "properties": { "osmid": 3512355791, "y": 3840594.3158378452, "x": 545582.75430111587, "highway": null, "street_count": 3, "ref": null, "junction": null, "angle_range": "60-70", "min_angle": 68.2, "residual_angle": 44.78, "res_vec_x": 0.7098, "res_vec_y": 0.7044 }, "geometry": { "type": "Point", "coordinates": [ 135.4977542, 34.7063716 ] } },
{ "type": "Feature", "properties": { "osmid": 1862796262, "y": 3841503.5782882008, "x": 545712.5997862427, "highway": null, "street_count": 3, "ref": null, "junction": null, "angle_range": "60-70", "min_angle": 62.7, "residual_angle": 60.47, "res_vec_x": 0.4929, "res_vec_y": 0.8701 }, "geometry": { "type": "Point", "coordinates": [ 135.499221299999988, 34.7145651 ] } },
{ "type": "Feature", "properties": { "osmid": 1865061663, "y": 3840413.1560279913, "x": 546927.9525968266, "highway": null, "street_count": 3, "ref": null, "junction": null, "angle_range": "60-70", "min_angle": 68.8, "residual_angle": 289.33, "res_vec_x": 0.3311, "res_vec_y": -0.9436 }, "geometry": { "type": "Point", "coordinates": [ 135.5124329, 34.7046771 ] } },
{ "type": "Feature", "properties": { "osmid": 1985361155, "y": 3840210.1134467009, "x": 546855.14233885251, "highway": null, "street_count": 4, "ref": null, "junction": null, "angle_range": "60-70", "min_angle": 63.0, "residual_angle": 33.91, "res_vec_x": 0.8299, "res_vec_y": 0.558 }, "geometry": { "type": "Point", "coordinates": [ 135.5116266, 34.7028495 ] } },
{ "type": "Feature", "properties": { "osmid": 1867168820, "y": 3840050.0383418435, "x": 547384.82642946357, "highway": null, "street_count": 4, "ref": null, "junction": null, "angle_range": "60-70", "min_angle": 68.7, "residual_angle": 145.85, "res_vec_x": -0.8276, "res_vec_y": 0.5613 }, "geometry": { "type": "Point", "coordinates": [ 135.5174012, 34.7013816 ] } },
{ "type": "Feature", "properties": { "osmid": 2372875015, "y": 3840762.8433965403, "x": 544245.04546221823, "highway": null, "street_count": 3, "ref": null, "junction": null, "angle_range": "60-70", "min_angle": 63.1, "residual_angle": 245.57, "res_vec_x": -0.4137, "res_vec_y": -0.9104 }, "geometry": { "type": "Point", "coordinates": [ 135.483156, 34.7079501 ] } },
{ "type": "Feature", "properties": { "osmid": 1894524880, "y": 3840903.9309575511, "x": 545070.23354390566, "highway": null, "street_count": 3, "ref": null, "junction": null, "angle_range": "60-70", "min_angle": 65.6, "residual_angle": 247.0, "res_vec_x": -0.3908, "res_vec_y": -0.9205 }, "geometry": { "type": "Point", "coordinates": [ 135.492174299999988, 34.7091863 ] } },
{ "type": "Feature", "properties": { "osmid": 1868090689, "y": 3840992.7118525086, "x": 544556.88332957705, "highway": null, "street_count": 3, "ref": null, "junction": null, "angle_range": "60-70", "min_angle": 63.8, "residual_angle": 248.3, "res_vec_x": -0.3697, "res_vec_y": -0.9292 }, "geometry": { "type": "Point", "coordinates": [ 135.4865733, 34.7100094 ] } },
{ "type": "Feature", "properties": { "osmid": 2316550744, "y": 3841076.6491493508, "x": 544669.29770416545, "highway": null, "street_count": 3, "ref": null, "junction": null, "angle_range": "60-70", "min_angle": 61.2, "residual_angle": 247.34, "res_vec_x": -0.3853, "res_vec_y": -0.9228 }, "geometry": { "type": "Point", "coordinates": [ 135.4878053, 34.7107614 ] } },
{ "type": "Feature", "properties": { "osmid": 2316550746, "y": 3841095.7786307107, "x": 544867.87637556356, "highway": null, "street_count": 3, "ref": null, "junction": null, "angle_range": "60-70", "min_angle": 65.4, "residual_angle": 172.82, "res_vec_x": -0.9922, "res_vec_y": 0.1249 }, "geometry": { "type": "Point", "coordinates": [ 135.4899748, 34.7109252 ] } },
{ "type": "Feature", "properties": { "osmid": 2371386558, "y": 3841106.4410356558, "x": 544709.29958351108, "highway": null, "street_count": 3, "ref": null, "junction": null, "angle_range": "60-70", "min_angle": 68.2, "residual_angle": 250.8, "res_vec_x": -0.3289, "res_vec_y": -0.9444 }, "geometry": { "type": "Point", "coordinates": [ 135.4882437, 34.7110283 ] } },
{ "type": "Feature", "properties": { "osmid": 1868090718, "y": 3841227.4345663902, "x": 544870.44030515139, "highway": null, "street_count": 3, "ref": null, "junction": null, "angle_range": "60-70", "min_angle": 65.2, "residual_angle": 241.85, "res_vec_x": -0.4717, "res_vec_y": -0.8818 }, "geometry": { "type": "Point", "coordinates": [ 135.4900098, 34.7121123 ] } },
{ "type": "Feature", "properties": { "osmid": 1868090724, "y": 3841268.4694067095, "x": 544930.35816656088, "highway": null, "street_count": 3, "ref": null, "junction": null, "angle_range": "60-70", "min_angle": 66.0, "residual_angle": 247.41, "res_vec_x": -0.3841, "res_vec_y": -0.9233 }, "geometry": { "type": "Point", "coordinates": [ 135.490666299999987, 34.7124797 ] } },
{ "type": "Feature", "properties": { "osmid": 1868090732, "y": 3841338.0840364271, "x": 545029.21902663028, "highway": null, "street_count": 3, "ref": null, "junction": null, "angle_range": "60-70", "min_angle": 62.8, "residual_angle": 246.81, "res_vec_x": -0.3937, "res_vec_y": -0.9192 }, "geometry": { "type": "Point", "coordinates": [ 135.4917496, 34.7131031 ] } },
{ "type": "Feature", "properties": { "osmid": 1906477113, "y": 3840000.6140333489, "x": 546333.80085958878, "highway": "traffic_signals", "street_count": 4, "ref": null, "junction": null, "angle_range": "60-70", "min_angle": 69.0, "residual_angle": 130.87, "res_vec_x": -0.6544, "res_vec_y": 0.7562 }, "geometry": { "type": "Point", "coordinates": [ 135.5059226, 34.7009841 ] } },
{ "type": "Feature", "properties": { "osmid": 1958418794, "y": 3840781.163878866, "x": 544889.46397611313, "highway": null, "street_count": 3, "ref": null, "junction": null, "angle_range": "60-70", "min_angle": 67.9, "residual_angle": 237.02, "res_vec_x": -0.5443, "res_vec_y": -0.8389 }, "geometry": { "type": "Point", "coordinates": [ 135.490193799999986, 34.7080872 ] } },
{ "type": "Feature", "properties": { "osmid": 2349293741, "y": 3841397.029098352, "x": 545113.97366452962, "highway": null, "street_count": 3, "ref": null, "junction": null, "angle_range": "60-70", "min_angle": 68.5, "residual_angle": 247.45, "res_vec_x": -0.3835, "res_vec_y": -0.9235 }, "geometry": { "type": "Point", "coordinates": [ 135.4926783, 34.7136309 ] } },
{ "type": "Feature", "properties": { "osmid": 11868422958, "y": 3840547.5762826176, "x": 547256.4364841379, "highway": null, "street_count": 3, "ref": null, "junction": null, "angle_range": "60-70", "min_angle": 68.0, "residual_angle": 137.01, "res_vec_x": -0.7315, "res_vec_y": 0.6818 }, "geometry": { "type": "Point", "coordinates": [ 135.5160272, 34.7058741 ] } }
]
}
