{
"type": "FeatureCollection",
"name": "y_nodes_20_30_with_vector",
"crs": { "type": "name", "properties": { "name": "urn:ogc:def:crs:OGC:1.3:CRS84" } },
"features": [
{ "type": "Feature", "properties": { "osmid": 1015952756, "y": 3840097.0320023582, "x": 545634.81632920634, "highway": "traffic_signals", "street_count": 4, "ref": null, "junction": null, "angle_range": "20-30", "min_angle": 25.3, "residual_angle": 337.16, "res_vec_x": 0.9216, "res_vec_y": -0.3881 }, "geometry": { "type": "Point", "coordinates": [ 135.4982958, 34.701885 ] } },
{ "type": "Feature", "properties": { "osmid": 564425267, "y": 3840468.0948196389, "x": 545524.36375780986, "highway": "traffic_signals", "street_count": 6, "ref": null, "junction": null, "angle_range": "20-30", "min_angle": 22.7, "residual_angle": 214.86, "res_vec_x": -0.8205, "res_vec_y": -0.5716 }, "geometry": { "type": "Point", "coordinates": [ 135.4971098, 34.705236 ] } },
{ "type": "Feature", "properties": { "osmid": 258765072, "y": 3839462.4844220388, "x": 545912.59410109255, "highway": "traffic_signals", "street_count": 5, "ref": null, "junction": null, "angle_range": "20-30", "min_angle": 21.7, "residual_angle": 84.04, "res_vec_x": 0.1039, "res_vec_y": 0.9946 }, "geometry": { "type": "Point", "coordinates": [ 135.501294300000012, 34.6961505 ] } },
{ "type": "Feature", "properties": { "osmid": 1688075141, "y": 3840820.9528448945, "x": 544964.49190666259, "highway": null, "street_count": 3, "ref": null, "junction": null, "angle_range": "20-30", "min_angle": 24.0, "residual_angle": 9.71, "res_vec_x": 0.9857, "res_vec_y": 0.1687 }, "geometry": { "type": "Point", "coordinates": [ 135.4910152, 34.7084427 ] } },
{ "type": "Feature", "properties": { "osmid": 1674096210, "y": 3840856.5261040838, "x": 545391.5900876323, "highway": null, "street_count": 3, "ref": null, "junction": null, "angle_range": "20-30", "min_angle": 29.9, "residual_angle": 334.16, "res_vec_x": 0.9, "res_vec_y": -0.4359 }, "geometry": { "type": "Point", "coordinates": [ 135.4956809, 34.7087446 ] } },
{ "type": "Feature", "properties": { "osmid": 12161110013, "y": 3839714.6899811416, "x": 545453.32144436287, "highway": null, "street_count": 3, "ref": null, "junction": null, "angle_range": "20-30", "min_angle": 21.3, "residual_angle": 345.65, "res_vec_x": 0.9688, "res_vec_y": -0.2479 }, "geometry": { "type": "Point", "coordinates": [ 135.4962935, 34.6984453 ] } },
{ "type": "Feature", "properties": { "osmid": 1843870150, "y": 3839831.8886853294, "x": 545393.57804542559, "highway": "traffic_signals", "street_count": 5, "ref": null, "junction": null, "angle_range": "20-30", "min_angle": 20.3, "residual_angle": 351.76, "res_vec_x": 0.9897, "res_vec_y": -0.1433 }, "geometry": { "type": "Point", "coordinates": [ 135.4956475, 34.6995048 ] } },
{ "type": "Feature", "properties": { "osmid": 1956775910, "y": 3839612.6313556344, "x": 546802.52050216857, "highway": "traffic_signals", "street_count": 5, "ref": null, "junction": null, "angle_range": "20-30", "min_angle": 28.0, "residual_angle": 277.61, "res_vec_x": 0.1324, "res_vec_y": -0.9912 }, "geometry": { "type": "Point", "coordinates": [ 135.51101890000001, 34.6974641 ] } },
{ "type": "Feature", "properties": { "osmid": 1666901782, "y": 3839841.0616090032, "x": 546633.53555382718, "highway": "traffic_signals", "street_count": 4, "ref": null, "junction": null, "angle_range": "20-30", "min_angle": 26.8, "residual_angle": 285.69, "res_vec_x": 0.2704, "res_vec_y": -0.9627 }, "geometry": { "type": "Point", "coordinates": [ 135.5091865, 34.6995317 ] } },
{ "type": "Feature", "properties": { "osmid": 1715696360, "y": 3841583.4335379791, "x": 546936.44235283858, "highway": "traffic_signals", "street_count": 5, "ref": null, "junction": null, "angle_range": "20-30", "min_angle": 26.7, "residual_angle": 196.83, "res_vec_x": -0.9572, "res_vec_y": -0.2896 }, "geometry": { "type": "Point", "coordinates": [ 135.5125907, 34.7152297 ] } },
{ "type": "Feature", "properties": { "osmid": 1843836205, "y": 3839606.4292568956, "x": 545598.22811101156, "highway": null, "street_count": 3, "ref": null, "junction": null, "angle_range": "20-30", "min_angle": 20.8, "residual_angle": 354.18, "res_vec_x": 0.9948, "res_vec_y": -0.1014 }, "geometry": { "type": "Point", "coordinates": [ 135.497869799999989, 34.6974626 ] } },
{ "type": "Feature", "properties": { "osmid": 12161110014, "y": 3839687.7810182562, "x": 545607.04869976779, "highway": null, "street_count": 3, "ref": null, "junction": null, "angle_range": "20-30", "min_angle": 25.5, "residual_angle": 8.25, "res_vec_x": 0.9897, "res_vec_y": 0.1435 }, "geometry": { "type": "Point", "coordinates": [ 135.4979705, 34.6981958 ] } },
{ "type": "Feature", "properties": { "osmid": 6322066626, "y": 3841339.1601019683, "x": 545662.40058579168, "highway": null, "street_count": 3, "ref": null, "junction": null, "angle_range": "20-30", "min_angle": 29.1, "residual_angle": 220.85, "res_vec_x": -0.7564, "res_vec_y": -0.6541 }, "geometry": { "type": "Point", "coordinates": [ 135.4986642, 34.7130847 ] } },
{ "type": "Feature", "properties": { "osmid": 1852586689, "y": 3840890.2531719916, "x": 545960.59313169459, "highway": null, "street_count": 3, "ref": null, "junction": null, "angle_range": "20-30", "min_angle": 27.6, "residual_angle": 93.68, "res_vec_x": -0.0641, "res_vec_y": 0.9979 }, "geometry": { "type": "Point", "coordinates": [ 135.50189610000001, 34.7090233 ] } },
{ "type": "Feature", "properties": { "osmid": 2293214786, "y": 3840742.2300760751, "x": 545220.88326164009, "highway": null, "street_count": 3, "ref": null, "junction": null, "angle_range": "20-30", "min_angle": 28.6, "residual_angle": 187.51, "res_vec_x": -0.9914, "res_vec_y": -0.1307 }, "geometry": { "type": "Point", "coordinates": [ 135.493810700000012, 34.7077215 ] } },
{ "type": "Feature", "properties": { "osmid": 2371386492, "y": 3841069.4695031173, "x": 544755.15660018858, "highway": null, "street_count": 3, "ref": null, "junction": null, "angle_range": "20-30", "min_angle": 26.2, "residual_angle": 287.89, "res_vec_x": 0.3071, "res_vec_y": -0.9517 }, "geometry": { "type": "Point", "coordinates": [ 135.4887425, 34.7106929 ] } },
{ "type": "Feature", "properties": { "osmid": 3999732325, "y": 3839813.3824829245, "x": 546648.93412778107, "highway": null, "street_count": 3, "ref": null, "junction": null, "angle_range": "20-30", "min_angle": 27.7, "residual_angle": 105.24, "res_vec_x": -0.2628, "res_vec_y": 0.9648 }, "geometry": { "type": "Point", "coordinates": [ 135.5093531, 34.6992814 ] } },
{ "type": "Feature", "properties": { "osmid": 12112695824, "y": 3840182.6961525576, "x": 546703.59992921585, "highway": null, "street_count": 3, "ref": null, "junction": null, "angle_range": "20-30", "min_angle": 23.2, "residual_angle": 19.61, "res_vec_x": 0.942, "res_vec_y": 0.3356 }, "geometry": { "type": "Point", "coordinates": [ 135.509970399999986, 34.7026092 ] } },
{ "type": "Feature", "properties": { "osmid": 12165707047, "y": 3840726.0339400172, "x": 545179.07473445346, "highway": null, "street_count": 3, "ref": null, "junction": null, "angle_range": "20-30", "min_angle": 23.3, "residual_angle": 104.49, "res_vec_x": -0.2503, "res_vec_y": 0.9682 }, "geometry": { "type": "Point", "coordinates": [ 135.4933533, 34.7075773 ] } },
{ "type": "Feature", "properties": { "osmid": 12165707050, "y": 3840739.143129556, "x": 545190.6683880894, "highway": null, "street_count": 3, "ref": null, "junction": null, "angle_range": "20-30", "min_angle": 24.0, "residual_angle": 354.69, "res_vec_x": 0.9957, "res_vec_y": -0.0926 }, "geometry": { "type": "Point", "coordinates": [ 135.4934806, 34.707695 ] } }
]
}
