{
"type": "FeatureCollection",
"name": "y_nodes_50_60_with_vector",
"crs": { "type": "name", "properties": { "name": "urn:ogc:def:crs:OGC:1.3:CRS84" } },
"features": [
{ "type": "Feature", "properties": { "osmid": 1833824132, "y": 3839701.4690195285, "x": 545831.35519780579, "highway": "traffic_signals", "street_count": 4, "ref": null, "junction": null, "angle_range": "50-60", "min_angle": 50.2, "residual_angle": 335.8, "res_vec_x": 0.9121, "res_vec_y": -0.4099 }, "geometry": { "type": "Point", "coordinates": [ 135.5004203, 34.6983092 ] } },
{ "type": "Feature", "properties": { "osmid": 681290456, "y": 3839529.1889141235, "x": 545923.96715455246, "highway": null, "street_count": 3, "ref": null, "junction": null, "angle_range": "50-60", "min_angle": 57.5, "residual_angle": 235.97, "res_vec_x": -0.5596, "res_vec_y": -0.8287 }, "geometry": { "type": "Point", "coordinates": [ 135.501422100000013, 34.6967515 ] } },
{ "type": "Feature", "properties": { "osmid": 2458680276, "y": 3841027.4933890039, "x": 544895.9928963217, "highway": null, "street_count": 3, "ref": null, "junction": null, "angle_range": "50-60", "min_angle": 57.8, "residual_angle": 128.58, "res_vec_x": -0.6236, "res_vec_y": 0.7818 }, "geometry": { "type": "Point", "coordinates": [ 135.490278200000034, 34.7103082 ] } },
{ "type": "Feature", "properties": { "osmid": 941389552, "y": 3840601.6381889717, "x": 545051.23490351555, "highway": null, "street_count": 3, "ref": null, "junction": null, "angle_range": "50-60", "min_angle": 50.2, "residual_angle": 214.7, "res_vec_x": -0.8221, "res_vec_y": -0.5693 }, "geometry": { "type": "Point", "coordinates": [ 135.4919507, 34.7064612 ] } },
{ "type": "Feature", "properties": { "osmid": 1868090615, "y": 3840331.2076510233, "x": 544957.67759714532, "highway": "traffic_signals", "street_count": 3, "ref": null, "junction": null, "angle_range": "50-60", "min_angle": 51.9, "residual_angle": 225.84, "res_vec_x": -0.6967, "res_vec_y": -0.7174 }, "geometry": { "type": "Point", "coordinates": [ 135.4909147, 34.7040267 ] } },
{ "type": "Feature", "properties": { "osmid": 1646422482, "y": 3839436.0374793252, "x": 544904.28655839968, "highway": null, "street_count": 4, "ref": null, "junction": null, "angle_range": "50-60", "min_angle": 54.4, "residual_angle": 57.98, "res_vec_x": 0.5303, "res_vec_y": 0.8478 }, "geometry": { "type": "Point", "coordinates": [ 135.4902841, 34.6959568 ] } },
{ "type": "Feature", "properties": { "osmid": 1852464732, "y": 3841001.8426876413, "x": 546643.83442810015, "highway": "traffic_signals", "street_count": 4, "ref": null, "junction": null, "angle_range": "50-60", "min_angle": 57.8, "residual_angle": 72.39, "res_vec_x": 0.3025, "res_vec_y": 0.9532 }, "geometry": { "type": "Point", "coordinates": [ 135.50936310000003, 34.7099986 ] } },
{ "type": "Feature", "properties": { "osmid": 1918155556, "y": 3840329.5671115839, "x": 545936.04309369787, "highway": "traffic_signals", "street_count": 4, "ref": null, "junction": null, "angle_range": "50-60", "min_angle": 51.5, "residual_angle": 70.94, "res_vec_x": 0.3266, "res_vec_y": 0.9452 }, "geometry": { "type": "Point", "coordinates": [ 135.5015975, 34.7039684 ] } },
{ "type": "Feature", "properties": { "osmid": 1867168670, "y": 3839369.1546920626, "x": 547424.02023407165, "highway": "traffic_signals", "street_count": 4, "ref": null, "junction": null, "angle_range": "50-60", "min_angle": 56.1, "residual_angle": 292.26, "res_vec_x": 0.3789, "res_vec_y": -0.9254 }, "geometry": { "type": "Point", "coordinates": [ 135.5177909, 34.6952399 ] } },
{ "type": "Feature", "properties": { "osmid": 514446441, "y": 3839357.7147613894, "x": 547437.81796694617, "highway": "traffic_signals", "street_count": 4, "ref": null, "junction": null, "angle_range": "50-60", "min_angle": 55.2, "residual_angle": 112.7, "res_vec_x": -0.3859, "res_vec_y": 0.9226 }, "geometry": { "type": "Point", "coordinates": [ 135.517940900000013, 34.6951361 ] } },
{ "type": "Feature", "properties": { "osmid": 1867168668, "y": 3839353.9140659207, "x": 547472.87169401359, "highway": null, "street_count": 4, "ref": null, "junction": null, "angle_range": "50-60", "min_angle": 51.4, "residual_angle": 291.51, "res_vec_x": 0.3667, "res_vec_y": -0.9304 }, "geometry": { "type": "Point", "coordinates": [ 135.518323400000014, 34.6951002 ] } },
{ "type": "Feature", "properties": { "osmid": 564181055, "y": 3840045.1989474022, "x": 547468.02946708619, "highway": "traffic_signals", "street_count": 4, "ref": null, "junction": null, "angle_range": "50-60", "min_angle": 59.7, "residual_angle": 138.33, "res_vec_x": -0.747, "res_vec_y": 0.6648 }, "geometry": { "type": "Point", "coordinates": [ 135.5183094, 34.7013341 ] } },
{ "type": "Feature", "properties": { "osmid": 1738917347, "y": 3841124.5392753966, "x": 545504.39918181114, "highway": "traffic_signals", "street_count": 4, "ref": null, "junction": null, "angle_range": "50-60", "min_angle": 58.3, "residual_angle": 207.25, "res_vec_x": -0.889, "res_vec_y": -0.4578 }, "geometry": { "type": "Point", "coordinates": [ 135.496927199999988, 34.7111564 ] } },
{ "type": "Feature", "properties": { "osmid": 564425297, "y": 3841267.1981567764, "x": 545612.73080562963, "highway": "traffic_signals", "street_count": 5, "ref": null, "junction": null, "angle_range": "50-60", "min_angle": 56.8, "residual_angle": 263.61, "res_vec_x": -0.1113, "res_vec_y": -0.9938 }, "geometry": { "type": "Point", "coordinates": [ 135.498117900000011, 34.712438 ] } },
{ "type": "Feature", "properties": { "osmid": 2598088698, "y": 3840698.5928664692, "x": 544654.65550309396, "highway": "traffic_signals", "street_count": 4, "ref": null, "junction": null, "angle_range": "50-60", "min_angle": 55.2, "residual_angle": 51.6, "res_vec_x": 0.6211, "res_vec_y": 0.7837 }, "geometry": { "type": "Point", "coordinates": [ 135.487625400000013, 34.7073529 ] } },
{ "type": "Feature", "properties": { "osmid": 730803316, "y": 3840359.4361963691, "x": 543914.72314058151, "highway": "traffic_signals", "street_count": 3, "ref": null, "junction": null, "angle_range": "50-60", "min_angle": 55.0, "residual_angle": 243.5, "res_vec_x": -0.4462, "res_vec_y": -0.8949 }, "geometry": { "type": "Point", "coordinates": [ 135.479528, 34.7043266 ] } },
{ "type": "Feature", "properties": { "osmid": 1893378176, "y": 3840139.1435042103, "x": 546123.63228577713, "highway": "traffic_signals", "street_count": 4, "ref": null, "junction": null, "angle_range": "50-60", "min_angle": 58.5, "residual_angle": 156.02, "res_vec_x": -0.9137, "res_vec_y": 0.4064 }, "geometry": { "type": "Point", "coordinates": [ 135.5036354, 34.7022428 ] } },
{ "type": "Feature", "properties": { "osmid": 730803367, "y": 3839948.7452238183, "x": 544069.61949375272, "highway": null, "street_count": 3, "ref": null, "junction": null, "angle_range": "50-60", "min_angle": 55.0, "residual_angle": 125.82, "res_vec_x": -0.5852, "res_vec_y": 0.8109 }, "geometry": { "type": "Point", "coordinates": [ 135.481197900000041, 34.7006165 ] } },
{ "type": "Feature", "properties": { "osmid": 1021961742, "y": 3840509.5551523445, "x": 545877.01045070216, "highway": "traffic_signals", "street_count": 4, "ref": null, "junction": null, "angle_range": "50-60", "min_angle": 57.1, "residual_angle": 99.35, "res_vec_x": -0.1625, "res_vec_y": 0.9867 }, "geometry": { "type": "Point", "coordinates": [ 135.500962700000031, 34.7055941 ] } },
{ "type": "Feature", "properties": { "osmid": 1851607753, "y": 3841286.6838525422, "x": 546675.7800186805, "highway": null, "street_count": 4, "ref": null, "junction": null, "angle_range": "50-60", "min_angle": 59.6, "residual_angle": 37.14, "res_vec_x": 0.7972, "res_vec_y": 0.6037 }, "geometry": { "type": "Point", "coordinates": [ 135.509727700000013, 34.7125657 ] } },
{ "type": "Feature", "properties": { "osmid": 1076442135, "y": 3841516.1234258111, "x": 547279.75549180806, "highway": "traffic_signals", "street_count": 3, "ref": null, "junction": null, "angle_range": "50-60", "min_angle": 50.6, "residual_angle": 238.31, "res_vec_x": -0.5253, "res_vec_y": -0.8509 }, "geometry": { "type": "Point", "coordinates": [ 135.5163361, 34.7146069 ] } },
{ "type": "Feature", "properties": { "osmid": 4931687977, "y": 3841697.8231965764, "x": 547300.86367019732, "highway": "traffic_signals", "street_count": 4, "ref": null, "junction": null, "angle_range": "50-60", "min_angle": 56.6, "residual_angle": 55.49, "res_vec_x": 0.5665, "res_vec_y": 0.8241 }, "geometry": { "type": "Point", "coordinates": [ 135.5165768, 34.7162444 ] } },
{ "type": "Feature", "properties": { "osmid": 1076442149, "y": 3841206.73172969, "x": 546866.50342304981, "highway": null, "street_count": 4, "ref": null, "junction": null, "angle_range": "50-60", "min_angle": 51.6, "residual_angle": 49.46, "res_vec_x": 0.65, "res_vec_y": 0.7599 }, "geometry": { "type": "Point", "coordinates": [ 135.511806, 34.711836 ] } },
{ "type": "Feature", "properties": { "osmid": 1646422323, "y": 3839064.0844840473, "x": 545237.52558542683, "highway": null, "street_count": 3, "ref": null, "junction": null, "angle_range": "50-60", "min_angle": 56.7, "residual_angle": 225.05, "res_vec_x": -0.7065, "res_vec_y": -0.7077 }, "geometry": { "type": "Point", "coordinates": [ 135.4939025, 34.692588 ] } },
{ "type": "Feature", "properties": { "osmid": 1666930361, "y": 3839802.7776834113, "x": 546019.54988540267, "highway": null, "street_count": 4, "ref": null, "junction": null, "angle_range": "50-60", "min_angle": 52.9, "residual_angle": 114.24, "res_vec_x": -0.4105, "res_vec_y": 0.9119 }, "geometry": { "type": "Point", "coordinates": [ 135.502480600000013, 34.6992143 ] } },
{ "type": "Feature", "properties": { "osmid": 1673338232, "y": 3840338.4556984273, "x": 545935.00054005312, "highway": "traffic_signals", "street_count": 4, "ref": null, "junction": null, "angle_range": "50-60", "min_angle": 54.1, "residual_angle": 71.76, "res_vec_x": 0.313, "res_vec_y": 0.9497 }, "geometry": { "type": "Point", "coordinates": [ 135.5015866, 34.7040486 ] } },
{ "type": "Feature", "properties": { "osmid": 1688075135, "y": 3840752.3125929483, "x": 544824.13528753002, "highway": null, "street_count": 3, "ref": null, "junction": null, "angle_range": "50-60", "min_angle": 54.9, "residual_angle": 229.98, "res_vec_x": -0.6431, "res_vec_y": -0.7658 }, "geometry": { "type": "Point", "coordinates": [ 135.4894789, 34.7078299 ] } },
{ "type": "Feature", "properties": { "osmid": 4592877635, "y": 3840486.8589462824, "x": 546013.49675656715, "highway": null, "street_count": 3, "ref": null, "junction": null, "angle_range": "50-60", "min_angle": 59.6, "residual_angle": 65.67, "res_vec_x": 0.4121, "res_vec_y": 0.9112 }, "geometry": { "type": "Point", "coordinates": [ 135.502451799999989, 34.7053833 ] } },
{ "type": "Feature", "properties": { "osmid": 11868422923, "y": 3840574.9135821122, "x": 547230.79114817828, "highway": "traffic_signals", "street_count": 3, "ref": null, "junction": null, "angle_range": "50-60", "min_angle": 52.9, "residual_angle": 9.38, "res_vec_x": 0.9866, "res_vec_y": 0.163 }, "geometry": { "type": "Point", "coordinates": [ 135.515748699999989, 34.7061218 ] } },
{ "type": "Feature", "properties": { "osmid": 1721586668, "y": 3840456.7034839783, "x": 547125.4920557827, "highway": null, "street_count": 4, "ref": null, "junction": null, "angle_range": "50-60", "min_angle": 58.8, "residual_angle": 204.83, "res_vec_x": -0.9076, "res_vec_y": -0.4199 }, "geometry": { "type": "Point", "coordinates": [ 135.5145923, 34.7050607 ] } },
{ "type": "Feature", "properties": { "osmid": 1721594202, "y": 3840960.1269277832, "x": 547028.40139206778, "highway": null, "street_count": 4, "ref": null, "junction": null, "angle_range": "50-60", "min_angle": 52.2, "residual_angle": 291.91, "res_vec_x": 0.3731, "res_vec_y": -0.9278 }, "geometry": { "type": "Point", "coordinates": [ 135.5135602, 34.7096048 ] } },
{ "type": "Feature", "properties": { "osmid": 1721627480, "y": 3840587.8913364541, "x": 546344.6129081205, "highway": null, "street_count": 3, "ref": null, "junction": null, "angle_range": "50-60", "min_angle": 56.5, "residual_angle": 307.34, "res_vec_x": 0.6066, "res_vec_y": -0.795 }, "geometry": { "type": "Point", "coordinates": [ 135.5060729, 34.7062794 ] } },
{ "type": "Feature", "properties": { "osmid": 1736151823, "y": 3840877.5115884682, "x": 546499.95487748052, "highway": "traffic_signals", "street_count": 3, "ref": null, "junction": null, "angle_range": "50-60", "min_angle": 58.1, "residual_angle": 254.27, "res_vec_x": -0.2711, "res_vec_y": -0.9626 }, "geometry": { "type": "Point", "coordinates": [ 135.5077851, 34.708884 ] } },
{ "type": "Feature", "properties": { "osmid": 1738907579, "y": 3841542.0451289043, "x": 546377.65993051813, "highway": "traffic_signals", "street_count": 5, "ref": null, "junction": null, "angle_range": "50-60", "min_angle": 50.0, "residual_angle": 168.7, "res_vec_x": -0.9806, "res_vec_y": 0.196 }, "geometry": { "type": "Point", "coordinates": [ 135.506486200000012, 34.714882 ] } },
{ "type": "Feature", "properties": { "osmid": 1851662627, "y": 3841611.3547703004, "x": 546300.51128951216, "highway": null, "street_count": 4, "ref": null, "junction": null, "angle_range": "50-60", "min_angle": 51.9, "residual_angle": 291.46, "res_vec_x": 0.3658, "res_vec_y": -0.9307 }, "geometry": { "type": "Point", "coordinates": [ 135.5056475, 34.7155105 ] } },
{ "type": "Feature", "properties": { "osmid": 1738907593, "y": 3841614.0676894467, "x": 546885.12609266071, "highway": null, "street_count": 4, "ref": null, "junction": null, "angle_range": "50-60", "min_angle": 52.6, "residual_angle": 55.04, "res_vec_x": 0.573, "res_vec_y": 0.8196 }, "geometry": { "type": "Point", "coordinates": [ 135.512032, 34.7155083 ] } },
{ "type": "Feature", "properties": { "osmid": 1864438224, "y": 3841032.651024064, "x": 545448.1128128448, "highway": "traffic_signals", "street_count": 4, "ref": null, "junction": null, "angle_range": "50-60", "min_angle": 54.3, "residual_angle": 37.97, "res_vec_x": 0.7883, "res_vec_y": 0.6153 }, "geometry": { "type": "Point", "coordinates": [ 135.496307600000023, 34.71033030000001 ] } },
{ "type": "Feature", "properties": { "osmid": 1742839551, "y": 3840981.7064399165, "x": 545342.44729344966, "highway": null, "street_count": 3, "ref": null, "junction": null, "angle_range": "50-60", "min_angle": 53.1, "residual_angle": 125.54, "res_vec_x": -0.5813, "res_vec_y": 0.8137 }, "geometry": { "type": "Point", "coordinates": [ 135.495151, 34.7098756 ] } },
{ "type": "Feature", "properties": { "osmid": 1837326034, "y": 3840583.2169593587, "x": 545786.65717677074, "highway": null, "street_count": 3, "ref": null, "junction": null, "angle_range": "50-60", "min_angle": 52.2, "residual_angle": 171.07, "res_vec_x": -0.9879, "res_vec_y": 0.1552 }, "geometry": { "type": "Point", "coordinates": [ 135.499980099999988, 34.7062624 ] } },
{ "type": "Feature", "properties": { "osmid": 1852350460, "y": 3841427.4379634354, "x": 546172.96965305263, "highway": null, "street_count": 4, "ref": null, "junction": null, "angle_range": "50-60", "min_angle": 58.8, "residual_angle": 159.3, "res_vec_x": -0.9355, "res_vec_y": 0.3535 }, "geometry": { "type": "Point", "coordinates": [ 135.5042446, 34.7138578 ] } },
{ "type": "Feature", "properties": { "osmid": 1862742479, "y": 3841367.7591525167, "x": 546269.0167933529, "highway": null, "street_count": 3, "ref": null, "junction": null, "angle_range": "50-60", "min_angle": 50.9, "residual_angle": 285.14, "res_vec_x": 0.2612, "res_vec_y": -0.9653 }, "geometry": { "type": "Point", "coordinates": [ 135.5052902, 34.7133153 ] } },
{ "type": "Feature", "properties": { "osmid": 1852349903, "y": 3840986.386005607, "x": 545279.26433749846, "highway": null, "street_count": 3, "ref": null, "junction": null, "angle_range": "50-60", "min_angle": 53.6, "residual_angle": 34.83, "res_vec_x": 0.8209, "res_vec_y": 0.5711 }, "geometry": { "type": "Point", "coordinates": [ 135.494461300000012, 34.7099206 ] } },
{ "type": "Feature", "properties": { "osmid": 1852350126, "y": 3841178.0290106717, "x": 545370.50097015593, "highway": null, "street_count": 4, "ref": null, "junction": null, "angle_range": "50-60", "min_angle": 50.9, "residual_angle": 80.33, "res_vec_x": 0.1679, "res_vec_y": 0.9858 }, "geometry": { "type": "Point", "coordinates": [ 135.4954679, 34.7116447 ] } },
{ "type": "Feature", "properties": { "osmid": 1852431441, "y": 3841215.0387971327, "x": 545360.0716220272, "highway": null, "street_count": 4, "ref": null, "junction": null, "angle_range": "50-60", "min_angle": 54.9, "residual_angle": 258.43, "res_vec_x": -0.2005, "res_vec_y": -0.9797 }, "geometry": { "type": "Point", "coordinates": [ 135.495356, 34.7119789 ] } },
{ "type": "Feature", "properties": { "osmid": 1863178015, "y": 3841678.4725892884, "x": 546115.59781733039, "highway": "traffic_signals", "street_count": 4, "ref": null, "junction": null, "angle_range": "50-60", "min_angle": 57.1, "residual_angle": 52.64, "res_vec_x": 0.6068, "res_vec_y": 0.7949 }, "geometry": { "type": "Point", "coordinates": [ 135.503631800000022, 34.7161241 ] } },
{ "type": "Feature", "properties": { "osmid": 1852381808, "y": 3841565.7313489635, "x": 545805.619797769, "highway": null, "street_count": 3, "ref": null, "junction": null, "angle_range": "50-60", "min_angle": 52.2, "residual_angle": 240.09, "res_vec_x": -0.4987, "res_vec_y": -0.8668 }, "geometry": { "type": "Point", "coordinates": [ 135.5002405, 34.715121399999987 ] } },
{ "type": "Feature", "properties": { "osmid": 1862796259, "y": 3841417.0234716088, "x": 545915.30214612512, "highway": null, "street_count": 3, "ref": null, "junction": null, "angle_range": "50-60", "min_angle": 58.5, "residual_angle": 342.74, "res_vec_x": 0.955, "res_vec_y": -0.2968 }, "geometry": { "type": "Point", "coordinates": [ 135.501430199999987, 34.7137755 ] } },
{ "type": "Feature", "properties": { "osmid": 1864380754, "y": 3841253.146996256, "x": 545477.98610228975, "highway": null, "street_count": 3, "ref": null, "junction": null, "angle_range": "50-60", "min_angle": 55.4, "residual_angle": 255.51, "res_vec_x": -0.2503, "res_vec_y": -0.9682 }, "geometry": { "type": "Point", "coordinates": [ 135.496645699999988, 34.7123173 ] } },
{ "type": "Feature", "properties": { "osmid": 1866807120, "y": 3840271.1105334749, "x": 547004.15893249551, "highway": null, "street_count": 3, "ref": null, "junction": null, "angle_range": "50-60", "min_angle": 56.8, "residual_angle": 25.52, "res_vec_x": 0.9025, "res_vec_y": 0.4308 }, "geometry": { "type": "Point", "coordinates": [ 135.5132571, 34.7033927 ] } },
{ "type": "Feature", "properties": { "osmid": 1868090606, "y": 3840276.0857077516, "x": 544404.94161682553, "highway": null, "street_count": 3, "ref": null, "junction": null, "angle_range": "50-60", "min_angle": 53.9, "residual_angle": 176.05, "res_vec_x": -0.9976, "res_vec_y": 0.0688 }, "geometry": { "type": "Point", "coordinates": [ 135.484876400000019, 34.7035538 ] } },
{ "type": "Feature", "properties": { "osmid": 2316637093, "y": 3841045.9692304395, "x": 545256.55388673162, "highway": null, "street_count": 4, "ref": null, "junction": null, "angle_range": "50-60", "min_angle": 50.1, "residual_angle": 37.26, "res_vec_x": 0.7959, "res_vec_y": 0.6054 }, "geometry": { "type": "Point", "coordinates": [ 135.4942165, 34.7104589 ] } },
{ "type": "Feature", "properties": { "osmid": 2316550742, "y": 3841076.7600766756, "x": 544888.35357670323, "highway": null, "street_count": 3, "ref": null, "junction": null, "angle_range": "50-60", "min_angle": 52.3, "residual_angle": 304.87, "res_vec_x": 0.5718, "res_vec_y": -0.8204 }, "geometry": { "type": "Point", "coordinates": [ 135.4901974, 34.7107528 ] } },
{ "type": "Feature", "properties": { "osmid": 3461271099, "y": 3841119.0528509673, "x": 545006.03144782514, "highway": null, "street_count": 4, "ref": null, "junction": null, "angle_range": "50-60", "min_angle": 58.2, "residual_angle": 129.23, "res_vec_x": -0.6324, "res_vec_y": 0.7746 }, "geometry": { "type": "Point", "coordinates": [ 135.4914847, 34.711129 ] } },
{ "type": "Feature", "properties": { "osmid": 2318521948, "y": 3841305.3337943591, "x": 544983.21729401383, "highway": null, "street_count": 3, "ref": null, "junction": null, "angle_range": "50-60", "min_angle": 59.6, "residual_angle": 244.67, "res_vec_x": -0.4278, "res_vec_y": -0.9039 }, "geometry": { "type": "Point", "coordinates": [ 135.4912455, 34.7128098 ] } },
{ "type": "Feature", "properties": { "osmid": 2351668687, "y": 3841353.988944408, "x": 545050.15711663384, "highway": null, "street_count": 3, "ref": null, "junction": null, "angle_range": "50-60", "min_angle": 59.7, "residual_angle": 247.04, "res_vec_x": -0.39, "res_vec_y": -0.9208 }, "geometry": { "type": "Point", "coordinates": [ 135.4919791, 34.7132456 ] } },
{ "type": "Feature", "properties": { "osmid": 1894129861, "y": 3840079.2926784218, "x": 546494.27470526693, "highway": "traffic_signals", "street_count": 4, "ref": null, "junction": null, "angle_range": "50-60", "min_angle": 50.7, "residual_angle": 33.28, "res_vec_x": 0.836, "res_vec_y": 0.5487 }, "geometry": { "type": "Point", "coordinates": [ 135.5076791, 34.701686299999984 ] } },
{ "type": "Feature", "properties": { "osmid": 4346221289, "y": 3839521.6886938149, "x": 546931.68564012076, "highway": null, "street_count": 4, "ref": null, "junction": null, "angle_range": "50-60", "min_angle": 59.4, "residual_angle": 245.01, "res_vec_x": -0.4225, "res_vec_y": -0.9064 }, "geometry": { "type": "Point", "coordinates": [ 135.5124241, 34.6966381 ] } },
{ "type": "Feature", "properties": { "osmid": 2316550716, "y": 3841042.9792028731, "x": 544949.30584001902, "highway": null, "street_count": 4, "ref": null, "junction": null, "angle_range": "50-60", "min_angle": 52.4, "residual_angle": 124.82, "res_vec_x": -0.571, "res_vec_y": 0.821 }, "geometry": { "type": "Point", "coordinates": [ 135.490861200000012, 34.7104455 ] } },
{ "type": "Feature", "properties": { "osmid": 11868422921, "y": 3840586.1432494717, "x": 547245.14833392994, "highway": "traffic_signals", "street_count": 4, "ref": null, "junction": null, "angle_range": "50-60", "min_angle": 58.9, "residual_angle": 71.26, "res_vec_x": 0.3213, "res_vec_y": 0.947 }, "geometry": { "type": "Point", "coordinates": [ 135.5159061, 34.7062224 ] } }
]
}
