{
"type": "FeatureCollection",
"name": "y_nodes_40_50_with_vector",
"crs": { "type": "name", "properties": { "name": "urn:ogc:def:crs:OGC:1.3:CRS84" } },
"features": [
{ "type": "Feature", "properties": { "osmid": 9050718785, "y": 3840334.0281738047, "x": 545511.9846885791, "highway": null, "street_count": 3, "ref": null, "junction": null, "angle_range": "40-50", "min_angle": 42.6, "residual_angle": 10.69, "res_vec_x": 0.9826, "res_vec_y": 0.1855 }, "geometry": { "type": "Point", "coordinates": [ 135.496967399999988, 34.7040276 ] } },
{ "type": "Feature", "properties": { "osmid": 258765067, "y": 3839683.8455010653, "x": 545846.50005172065, "highway": "traffic_signals", "street_count": 5, "ref": null, "junction": null, "angle_range": "40-50", "min_angle": 42.5, "residual_angle": 109.44, "res_vec_x": -0.3328, "res_vec_y": 0.943 }, "geometry": { "type": "Point", "coordinates": [ 135.5005847, 34.6981496 ] } },
{ "type": "Feature", "properties": { "osmid": 9869231966, "y": 3840840.1353014093, "x": 545002.62267787475, "highway": null, "street_count": 3, "ref": null, "junction": null, "angle_range": "40-50", "min_angle": 46.3, "residual_angle": 235.58, "res_vec_x": -0.5652, "res_vec_y": -0.8249 }, "geometry": { "type": "Point", "coordinates": [ 135.4914326, 34.708614 ] } },
{ "type": "Feature", "properties": { "osmid": 1015952748, "y": 3839967.6730649583, "x": 545405.78633852559, "highway": "traffic_signals", "street_count": 3, "ref": null, "junction": null, "angle_range": "40-50", "min_angle": 49.6, "residual_angle": 223.5, "res_vec_x": -0.7253, "res_vec_y": -0.6884 }, "geometry": { "type": "Point", "coordinates": [ 135.4957881, 34.7007287 ] } },
{ "type": "Feature", "properties": { "osmid": 421566017, "y": 3841543.2332419693, "x": 546750.9325983217, "highway": "traffic_signals", "street_count": 5, "ref": null, "junction": null, "angle_range": "40-50", "min_angle": 44.7, "residual_angle": 169.97, "res_vec_x": -0.9847, "res_vec_y": 0.1742 }, "geometry": { "type": "Point", "coordinates": [ 135.510562599999986, 34.7148757 ] } },
{ "type": "Feature", "properties": { "osmid": 1851709196, "y": 3841550.2412006725, "x": 546739.8810868779, "highway": null, "street_count": 4, "ref": null, "junction": null, "angle_range": "40-50", "min_angle": 40.4, "residual_angle": 347.82, "res_vec_x": 0.9775, "res_vec_y": -0.211 }, "geometry": { "type": "Point", "coordinates": [ 135.5104423, 34.7149394 ] } },
{ "type": "Feature", "properties": { "osmid": 428702844, "y": 3839243.4689911059, "x": 546771.18290778471, "highway": null, "street_count": 3, "ref": null, "junction": null, "angle_range": "40-50", "min_angle": 44.1, "residual_angle": 3.75, "res_vec_x": 0.9979, "res_vec_y": 0.0655 }, "geometry": { "type": "Point", "coordinates": [ 135.5106563, 34.6941366 ] } },
{ "type": "Feature", "properties": { "osmid": 1867168661, "y": 3839211.8100090907, "x": 546841.38535681635, "highway": null, "street_count": 3, "ref": null, "junction": null, "angle_range": "40-50", "min_angle": 45.5, "residual_angle": 121.3, "res_vec_x": -0.5196, "res_vec_y": 0.8544 }, "geometry": { "type": "Point", "coordinates": [ 135.511421, 34.6938479 ] } },
{ "type": "Feature", "properties": { "osmid": 2310416487, "y": 3839230.2320975563, "x": 546526.50263553497, "highway": "traffic_signals", "street_count": 5, "ref": null, "junction": null, "angle_range": "40-50", "min_angle": 49.5, "residual_angle": 68.52, "res_vec_x": 0.3661, "res_vec_y": 0.9306 }, "geometry": { "type": "Point", "coordinates": [ 135.50798420000001, 34.6940284 ] } },
{ "type": "Feature", "properties": { "osmid": 564180212, "y": 3840179.6058873674, "x": 546783.04660907493, "highway": "traffic_signals", "street_count": 5, "ref": null, "junction": null, "angle_range": "40-50", "min_angle": 47.0, "residual_angle": 114.64, "res_vec_x": -0.4169, "res_vec_y": 0.909 }, "geometry": { "type": "Point", "coordinates": [ 135.5108377, 34.7025777 ] } },
{ "type": "Feature", "properties": { "osmid": 4121464575, "y": 3840171.9445692352, "x": 546709.01209472131, "highway": "traffic_signals", "street_count": 3, "ref": null, "junction": null, "angle_range": "40-50", "min_angle": 48.5, "residual_angle": 207.14, "res_vec_x": -0.8899, "res_vec_y": -0.4562 }, "geometry": { "type": "Point", "coordinates": [ 135.5100289, 34.702512 ] } },
{ "type": "Feature", "properties": { "osmid": 11179063804, "y": 3839775.5787088037, "x": 546736.57391186804, "highway": null, "street_count": 3, "ref": null, "junction": null, "angle_range": "40-50", "min_angle": 49.9, "residual_angle": 115.73, "res_vec_x": -0.4341, "res_vec_y": 0.9008 }, "geometry": { "type": "Point", "coordinates": [ 135.510307899999987, 34.698936499999988 ] } },
{ "type": "Feature", "properties": { "osmid": 571361446, "y": 3840772.5254117837, "x": 544652.14514400368, "highway": "traffic_signals", "street_count": 5, "ref": null, "junction": null, "angle_range": "40-50", "min_angle": 48.0, "residual_angle": 200.44, "res_vec_x": -0.9371, "res_vec_y": -0.3491 }, "geometry": { "type": "Point", "coordinates": [ 135.487601899999987, 34.7080197 ] } },
{ "type": "Feature", "properties": { "osmid": 683899882, "y": 3840153.3412915361, "x": 546314.45060601167, "highway": "traffic_signals", "street_count": 5, "ref": null, "junction": null, "angle_range": "40-50", "min_angle": 49.9, "residual_angle": 93.93, "res_vec_x": -0.0686, "res_vec_y": 0.9976 }, "geometry": { "type": "Point", "coordinates": [ 135.505719699999986, 34.702362199999989 ] } },
{ "type": "Feature", "properties": { "osmid": 2376653630, "y": 3840576.6459247987, "x": 544556.99955660186, "highway": null, "street_count": 3, "ref": null, "junction": null, "angle_range": "40-50", "min_angle": 49.6, "residual_angle": 88.97, "res_vec_x": 0.018, "res_vec_y": 0.9998 }, "geometry": { "type": "Point", "coordinates": [ 135.48655260000001, 34.7062575 ] } },
{ "type": "Feature", "properties": { "osmid": 1894524731, "y": 3840714.0309516629, "x": 545098.99313846382, "highway": null, "street_count": 3, "ref": null, "junction": null, "angle_range": "40-50", "min_angle": 44.1, "residual_angle": 87.15, "res_vec_x": 0.0497, "res_vec_y": 0.9988 }, "geometry": { "type": "Point", "coordinates": [ 135.4924782, 34.7074726 ] } },
{ "type": "Feature", "properties": { "osmid": 3886422502, "y": 3840610.837143722, "x": 545056.95028952335, "highway": null, "street_count": 3, "ref": null, "junction": null, "angle_range": "40-50", "min_angle": 47.9, "residual_angle": 262.08, "res_vec_x": -0.1378, "res_vec_y": -0.9905 }, "geometry": { "type": "Point", "coordinates": [ 135.4920136, 34.7065439 ] } },
{ "type": "Feature", "properties": { "osmid": 941389561, "y": 3840860.2960822363, "x": 544813.78377881867, "highway": null, "street_count": 4, "ref": null, "junction": null, "angle_range": "40-50", "min_angle": 49.8, "residual_angle": 258.7, "res_vec_x": -0.196, "res_vec_y": -0.9806 }, "geometry": { "type": "Point", "coordinates": [ 135.489371600000027, 34.7088041 ] } },
{ "type": "Feature", "properties": { "osmid": 1893377605, "y": 3839360.4819899183, "x": 546443.66866343794, "highway": "traffic_signals", "street_count": 5, "ref": null, "junction": null, "angle_range": "40-50", "min_angle": 41.6, "residual_angle": 222.26, "res_vec_x": -0.7401, "res_vec_y": -0.6725 }, "geometry": { "type": "Point", "coordinates": [ 135.507087, 34.6952067 ] } },
{ "type": "Feature", "properties": { "osmid": 1017989001, "y": 3840356.801343522, "x": 545953.51862827793, "highway": "traffic_signals", "street_count": 4, "ref": null, "junction": null, "angle_range": "40-50", "min_angle": 49.4, "residual_angle": 249.43, "res_vec_x": -0.3513, "res_vec_y": -0.9363 }, "geometry": { "type": "Point", "coordinates": [ 135.501789800000012, 34.7042132 ] } },
{ "type": "Feature", "properties": { "osmid": 1718694260, "y": 3840347.8109916723, "x": 545954.16790115635, "highway": "traffic_signals", "street_count": 4, "ref": null, "junction": null, "angle_range": "40-50", "min_angle": 47.7, "residual_angle": 70.25, "res_vec_x": 0.3379, "res_vec_y": 0.9412 }, "geometry": { "type": "Point", "coordinates": [ 135.501796399999989, 34.7041321 ] } },
{ "type": "Feature", "properties": { "osmid": 1851478505, "y": 3841408.5986598842, "x": 546543.56421853416, "highway": "traffic_signals", "street_count": 4, "ref": null, "junction": null, "angle_range": "40-50", "min_angle": 46.2, "residual_angle": 155.69, "res_vec_x": -0.9113, "res_vec_y": 0.4117 }, "geometry": { "type": "Point", "coordinates": [ 135.5082906, 34.7136711 ] } },
{ "type": "Feature", "properties": { "osmid": 1854481055, "y": 3840372.8902992285, "x": 545979.81406826456, "highway": null, "street_count": 3, "ref": null, "junction": null, "angle_range": "40-50", "min_angle": 46.4, "residual_angle": 19.38, "res_vec_x": 0.9434, "res_vec_y": 0.3318 }, "geometry": { "type": "Point", "coordinates": [ 135.5020778, 34.7043571 ] } },
{ "type": "Feature", "properties": { "osmid": 1712327443, "y": 3840581.9667790225, "x": 546007.6735935742, "highway": null, "street_count": 3, "ref": null, "junction": null, "angle_range": "40-50", "min_angle": 49.4, "residual_angle": 62.9, "res_vec_x": 0.4555, "res_vec_y": 0.8902 }, "geometry": { "type": "Point", "coordinates": [ 135.502393399999988, 34.7062412 ] } },
{ "type": "Feature", "properties": { "osmid": 1715694564, "y": 3841012.9492441085, "x": 546642.81665538996, "highway": "traffic_signals", "street_count": 4, "ref": null, "junction": null, "angle_range": "40-50", "min_angle": 47.0, "residual_angle": 247.68, "res_vec_x": -0.3797, "res_vec_y": -0.9251 }, "geometry": { "type": "Point", "coordinates": [ 135.5093526, 34.7100988 ] } },
{ "type": "Feature", "properties": { "osmid": 1715694578, "y": 3841094.7089276505, "x": 546773.3918578244, "highway": "traffic_signals", "street_count": 5, "ref": null, "junction": null, "angle_range": "40-50", "min_angle": 49.4, "residual_angle": 121.6, "res_vec_x": -0.524, "res_vec_y": 0.8517 }, "geometry": { "type": "Point", "coordinates": [ 135.510783, 34.71083010000001 ] } },
{ "type": "Feature", "properties": { "osmid": 1715696361, "y": 3841643.1495281137, "x": 547153.35074107791, "highway": "traffic_signals", "street_count": 4, "ref": null, "junction": null, "angle_range": "40-50", "min_angle": 46.1, "residual_angle": 230.74, "res_vec_x": -0.6329, "res_vec_y": -0.7743 }, "geometry": { "type": "Point", "coordinates": [ 135.5149628, 34.7157582 ] } },
{ "type": "Feature", "properties": { "osmid": 1852430722, "y": 3840447.7002825802, "x": 547149.63323207945, "highway": null, "street_count": 4, "ref": null, "junction": null, "angle_range": "40-50", "min_angle": 48.0, "residual_angle": 23.53, "res_vec_x": 0.9168, "res_vec_y": 0.3993 }, "geometry": { "type": "Point", "coordinates": [ 135.514855399999988, 34.7049784 ] } },
{ "type": "Feature", "properties": { "osmid": 1721634723, "y": 3840867.5761379288, "x": 546502.30360867095, "highway": "traffic_signals", "street_count": 6, "ref": null, "junction": null, "angle_range": "40-50", "min_angle": 44.1, "residual_angle": 209.15, "res_vec_x": -0.8734, "res_vec_y": -0.487 }, "geometry": { "type": "Point", "coordinates": [ 135.5078102, 34.7087943 ] } },
{ "type": "Feature", "properties": { "osmid": 1861048096, "y": 3840710.9739356702, "x": 546324.77148816304, "highway": "crossing", "street_count": 3, "ref": null, "junction": null, "angle_range": "40-50", "min_angle": 41.7, "residual_angle": 205.23, "res_vec_x": -0.9046, "res_vec_y": -0.4263 }, "geometry": { "type": "Point", "coordinates": [ 135.505863, 34.7073902 ] } },
{ "type": "Feature", "properties": { "osmid": 1852381807, "y": 3841547.1534812041, "x": 546007.54268818966, "highway": null, "street_count": 4, "ref": null, "junction": null, "angle_range": "40-50", "min_angle": 46.2, "residual_angle": 79.39, "res_vec_x": 0.1841, "res_vec_y": 0.9829 }, "geometry": { "type": "Point", "coordinates": [ 135.5024446, 34.7149448 ] } },
{ "type": "Feature", "properties": { "osmid": 1742839552, "y": 3841037.2750800964, "x": 545308.45575767627, "highway": null, "street_count": 3, "ref": null, "junction": null, "angle_range": "40-50", "min_angle": 44.6, "residual_angle": 39.61, "res_vec_x": 0.7704, "res_vec_y": 0.6375 }, "geometry": { "type": "Point", "coordinates": [ 135.4947828, 34.7103782 ] } },
{ "type": "Feature", "properties": { "osmid": 1839325763, "y": 3840732.5284757526, "x": 545740.24506693287, "highway": null, "street_count": 3, "ref": null, "junction": null, "angle_range": "40-50", "min_angle": 41.3, "residual_angle": 199.83, "res_vec_x": -0.9407, "res_vec_y": -0.3392 }, "geometry": { "type": "Point", "coordinates": [ 135.4994814, 34.7076109 ] } },
{ "type": "Feature", "properties": { "osmid": 1842768912, "y": 3839456.8020071723, "x": 545681.7483685239, "highway": null, "street_count": 3, "ref": null, "junction": null, "angle_range": "40-50", "min_angle": 40.2, "residual_angle": 187.33, "res_vec_x": -0.9918, "res_vec_y": -0.1275 }, "geometry": { "type": "Point", "coordinates": [ 135.4987736, 34.6961096 ] } },
{ "type": "Feature", "properties": { "osmid": 3490410693, "y": 3840995.2478440003, "x": 545284.04683563486, "highway": null, "street_count": 3, "ref": null, "junction": null, "angle_range": "40-50", "min_angle": 48.2, "residual_angle": 265.75, "res_vec_x": -0.0742, "res_vec_y": -0.9972 }, "geometry": { "type": "Point", "coordinates": [ 135.494514, 34.7100003 ] } },
{ "type": "Feature", "properties": { "osmid": 1852430731, "y": 3840611.8218719098, "x": 546234.10219104972, "highway": null, "street_count": 3, "ref": null, "junction": null, "angle_range": "40-50", "min_angle": 43.0, "residual_angle": 22.11, "res_vec_x": 0.9265, "res_vec_y": 0.3764 }, "geometry": { "type": "Point", "coordinates": [ 135.504867499999989, 34.7065002 ] } },
{ "type": "Feature", "properties": { "osmid": 13118341922, "y": 3841181.2711373488, "x": 545333.01291802211, "highway": null, "street_count": 3, "ref": null, "junction": null, "angle_range": "40-50", "min_angle": 42.6, "residual_angle": 253.51, "res_vec_x": -0.2839, "res_vec_y": -0.9589 }, "geometry": { "type": "Point", "coordinates": [ 135.495058699999987, 34.7116756 ] } },
{ "type": "Feature", "properties": { "osmid": 1852431477, "y": 3841395.3698275988, "x": 545681.91984243284, "highway": null, "street_count": 3, "ref": null, "junction": null, "angle_range": "40-50", "min_angle": 43.5, "residual_angle": 35.35, "res_vec_x": 0.8156, "res_vec_y": 0.5786 }, "geometry": { "type": "Point", "coordinates": [ 135.4988804, 34.7135907 ] } },
{ "type": "Feature", "properties": { "osmid": 1862796263, "y": 3841524.7258377164, "x": 545750.54246572172, "highway": null, "street_count": 3, "ref": null, "junction": null, "angle_range": "40-50", "min_angle": 41.4, "residual_angle": 229.79, "res_vec_x": -0.6456, "res_vec_y": -0.7637 }, "geometry": { "type": "Point", "coordinates": [ 135.4996368, 34.7147541 ] } },
{ "type": "Feature", "properties": { "osmid": 1852984147, "y": 3841447.3722262969, "x": 545644.62133757165, "highway": "traffic_signals", "street_count": 4, "ref": null, "junction": null, "angle_range": "40-50", "min_angle": 44.9, "residual_angle": 62.65, "res_vec_x": 0.4595, "res_vec_y": 0.8882 }, "geometry": { "type": "Point", "coordinates": [ 135.498475899999988, 34.714061299999983 ] } },
{ "type": "Feature", "properties": { "osmid": 1864380741, "y": 3841249.358769713, "x": 545478.874748784, "highway": null, "street_count": 3, "ref": null, "junction": null, "angle_range": "40-50", "min_angle": 45.8, "residual_angle": 294.0, "res_vec_x": 0.4067, "res_vec_y": -0.9136 }, "geometry": { "type": "Point", "coordinates": [ 135.4966552, 34.7122831 ] } },
{ "type": "Feature", "properties": { "osmid": 2293323577, "y": 3840040.4579379396, "x": 546329.25024970877, "highway": null, "street_count": 3, "ref": null, "junction": null, "angle_range": "40-50", "min_angle": 40.8, "residual_angle": 76.67, "res_vec_x": 0.2306, "res_vec_y": 0.9731 }, "geometry": { "type": "Point", "coordinates": [ 135.5058751, 34.701343599999987 ] } },
{ "type": "Feature", "properties": { "osmid": 9327532804, "y": 3840233.5940099885, "x": 546949.63813379419, "highway": null, "street_count": 3, "ref": null, "junction": null, "angle_range": "40-50", "min_angle": 46.7, "residual_angle": 6.59, "res_vec_x": 0.9934, "res_vec_y": 0.1148 }, "geometry": { "type": "Point", "coordinates": [ 135.5126597, 34.7030569 ] } },
{ "type": "Feature", "properties": { "osmid": 5788342864, "y": 3840429.3196197697, "x": 546058.72315545764, "highway": null, "street_count": 3, "ref": null, "junction": null, "angle_range": "40-50", "min_angle": 44.7, "residual_angle": 20.07, "res_vec_x": 0.9393, "res_vec_y": 0.3431 }, "geometry": { "type": "Point", "coordinates": [ 135.502942499999989, 34.7048624 ] } },
{ "type": "Feature", "properties": { "osmid": 11179063803, "y": 3839790.8589658095, "x": 546736.35905381048, "highway": null, "street_count": 3, "ref": null, "junction": null, "angle_range": "40-50", "min_angle": 40.1, "residual_angle": 250.74, "res_vec_x": -0.3299, "res_vec_y": -0.944 }, "geometry": { "type": "Point", "coordinates": [ 135.5103064, 34.6990743 ] } }
]
}
