{
"type": "FeatureCollection",
"name": "y_nodes_10_20_with_vector",
"crs": { "type": "name", "properties": { "name": "urn:ogc:def:crs:OGC:1.3:CRS84" } },
"features": [
{ "type": "Feature", "properties": { "osmid": 9849723058, "y": 3839994.0624894896, "x": 545337.47985632438, "highway": null, "street_count": 3, "ref": null, "junction": null, "angle_range": "10-20", "min_angle": 18.6, "residual_angle": 294.6, "res_vec_x": 0.4164, "res_vec_y": -0.9092 }, "geometry": { "type": "Point", "coordinates": [ 135.4950437, 34.7009697 ] } },
{ "type": "Feature", "properties": { "osmid": 413290006, "y": 3839904.7595116668, "x": 545396.19574214879, "highway": null, "street_count": 3, "ref": null, "junction": null, "angle_range": "10-20", "min_angle": 16.0, "residual_angle": 93.69, "res_vec_x": -0.0644, "res_vec_y": 0.9979 }, "geometry": { "type": "Point", "coordinates": [ 135.49568, 34.700161799999989 ] } },
{ "type": "Feature", "properties": { "osmid": 564263617, "y": 3839976.3353803447, "x": 545755.89538639493, "highway": null, "street_count": 3, "ref": null, "junction": null, "angle_range": "10-20", "min_angle": 15.6, "residual_angle": 107.7, "res_vec_x": -0.3041, "res_vec_y": 0.9526 }, "geometry": { "type": "Point", "coordinates": [ 135.4996113, 34.7007912 ] } },
{ "type": "Feature", "properties": { "osmid": 564425270, "y": 3840803.5176164838, "x": 545458.94109980913, "highway": null, "street_count": 3, "ref": null, "junction": null, "angle_range": "10-20", "min_angle": 15.5, "residual_angle": 106.76, "res_vec_x": -0.2884, "res_vec_y": 0.9575 }, "geometry": { "type": "Point", "coordinates": [ 135.496413499999989, 34.7082636 ] } },
{ "type": "Feature", "properties": { "osmid": 5359174880, "y": 3840300.6364933443, "x": 545545.41246233694, "highway": null, "street_count": 3, "ref": "D", "junction": null, "angle_range": "10-20", "min_angle": 10.5, "residual_angle": 110.15, "res_vec_x": -0.3445, "res_vec_y": 0.9388 }, "geometry": { "type": "Point", "coordinates": [ 135.4973306, 34.703725 ] } },
{ "type": "Feature", "properties": { "osmid": 9817164337, "y": 3840091.484372084, "x": 545665.5796906976, "highway": null, "street_count": 3, "ref": null, "junction": null, "angle_range": "10-20", "min_angle": 18.1, "residual_angle": 178.86, "res_vec_x": -0.9998, "res_vec_y": 0.0199 }, "geometry": { "type": "Point", "coordinates": [ 135.4986314, 34.7018336 ] } },
{ "type": "Feature", "properties": { "osmid": 1851607769, "y": 3841517.2113132239, "x": 547256.19783006574, "highway": null, "street_count": 3, "ref": null, "junction": null, "angle_range": "10-20", "min_angle": 19.8, "residual_angle": 287.88, "res_vec_x": 0.307, "res_vec_y": -0.9517 }, "geometry": { "type": "Point", "coordinates": [ 135.5160789, 34.7146178 ] } },
{ "type": "Feature", "properties": { "osmid": 10685104205, "y": 3841555.7156787179, "x": 546811.21426563454, "highway": "crossing", "street_count": 3, "ref": null, "junction": null, "angle_range": "10-20", "min_angle": 15.1, "residual_angle": 9.08, "res_vec_x": 0.9875, "res_vec_y": 0.1578 }, "geometry": { "type": "Point", "coordinates": [ 135.5112216, 34.7149855 ] } },
{ "type": "Feature", "properties": { "osmid": 11868422929, "y": 3840615.114295471, "x": 547239.6698446963, "highway": null, "street_count": 3, "ref": null, "junction": null, "angle_range": "10-20", "min_angle": 19.1, "residual_angle": 271.16, "res_vec_x": 0.0202, "res_vec_y": -0.9998 }, "geometry": { "type": "Point", "coordinates": [ 135.515847900000011, 34.7064839 ] } },
{ "type": "Feature", "properties": { "osmid": 10685104203, "y": 3841566.5606450345, "x": 546811.09505806444, "highway": "crossing", "street_count": 3, "ref": null, "junction": null, "angle_range": "10-20", "min_angle": 13.1, "residual_angle": 15.26, "res_vec_x": 0.9647, "res_vec_y": 0.2632 }, "geometry": { "type": "Point", "coordinates": [ 135.511220900000012, 34.715083300000011 ] } }
]
}
